"id","name","number","email","address","lat","long","area","dob","sq_feet","store_image","ownername","ownernumber","contactname","contactnumber",
"2","success","27526660","meetrajput1234@gmail.com","NRI COMPLEX, SHOP NO.8, SEAWOOD ESTATE, SECTOR 58 NERUL NAVI MUMBAI","0","0","Seawoods","1989-06-01","500","","Jaimal","89765","Bharat","9167436068",
"7","Anupam Stationery superstore pvt. ltd. (moksh)","02228998880","info@anupam.net.in","31, moksh plaza, S.V. road, near railway station, borivali (w), Mumbai.","0","0","Borivali - East & West","0000-00-00","12000","image17.jpg","Ramnik gala","","Mr. Bhavar","9167212081",
"8","Little wonder toys & sports .","02228999945","littliwonder.3102@gmail.com","Shraddha shopping center, s.V. road, opp. Indraprastha, borivali (w), mumbai","0","0","Borivali - East & West","1984-07-14","0","","Mr. Jigar","9867222378","Mr.Rajesh","9320540766",
"9","Anupam stationery superstore pvt.ltd.","02228330303","info@anupam.net.in","Sai shopping mall, opp. Railway station, borivali (w), Mumbai.","0","0","Borivali - East & West","0000-00-00","1000","image19.jpg","Ramnikbhai gala","9820059190","Mr. Sampat","9769774492",
"10","Odyssey","24402264","","Odyssey Towers no 45&47,first main road, Gandhi Hager,Adayar,Chennai","0","0","ADYAR/ THIRUVANMYUR/ BESANT NAGER/ KOTTIVAKKAM/ OMR/ VELACHERY","0000-00-00","1000","","","","","",
"11","Gora Gandhi sports & toys.","02228938439","devisinghpurohit09@gmail.com","Shop no. 17, Goragandhi apartment, s.v.p. Road, borivali (w), Mumbai.","0","0","Borivali - East & West","0000-00-00","400","","Devi singh purohit","9869113689","Mr. Gulabbhai","9619698012",
"12","kidsland","","","K block Kalkaji","0","0","Amar Colony/ G K - 1/ G K - 2/ Kalkaji/ Govindpuri/ Alaknanda","2014-09-29","125","","","","","",
"14","Parshavi collection","02228992332","dreambalcan@gmail.com","8, Mayekar shopping center, opp. Diamond talkies, l.T . road, borivali(w), Mumbai.","0","0","Borivali - East & West","1977-12-13","350","","Mr. Jigarbhai","","Mr. Jigarbhai.","9820134001",
"25","words & worths books p ltd","24468659","wordsnworths@gmail.com","E 28 second avenue Besantnager","0","0","ADYAR/ THIRUVANMYUR/ BESANT NAGER/ KOTTIVAKKAM/ OMR/ VELACHERY","0000-00-00","500","","Ansari","9710036383","sadham","9710036383",
"26","Asian General Store","24184790","asian_store@ymail.com","807,Imperial Mahal,khodadad circle,Dr. Ambedkar Road,radar t t,mumbai","0","0","DADAR EAST","1964-10-25","450","","kishor","9820615970","ankit","9967618101",
"28","toy junction","25459599","toyjunction@gmail.com","406/4m,1st floor, s.r.v.plaza,Kammanahalli main road, kalyananagar, bangalore","0","0","Kammanahalli/ Banaswadi/ Hennur/ Ram Murthy Hagar","1985-10-02","2200","image32.jpg","madhusudhan","9379155599","madhu","9379955599",
"30","kiddy land pvt.ltd","26212956","","C/20-21Amarcolony lajpat ngr new delhi","0","0","Amar Colony/ G K - 1/ G K - 2/ Kalkaji/ Govindpuri/ Alaknanda","0000-00-00","150","image34.jpg","mrs. sandhya","9810766566","mr. Ram","9810866566",
"31","shobas gift gallery","25427889","","60/1 cmrc road hrbr layout Kalgan Hagar","0","0","Kammanahalli/ Banaswadi/ Hennur/ Ram Murthy Hagar","1978-09-30","2150","","ashraf","9448088453","sayeed","9448088453",
"32","Baby walker","41004282","babywalkers1975@gmai.com","23- M-block g k-1 new delhi","0","0","Amar Colony/ G K - 1/ G K - 2/ Kalkaji/ Govindpuri/ Alaknanda","0000-00-00","150","","Mr.Dipanshu gupta","9999990347","ranjit nagar","8750128289",
"33","Little Finger","40968540","","3&4 maruthi complex, 46/1, papamma reddy layout, ram murthy Hagar, bangalore","0","0","Kammanahalli/ Banaswadi/ Hennur/ Ram Murthy Hagar","0000-00-00","3000","","pankaj agarwal","9900205255","debananda","8553789688",
"34","empire fancy","24464368","bikalkma@gmail.com","E34, 2nd avenue,Besant nagar","0","0","ADYAR/ THIRUVANMYUR/ BESANT NAGER/ KOTTIVAKKAM/ OMR/ VELACHERY","1985-07-21","0","","haniff","9884479170","ashim","9884479170",
"35","pm enterprises","04424466303","lilmischiefchennai@gmail.com","E-971stfloor3rd Main Road Besant Nagar","0","0","ADYAR/ THIRUVANMYUR/ BESANT NAGER/ KOTTIVAKKAM/ OMR/ VELACHERY","2014-09-30","600","","Mukta","9677115550","Shyamala","9994666098",
"36","Prabhat Gift Centre","24467047","prabhatnexgen@gmail.com","242,santosh,L.J.Road,Near shivaji park bus stop, radar(w).Mumbai","0","0","DADAR WEST","0000-00-00","600","image40.jpg","zubin shah","9820500997","zubin","9820500997",
"37","The Olive","41553324","info@olive.co.in","8, lp complex, 4th cross, ombr layout, banaswadi, Bangalore.","0","0","Kammanahalli/ Banaswadi/ Hennur/ Ram Murthy Hagar","1978-11-11","500","","paul","9986952597","john","9886995122",
"38","Rama book dipo","29834324","","61, central MKT lajpat ngr new delhi","0","0","Lajpat Nagar/ Vasant Vihar/ New Friends Colony/ Khan Market/ Defense colony/ Mulchand","0000-00-00","60","image39.jpg","","","","",
"39","khanna gift house","29839852","","79,central MKT lajpat ngr new delhi","0","0","Lajpat Nagar/ Vasant Vihar/ New Friends Colony/ Khan Market/ Defense colony/ Mulchand","0000-00-00","100","image42.jpg","Mr.Ashok khanna","9871435332","Mr. Dube","9871976640",
"40","Shiva toys","29831541","kohlisanjay16@gmail.com","J-2A ground for central MKT lajpat ngr-2 new delhi","0","0","Lajpat Nagar/ Vasant Vihar/ New Friends Colony/ Khan Market/ Defense colony/ Mulchand","1967-02-16","0","image43.jpg","Mr.Sanjay kohli","9810830061","Mr.ganesh","9958347804",
"41","Dora bag mall","26205302","jangchennai@yahoo.co.in","159A, 7th Avenue,Be sent Hager,Chennai","0","0","ADYAR/ THIRUVANMYUR/ BESANT NAGER/ KOTTIVAKKAM/ OMR/ VELACHERY","0000-00-00","1000","image44.jpg","Dora mall","","","",
"42","Good Luck Gift Gallery","24451913","padamshigala39@gmail.com","Rehmat manjil, 59, l j road, mahim, mumbai","0","0","DADAR WEST","1964-11-27","215","","piyush Gala","9819656587","sunil","9820902433",
"43","Sitaram Enterprise","29842832","sitaramenterprises09@yahoo.com","J-5central MKT lajpat ngr new delhi","0","0","Lajpat Nagar/ Vasant Vihar/ New Friends Colony/ Khan Market/ Defense colony/ Mulchand","0000-00-00","150","","Mr.Karan Arora","9650338339","ranjit","8750128289",
"44","Toy World (sam&com.)","41721404","toysworld@gmail.com","147 Lajpat ngr 2nd new delhi","0","0","Lajpat Nagar/ Vasant Vihar/ New Friends Colony/ Khan Market/ Defense colony/ Mulchand","0000-00-00","200","","Mr.Suneel","9810055006","ranjit","8750128289",
"45","Arjundas Gagandas Kartari. (Big Bunny).","02226136062","kartarimanish@gmail.com","juhu Tara road, next to kalaniketan, juhu, Mumbai .","0","0","Vileparle - East & West","0000-00-00","1000","","Mr. Rommi","","Mr. Manish","9833027880",
"46","Noorie Toy Land","02226126175","noorietoyland@yahoo.com","vaishali shopping centre, V.M. road, juhu scheme, Mumbai.","0","0","Vileparle - East & West","0000-00-00","350","image47.jpg","Mr. Darshan shah","9833155061, 9833810810","Mr. Dinesh","9892665820",
"47","sun gift gallery","41687257","","108, cauvery nilayam, Kammanahalli main road, bangalore","0","0","Kammanahalli/ Banaswadi/ Hennur/ Ram Murthy Hagar","1977-09-30","300","image48.jpg","teja ram","","bharath","9739719692",
"48","Pram service staton (In&Out Bharat)","26256436","ashokpss@hotmail.com","Tito Mary, opp.college of Nursing, Andrews Ganj new delhi","0","0","Lajpat Nagar/ Vasant Vihar/ New Friends Colony/ Khan Market/ Defense colony/ Mulchand","0000-00-00","50","image49.jpg","Mr.Ashok Mego","9811031217","Ms.kiran","...............",
"49","Rushabh collection","24374348","","Shop no 10,manjrekar Sadan,opp.century bazaar , kharude market , worli , mumbai","0","0","DADAR WEST","1963-12-15","300","image50.jpg","Nitin shah","9819656580","purvesh","9821866638",
"50","The Gift Shop .","","arjunvanyogi@gmail.com","Shop no. 3, Nandkripa shopping centre, 4 bungalow, and her I(w), Mumbai.","0","0","Andheri West","1989-06-01","200","","Mr.Arjun","","Mr. Arjun.","9819955344",
"51","Maharani Dipartmental Store","24330754","","36 Defence colony MKT new delhi","0","0","Lajpat Nagar/ Vasant Vihar/ New Friends Colony/ Khan Market/ Defense colony/ Mulchand","0000-00-00","100","","Mr.Rajesh","9810493984","â€¦.................","....................",
"52","Wrapped Emotions","","wrap.emotions@gmail.com","202, 4th cross, hrbr layout, cmr road, kammanahalli,bangalore","0","0","Kammanahalli/ Banaswadi/ Hennur/ Ram Murthy Hagar","1976-06-16","2500","","rajendra singh sisodia","9845681795","sridhar","8892351699",
"53","Art Station .","02226339794","","Shop no. 18, nandkripa shopping centre, 4 Bunglows, and her I (w), Mumbai.","0","0","Andheri West","0000-00-00","200","image54.jpg","","","Mr. Sachin","99672802612",
"54","Textile Showroom","24333604","tsramit39@gmai.com","7 JD bhawan defence colony new delhi","0","0","Lajpat Nagar/ Vasant Vihar/ New Friends Colony/ Khan Market/ Defense colony/ Mulchand","0000-00-00","100","","Mr.Amit gupta","9810277404","...............","................",
"55","Kamdhenu Departmental store pvt. ltd.","02226315627,28,29.","kamdhenu_09@yahoo.co.in","4 Bungalow Junction, Andheri (w), Mumbai.","0","0","Andheri West","0000-00-00","2000","image55.jpg","Mr. Dhiraj bhai","9820817537","Mr. Roop singh","9920685655",
"56","Smiles The Gift Shop","26935780","","3 femur ngr new friends colony new delhi","0","0","Lajpat Nagar/ Vasant Vihar/ New Friends Colony/ Khan Market/ Defense colony/ Mulchand","0000-00-00","300","","","","Mr.govind","",
"57","Sanjay Toys","","","26,Amartally street Kolkata 700001","0","0","Alipur / New Alipur/ Bihala/ Splanet/ Bada Bazaar","0000-00-00","0","","","","Rajeev Jain","9831410516",
"58","Green Turtle","02226334477","gbabhaniya@gmail.com","Shop no. G3, ratnagar Bldg, nr 4 Bungalow signal, J.p.road, Andheri(w), Mumbai.","0","0","Andheri West","1985-02-05","540","image57.jpg","Mr. Govind","","Mr. Govind.","9920122120",
"59","Muskaan toys","65001587","muskaantoys@gmail.com","10/b,Shibdas Bhaduri Street, fariapukar,Shyambazar,Kolkata.700004.","0","0","Shyam Bazaar/ Podiya Pukur/ Kakurgachi/ Lake Town/ Baguwadi","0000-00-00","0","","","","bapa","09804811042",
"60","Gurukrupa Cards & Gifts","02226356774, 02266994774","gurukrupagifts@gmail.com","evershine apartment, No.2, shop no. 34,35,35A, off j.P. road, 7 bungalows, and her I(w), Mumbai.","0","0","Andheri West","0000-00-00","825","","Mr. Dhiraj bhai.","9892439363","Mr. Dinesh","8286697664",
"61","Mahavir Traders","24463888","mahavirtraders@yahoo.co.in","192 , roopwala terrace (path are mansion),l. J. Road, near city light cinema, matunga (w), mumbai","0","0","DADAR WEST","1968-08-15","300","image59.jpg","Rupesh jain","9892626207","Rupesh","9892626207",
"62","Shakti Collection.","02226396973","rajgada58@gmail.com","17, evershine shopping centre, Opp. Bonbon, 7 bungalow, Andheri (w), Mumbai.","0","0","Andheri West","0000-00-00","400","","Mr. D.J. Gada.","","Mr. Rajesh bhai.","9821271432",
"63","Maharashtra Collection","24454613","","1 new shrinath bldg, near city light signal, l. J. Road, matunga(w), mumbai","0","0","DADAR WEST","1966-11-12","350","","Ramesh Boricha","9769555915","Ramesh Bhai","9769555915",
"64","Sheviks Toys","26142166","","25-B shopping centre Block-C paschim Mary vasant Bihar new delhi","0","0","Lajpat Nagar/ Vasant Vihar/ New Friends Colony/ Khan Market/ Defense colony/ Mulchand","0000-00-00","200","","Mr. Vikram Marett","9810947572","Mr.Ajay","............",
"65","MIRACLES THE TOY STORE","26222937","miraclesthetoystore@gmail.com","154 E- Block main road kalkaji new delhi","0","0","Amar Colony/ G K - 1/ G K - 2/ Kalkaji/ Govindpuri/ Alaknanda","0000-00-00","100","","Mr.Chavi bhalla","9899774818","â€¦..........",".............",
"66","MAHAJAN GIFT HOUSE","26445425","mgh_toys@yahoo.co.in","G-16/A main road kalka ji new delhi","0","0","Amar Colony/ G K - 1/ G K - 2/ Kalkaji/ Govindpuri/ Alaknanda","0000-00-00","150","","Mr.vijay mahajan","9910546565","Mr. varma","................",
"67","SUPER GALLERY","26845032","akshay250@gmail.com","18-C- block MKT east of kailash new delhi","0","0","Amar Colony/ G K - 1/ G K - 2/ Kalkaji/ Govindpuri/ Alaknanda","0000-00-00","100","","Mr.Ramnik Arora","9891292983","Me.Raju","..............",
"68","WIENERS","41731585","nitin_wieners@yahoo.co.in","m-50 G k-1 new delhi","0","0","Amar Colony/ G K - 1/ G K - 2/ Kalkaji/ Govindpuri/ Alaknanda","0000-00-00","150","","Mr.Nitin Gupta","9810144585",".............","..............",
"69","BOOK VOOK","41006766","","B-3,5,7 Basement, near aggawwl  sweets alaknanda mkt","0","0","Amar Colony/ G K - 1/ G K - 2/ Kalkaji/ Govindpuri/ Alaknanda","0000-00-00","100","","Mr. Ankit Aggarwal","9818395025",".............",".............",
"70","Nanda fancy store","26828983","","1670/1 govind puri ext, kalka ji","0","0","Amar Colony/ G K - 1/ G K - 2/ Kalkaji/ Govindpuri/ Alaknanda","0000-00-00","100","","Mr. karan nanda","9212137525","â€¦.........",".........,..",
"71","Connexions (Annanager)","24793516","purchase@connexionsonline.biz","Retail stores private limited,120,natasan Hager,3rd main road
Virugambakkam, Chennai","0","0","ANNANAGAR / SALIGRAMAM/ MUGAPPAIR/ VANAGARAM/ VADAPALANI/ K K NAGER/ T NAGAR / WEST MAMBALAM","0000-00-00","2000","","Ravi","","Titus","9789998808",
"72","Manoj Stores","23675553","manojstores@gmail.com","Grd. & 1st floor, 63, bhulabhai Desai Road, mumbai","0","0","BREACH CANDY","1969-11-25","7500","","Manoj Gala","9820021428","Gopalraj jha","9594942631",
"73","sky blue","9879643434","","Opp star bazaar satellite ahmedabad.","0","0","Satellite/ Jodpur","0000-00-00","1000","","vipul","9879643434","vipul","9879643434",
"74","Connexions (Coimbatore)","24793516","purchase@connexionsonline.biz","Retail stores private limited,120,natesan never ,3rd main road
Virugambakkam chennai","0","0","ANNANAGAR / SALIGRAMAM/ MUGAPPAIR/ VANAGARAM/ VADAPALANI/ K K NAGER/ T NAGAR / WEST MAMBALAM","0000-00-00","2000","","Ravi","","Titus","9789998808",
"75","Connexions (saligramam)","24793516","purchase@connexionsonline.biz","Retail stores private limited, 120,natasan Hager,3rd main road
Virugambakkam Chennai","0","0","ANNANAGAR / SALIGRAMAM/ MUGAPPAIR/ VANAGARAM/ VADAPALANI/ K K NAGER/ T NAGAR / WEST MAMBALAM","0000-00-00","500","","Ravi","","Titus","9789998808",
"76","pluto toys","9327005266","milan_1965@rediffmail.com","10paradise park society b/h st.Lauren hotel ashram road ahmeadbad","0","0","CG Road/ Ashram Rd.","0000-00-00","0","image63.jpg","darshan bhai","9327005266","jalpan","9327005266",
"77","Connexions (velachery)","24793516","purchase@connexionsonline.biz","Retail stores private limited 120, natesan Hager, 3rd main road
Virugambakkam Chennai","0","0","ANNANAGAR / SALIGRAMAM/ MUGAPPAIR/ VANAGARAM/ VADAPALANI/ K K NAGER/ T NAGAR / WEST MAMBALAM","0000-00-00","1000","","Ravi","","Titus","9789998808",
"78","LEO TOYS","4009051","harsh_arora68@yahoo.co.in","UG-14 DT MEGA MALL  DLF-1 GURGAON","0","0","Gurgaon - 1","0000-00-00","150","","Mr. Harsh Arora","9811103933","Mr. Dharmendra","8285187546",
"79","ankur hobby","6662131","","Abhirath complex near sardar patel statue Naranpura Ahmadabad.","0","0","Naranpura","1963-01-24","1200","","dhanjay raval","9898431115","devendra/niraj","9898431115",
"80","Kamdhenu","23620204","kamdhenu1999@gmail.com","99, Videocon house, Nepean sea road, mumbai","0","0","BREACH CANDY","1977-01-02","7000","","Ramesh patel","9820221879","kishan","7718017077",
"81","Patel Toys & stationery","02226399757, 26399749.","","Bldg no. 40, shop no. 9, oshiwara mhada complex, new lokhanwala link road, extn, Andheri (w), Mumbai.","0","0","Andheri West","0000-00-00","300","image67.jpg","Mr. Shamji Patel.","9819891660","Mr. Ram.","9987714025",
"82","KIDS HAWELI  (MITCO EXPORT)","8826843495","badal_mittal2001@yahoo.com","Lg-21,22 mega mall golf course r.d  dlf -1 Gurgaon","0","0","Gurgaon - 1","0000-00-00","200","","Badal Mittal","9810038892","Mr. Lal","9310425517",
"83","Toy World","25589760","","44, commercial street, Bangalore.","0","0","Indranagar / Thippsandra / Commercial St.","0000-00-00","2000","image69.jpg","","","","",
"84","Connexions (salem)","24793516","purchase@connexionsonline.biz","Retail stores private limited 120, natesan nager, 3rd main road
Virugambakkam Chennai","0","0","ANNANAGAR / SALIGRAMAM/ MUGAPPAIR/ VANAGARAM/ VADAPALANI/ K K NAGER/ T NAGAR / WEST MAMBALAM","0000-00-00","500","","Ravi","","Titus","9789998808",
"85","Connexions (salem)","24793516","purchase@connexionsonline.biz","Retail stores private limited 120, natesan nager, 3rd main road
Virugambakkam Chennai","0","0","ANNANAGAR / SALIGRAMAM/ MUGAPPAIR/ VANAGARAM/ VADAPALANI/ K K NAGER/ T NAGAR / WEST MAMBALAM","0000-00-00","500","","Ravi","","Titus","9789998808",
"86","mama love","7600768161","amitc23@gmail.com","109/4, shreeji complex sardar Patel colony ahmedabad","0","0","Naranpura","1978-02-23","0","image70.jpg","amit","7600768161","amit","7600768161",
"87","Connexions (Adyar)","24793516","purchase@connexionsonline.biz","Retail stores private limited 120, natesan Hager, 3rd main road
Virugambakkam Chennai","0","0","ANNANAGAR / SALIGRAMAM/ MUGAPPAIR/ VANAGARAM/ VADAPALANI/ K K NAGER/ T NAGAR / WEST MAMBALAM","0000-00-00","1000","","Ravi","","Titus","9789998808",
"88","Bright Sales","25587204","","93, Commercial Street, Bangalore.","0","0","Indranagar / Thippsandra / Commercial St.","0000-00-00","3000","image73.jpg","Rajavelu","9448116879","saleem","8553908387",
"89","Sterling For Music","23678245","sterlingformusic@hotmail.com","22, chandralok, A 97, nepean sea Road, mumbai","0","0","BREACH CANDY","1956-04-21","250","","Mukul Shah","9820566996","Harshit Sheth","9820757888",
"90","Connexions (Ashok nager)","24793516","purchase@connexionsonline.biz","Retail stores private limited 120,natesan never,3rd main road
Virugambakkam Chennai","0","0","ANNANAGAR / SALIGRAMAM/ MUGAPPAIR/ VANAGARAM/ VADAPALANI/ K K NAGER/ T NAGAR / WEST MAMBALAM","0000-00-00","500","","Ravi","","Titus","9789998808",
"91","meeta xerox & gift","9898175694","","Below mother pets school naranpura ahmeabad","0","0","Naranpura","1961-11-20","400","","anil","9898175694","anil","9898175694",
"92","Connexions (mogappair)","24793516","purchase@connexionsonline.biz","Retail stores private limited 120, natesan Hager,3rd main road
Virugambakkam Chennai","0","0","ANNANAGAR / SALIGRAMAM/ MUGAPPAIR/ VANAGARAM/ VADAPALANI/ K K NAGER/ T NAGAR / WEST MAMBALAM","0000-00-00","500","","Ravi","","Titus","9789998808",
"93","Kenorita","66578307","","75, sagar tarang bldg. Opp. Darya mahal, nepean sea road, mumbai","0","0","BREACH CANDY","1989-07-01","22000","image76.jpg","vicky chheda","9892980138","Jaisukh","9820589548",
"94","Connexions (infosys shollinganallur)","24793516","purchase@connexionsonline.biz","Retail stores private limited 120, natesan Hager , 3rd main road
Virugambakkam Chennai","0","0","ANNANAGAR / SALIGRAMAM/ MUGAPPAIR/ VANAGARAM/ VADAPALANI/ K K NAGER/ T NAGAR / WEST MAMBALAM","0000-00-00","300","","Ravi","","Titus","9789998808",
"95","Connexions (mahindra world city)","24793516","purchase@connexionsonline.biz","Retail stores private limited 120, natesan Hager, 3rd main road
Virugambakkam Chennai","0","0","ANNANAGAR / SALIGRAMAM/ MUGAPPAIR/ VANAGARAM/ VADAPALANI/ K K NAGER/ T NAGAR / WEST MAMBALAM","0000-00-00","100","","Ravi","","Titus","9789998808",
"96","SURJ ENTERPRISES",".....................","surj_play_lear_@hotmail.com","SGO8 Galerya MKT dlf-4 gurgaon","0","0","Gurgaon - 1","0000-00-00","150","","Mrs.Jaya Rakesh","9811912367","............","............",
"97","Connexions (mahindra infosys)","24793516","purchase@connexionsonline.biz","Retail stores private limited 120, natesan Hager 3rd main road
Virugambakkam Chennai","0","0","ANNANAGAR / SALIGRAMAM/ MUGAPPAIR/ VANAGARAM/ VADAPALANI/ K K NAGER/ T NAGAR / WEST MAMBALAM","0000-00-00","100","","Ravi","","Titus","9789998808",
"98","Komal Collection","23683521","komalcollections@yahoo.com","Petit hall shopping centre, 66, nepeansea road, mumbai","0","0","BREACH CANDY","1974-02-13","350","image77.jpg","Nitin bhai","9820118688","Rajubhai","8879199883",
"99","SHINE GIFT GALLERY","4237373","dev_8477@yahoo.com","Shop no 32 gf  vyaper kandre sushant Lok","0","0","Gurgaon - 1","1980-12-12","280","image80.jpg","Mr.dev","9873730734","â€¦............","..............",
"100","toy house","25367842","sunder_1969_8@yahoo.com","141/2 k kamraj road, bangalore","0","0","Indranagar / Thippsandra / Commercial St.","1969-07-08","2400","","naraynan","9880294277","sundar","9880294277",
"101","Hello","9989","demo@demo.com","A","19.0726244","72.8998691","","2014-10-16","0","","9819","678678","876876","786",
"102","Charisma .","","charismakda@yahoo.co.in","Kokilaben dhirubhai ambani Hospital, gr floor, 4 bunglows ,andheri  (w), Mumbai.","0","0","Andheri West","0000-00-00","450","image81.jpg","Dr. Mittal Dedhia.","","Mr. Chetan.","9821688124",
"103","Global Retail","23697712","globalretailjgd@gmail.com","Dhun-abad, 106, bhulabhai Desai Road, Jn. Of warden road & nepeansea road, mumbai","0","0","BREACH CANDY","1965-05-27","2200","image83.jpg","Vabeez","9820237713","Ashwini","9769468376",
"104","TOY PALACE","9958530618","akash.is.gupta@gmail.com","GF 75 Vyapar kendra sushant look ph-1 gurgaon","0","0","Gurgaon - 1","0000-00-00","200","","Mr.Akash Gupta","9910633618","Mr. sachin","8860115266",
"105","RIWAZ GIFT &TOY","42910557","","77 ,220, vyapar kendra sushant lok-1 gurgaon","0","0","Gurgaon - 1","0000-00-00","100","","Mr. C.P. pawar","9717308710","...............","...............",
"106","Tiny Toyz","25597444","tinytoyzblr@gmail.com","Diamond Plaza, #50/1, 1St  floor,Ibrahim saved street, Bangalore.","0","0","Indranagar / Thippsandra / Commercial St.","1979-05-17","1300","image89.jpg","Syed","9141277733","atiq","9019556414",
"107","Harish Collection.","02226334412, 26319628.","harishcollection1992@gmail.com","Embassy bldg, shop no. 9, lokhandwala complex, andheri (w), Mumbai.","0","0","Andheri West","0000-00-00","700","","Mr. Valji Patel.","9892221650","Mr. Dinesh","9820114545",
"108","Warden Collection","23682222","wardencollection@yahoo.com","Advani chambers,A. K. Mary shop no.4, mumbai","0","0","BREACH CANDY","1965-03-21","300","image91.jpg","Talakshi","9820329637","Talakshi","9820329637",
"109","New Pleasure Treasure.","02265263957, 66973943.","only_pleasure@live.com","58, R.N.A. Arcade, opp oriental bank, next to woodland, lokhandwala complex, Andheri (w), Mumbai.","0","0","Andheri West","0000-00-00","600","","Mr. Jayesh chhadva.","9820016155","Mr. Praful .","8879927820",
"110","Kids Corner.","02226365929","gadaamit9@gmail.com","Shop. No. 43, R.N.A. archade , lokhandwala complex, andheri (w), Mumbai.","0","0","Andheri West","0000-00-00","250","","Mr. Amit Gada.","9819642337","Mr. Ramesh","9920714149",
"111","company","25852215","","Hidfhdjhfdjhjn. Jddfhjddjfdddhcjjd kjdfkjdfjdfjddjjdf
Ssjcxjcsscjsjcjsscjnjj","0","0","Kandivali- EAST","1976-04-08","150","image83.jpg","","","anuj","9820475236",
"112","SPORTS &GIFT EMPORIUM","24655766","party_setters@yahoo.com","A-61 khan MKT inside arcode, new delhi","0","0","Lajpat Nagar/ Vasant Vihar/ New Friends Colony/ Khan Market/ Defense colony/ Mulchand","0000-00-00","100","","Mr.Salil choudhry",".....................","Mrs.sweety",".................",
"113","GIFT PALACE (GUPTA BROTHERS)","24632640","","52-khan MKT new delhi","0","0","Lajpat Nagar/ Vasant Vihar/ New Friends Colony/ Khan Market/ Defense colony/ Mulchand","0000-00-00","200","","Mr. Rakesh Gupta","9910166750","............","...............",
"114","AUTO CENTER ( In&Out )","24648315","autocentre61@gmail.com","D-block main r.d difence colony new delhi","0","0","Lajpat Nagar/ Vasant Vihar/ New Friends Colony/ Khan Market/ Defense colony/ Mulchand","0000-00-00","100","","Mr. Nitin bathla",".......................","Mr.Prem vist","...................",
"115","Celebration .","02229208563","","B-4, twin arcade, opp. Blossom society, military road, marol, andheri, (e), Mumbai.","0","0","Andheri East","0000-00-00","500","","Mr. P.H. Shah.","","Mr. Devendra","8879255643",
"116","RS Shopping center","24453193","saif.ms155@gmail.com","73,lb.Road Opp.tel exchange, Adyar Chennai","0","0","ADYAR/ THIRUVANMYUR/ BESANT NAGER/ KOTTIVAKKAM/ OMR/ VELACHERY","0000-00-00","1000","","K.M Basheer","","K.M Basheer","9176455764",
"117","Right choice","42019848","","Kurnji appts","0","0","ADYAR/ THIRUVANMYUR/ BESANT NAGER/ KOTTIVAKKAM/ OMR/ VELACHERY","0000-00-00","1000","","Ramesh","","","",
"118","Sams Toy World","","sam_shukla2525@yahoo.co.in","28, Aakash tower, premchand Hagar, ahmedabad","0","0","Vastrapur/ S G Highway","0000-00-00","900","","Shailesh","9825252510","Ashish","7777995504",
"119","Sonalei Collection.","02229259707","vinodwadhwani36@gmail.com","Bhavani tower, shop no. 3, bhawani nagar, nr. M.E.A school, Marol maroshi road, andheri, (e), Mumbai.","0","0","Andheri East","0000-00-00","300","","Mr. Vinod wadhwani","","Mr. Vinod.","9819957105",
"120","Gifts n Gifts","04424481890","","1/228 Ecr Main Road, Kottivakkam,Chennai","0","0","ADYAR/ THIRUVANMYUR/ BESANT NAGER/ KOTTIVAKKAM/ OMR/ VELACHERY","2014-10-23","1000","","serene","9600117034","Prabhu John","9941328890",
"121","Half Tickets","43036823","halftickets@yahoo.com","No.3, 5th street, Tansi Hagar, Velachery, Chennai-42","0","0","ADYAR/ THIRUVANMYUR/ BESANT NAGER/ KOTTIVAKKAM/ OMR/ VELACHERY","0000-00-00","350","","Sathish","9500022891","Manikandan","9443386150",
"122","saumya stationary & general store","","","G 20 suncity mall sardar Patel ring road bopal Ahmedabad.","0","0","Bopal / Sun City","0000-00-00","300","","jignesh","9825532875","jignesh","9825532875",
"123","Choice Centre","02228342397","choicecentre@hotmail.com","5/5, Greenland apartment, J.B. nagar , andheri (e), Mumbai.","0","0","Andheri East","0000-00-00","300","","Mr. Shantilal Shah.","","Mr. Anil","8976649269",
"124","sadhna gift & novelties","27176560","","FF shri kabir enclave opp homeopathy college bopal ghuma road ahmedabad","0","0","Bopal / Sun City","0000-00-00","300","","sadhna","9601111413","sadhna","9601111413",
"125","Rex Fashions","43036004","","1&2, 100 feet bypass road velachery Chennai","0","0","ADYAR/ THIRUVANMYUR/ BESANT NAGER/ KOTTIVAKKAM/ OMR/ VELACHERY","0000-00-00","400","","Sathish","9884041167","laxmi","9884041167",
"126","The family shop","22433993","familyshop03@gmail.com","#46 E 1st floor, 100 feet road, opp to TCS, ramagiri Hager velachery Chennai","0","0","ADYAR/ THIRUVANMYUR/ BESANT NAGER/ KOTTIVAKKAM/ OMR/ VELACHERY","0000-00-00","500","","kalimuthu","","Raghuram","9940293311",
"127","kidzone","31922330","","369,Mgr Hager, Omr Near srp tools bus stop. Chennai","0","0","ADYAR/ THIRUVANMYUR/ BESANT NAGER/ KOTTIVAKKAM/ OMR/ VELACHERY","0000-00-00","1200","","","","","",
"128","Souvenirs","22842296","souvenirstoys@gmail.com","117,malabar mansion,colaba causeway,opp.cusrow baug , mumbai","0","0","SOUTH MUMBAI","2014-10-02","0","","Faizal Bhai","9820010796","Varun","9769426496",
"129","Nadco Toys & Gifts.","02226247705","nadco@gmail.com","17, super shopping centre, S.V.Road, Andheri (w), Mumbai.","0","0","Andheri West","0000-00-00","200","image88.jpg","Mr. Amish Shah.","9820227711","Mr. Suresh","9320925458",
"130","khushi mela","","khushimela@yahoo.in","Gf 5 jbr arcade science city road sola ahmedabad","0","0","Bopal / Sun City","0000-00-00","1200","","umang","9979871896","umang patel","9979871896",
"131","Big Tom","22153142","bigtomindia@gmail.com","59/a, Wodehouse Road, arsiwala Building, opp. Charagh din, colaba,mumbai","0","0","SOUTH MUMBAI","2014-10-02","600","image89.jpg","Manish shah","9820085862","Govind Rawal","9867887797",
"132","China Town,","02226280144","chinatownandheri@gmail.com","23, super shopping centre, Nadco, nr. Trupti farsan, s.v. road, Andheri (w), Mumbai.","0","0","Andheri West","0000-00-00","180","image90.jpg","Mr. Mayur Gada.","9167135675","Mr. Jabbar singh","9004782756",
"133","Magic Carpet","22188832","magiccarpetindia@gmail.com","1st daulat building, near colaba post office,colaba mumbai","0","0","SOUTH MUMBAI","2014-10-02","750","image91.jpg","Sanjay Koli","9820235786","sanjay","9819235786",
"134","riddhi gift stores","22861290","","G 49 shubh complex shahibaug ahmedabad","0","0","Chandkheda / Shahibaug","1974-04-13","500","image92.jpg","bharat","9825056005","bharat","9825056005",
"135","Famous General Stores.","02228342203","","Aghadi nagar , bldg no.4, shop no. 3/4, opp. Ambika tower, pump house, andheri (e),","0","0","Andheri East","0000-00-00","200","","Mr. Rizwan sheikh.","9821260535","Mr. kaleem pathan.","9702306628",
"136","First Choice Galleria 4.","02228303991","firstchoicegalleria4@gmail.com","Shop no. 3, new Mahakali development road, opp. Takshila Bldg no. 2, andheri (e), Mumbai.","0","0","Andheri East","0000-00-00","1000","image80.jpg","Mr. Kanji Patel.","9819171523","Mr. Vinod Patel.","9920031233",
"137","Fantasy Collection.","02228304741","nileshpatel3956@gmail.com","Shop no. 7, lala shopping centre, lala compound, Takshila road, mahakali, andheri  (e),","0","0","Andheri East","0000-00-00","400","image81.jpg","Mr. Rajesh patel.","9892750248","Mr. Nilesh Patel.","9819303956",
"138","Roma Collection.","02228222206, 07","nareshpatel796@gmail.com","Shop no. 8, Rajendra Kumar niwas, nr. Holy spirit hospital, mahakali caves road, Andheri (e), Mumbai.","0","0","Andheri East","0000-00-00","1200","image82.jpg","Mr. Balaji patel.","","Mr. Nilesh Patel.","9167528816",
"139","Tip Top Plastic Stores","23439797","vickydoshi8777@gmail.com","289,Abdul rehman street,Mumbai.","0","0","SOUTH MUMBAI","1977-07-08","650","","Vicky Doshi","9323214791","Nimesh Doshi","9920217774",
"140","kidzon (Nungambakkam)","43084333","kidzon3_ngm@yahoo.com","2,shattered Mohammed road","0","0","NUNGAMBAKKAM / EGMORE/ MOUNT ROAD/ GOPALAPURAM/ MYLAPOOR","0000-00-00","300","","","","siddique","8056011005",
"141","Seematy","28232376","","35/1, Noir veers samy street,
Nungambakkam, Chennai Chennai","0","0","NUNGAMBAKKAM / EGMORE/ MOUNT ROAD/ GOPALAPURAM/ MYLAPOOR","0000-00-00","1000","","mohamed thasthaikr","944433444851","mohamed thasthakir","9444334851",
"142","Selvam threads","28222050","","1/6, Krishna lyer street,Nungambakkau (near Independence park) Chennai","0","0","NUNGAMBAKKAM / EGMORE/ MOUNT ROAD/ GOPALAPURAM/ MYLAPOOR","0000-00-00","500","","Muthu raj","9444233868","Muthu raj","9444233868",
"143","kidzon vpi st,","42663330","","No 334 Arcot road  vadapalani CH. 26.","0","0","ANNANAGAR / SALIGRAMAM/ MUGAPPAIR/ VANAGARAM/ VADAPALANI/ K K NAGER/ T NAGAR / WEST MAMBALAM","0000-00-00","400","","Samsudeen","","","",
"144","jain Sports","40731800","shrenik1974@gmail.com","C/o Asiatic department store v. N. Road Churchgate mumbai","0","0","SOUTH MUMBAI","1974-04-18","100","","shrenik","9833999684","shrenik","9833999684",
"148","Esquire Books & Stationery .","02226484202","gautampatel6550@yahoo.com","Jai niketan bldg, shop no. 3, 16th road, corner Danda road, khar (w), Mumbai.","0","0","Khar- Bandra -East West","0000-00-00","350","","Mr. Madan bhai.","9967624249","Mr. Anil.","9004188189",
"149","Rainbow","25013576","gadadivyeshvirji@yahoo.com","15, Mahavira complex, m. G. Road. Ghatkopar(E), mumbai","0","0","Ghatkopar / Chembur / Mulund","1982-02-26","350","image85.jpg","Divyesh Gada","9967928081","Divyesh","9967928081",
"150","RAMA GALLERY","65979494","sameer.malik.rama@gmail.com","A-178,day an and Colony, lajpat ngr 4th new delhi","28.5639296","77.2502363","Amar Colony/ G K - 1/ G K - 2/ Kalkaji/ Govindpuri/ Alaknanda","0000-00-00","200","","Mr. Sameer","9810241616","Mr.Naveen Mandal","9717319092",
"151","Bharat Toys","25011376","chhedajay94@gmail.com","Bharat sports corner,m. G. Road, ghatkopar(E), mumbai","0","0","Ghatkopar / Chembur / Mulund","1963-02-04","100","","Jitendra Chheda","9821280251","jay","9987335773",
"152","Philips  Green Shop","23564095","","462, 10th cross, sampige road, malleswaram, bangalore","0","0","Malleshwaram/ Mathikeri/ Bel Road/ Sanjaynagar","1978-01-10","250","image87.jpg","john rebello","9341240865","philip rebello","8904568830",
"153","NEED BOOK DIPO","29233814","","5, e-15 kailash colony MKT. New delhi","28.5523596","77.240696","Amar Colony/ G K - 1/ G K - 2/ Kalkaji/ Govindpuri/ Alaknanda","0000-00-00","100","image89.jpg","Mr.Manish Gupta","9868383261","","",
"154","crossword/saivi enterprise","8496001122","crossword.gandhinagar@gmail.com","44 infocity supermall -2 gandhinagar","0","0","Gandhinagar - City","0000-00-00","1000","","kumar bhai","8496001122","kumar","8496001122",
"155","My Toys","21022295","mytoysmumbai@yahoo.co.in","3/73,Ramji Ashar bldg., opp. Poona hotel, m. G. Road, ghatkopar(E), mumbai","0","0","Ghatkopar / Chembur / Mulund","1979-06-29","550","image90.jpg","Manthan Shah","9821330302","Vinod Patel","9870445488",
"156","oxford stationers","23213067","","A-22 supermall-1 infocity shopping complex nr gh-0 gandhinagar.","0","0","Chandkheda / Shahibaug","0000-00-00","400","","k l patel","9824430037","k l patel","9824430037",
"157","Vishal Cycles &Toys","21023173","vishalcycle75@gmail.com","11, neelkant market, m. G. Road, ghatkopar (E), mumbai","0","0","Ghatkopar / Chembur / Mulund","1971-07-24","600","","Manish Shah","9869877898","vishl shah","9869877898",
"158","YES STATIONERY","26253800","yasstationerymart70@gmail.com","E-6 south extension part-2 new delhi","28.567975","77.22135","Sarojini Nagar/ Safdarjung / Green Park/ Saket/ Haus Khaus/ Malvi Nagar","0000-00-00","200","","Mr. Darshan Arora","9899774877","Ms. jyoti","...............",
"159","Wonder yearz","41606078","wonder.yearz@gmail.com","8, it I layout, new bel road, Bangalore.","0","0","Malleshwaram/ Mathikeri/ Bel Road/ Sanjaynagar","1990-04-20","3000","","Roopa","9900512814","harsha","7760875493",
"160","Swarg Collection.","02229651661","","D-21/22, sierra shopping, Akurli road, lokhandwala township, Nr. Foundation school, kandivali (e), Mumbai.","0","0","Kandivali- EAST","0000-00-00","1500","","Mr. Hitesh Patel","9819975061","Mr. Narendra .","9930139599",
"161","Affection","23515272","affection0214@yahoo.com","3, 2nd main rd, rmv ext, bel rd, Bangalore.","0","0","Malleshwaram/ Mathikeri/ Bel Road/ Sanjaynagar","1978-11-27","1000","","rishit","9035295282","sajeed","9019662737",
"162","SHRI RAM GALLERY","24675419","abhigoyal1189@Gmail.com","118, south motion bath new delhi","28.5801445","77.1704677","Basant Kunj/ Moti Baug / R K Puram/ Muneerka","1989-10-18","150","image95.jpg","Mr.Abhishek","9711287788","Mr. Bhagat","..............",
"163","shaishav art gallery","23235696","","B15, dist shopping center sector 21 gandhinagar","0","0","Chandkheda / Shahibaug","0000-00-00","1200","","rakesh","9998284757","shankar","9998284757",
"164","SPECTRA COLLECTION","26113042","rakeshjain_007@yahoo.com","110, south motion bath MKT new delhi","28.5801443","77.170462","Basant Kunj/ Moti Baug / R K Puram/ Muneerka","0000-00-00","100","image97.jpg","Mr. Rakesh jain","9811358802",".............",".............",
"165","play zone sports toys& gift","9429025932","","Plot no 217, 1sr floor, opp veg. Market, vadiya plaza sector 21 gandhinagar.","0","0","Chandkheda / Shahibaug","0000-00-00","400","image98.jpg","raju","9429025932","raju","9429025932",
"166","Janvi Collection .","02229668866","","Shop no. 8, centrium shopping centre, lokhandwala complex, kandivali (e), Mumbai.","0","0","Kandivali- EAST","0000-00-00","550","image99.jpg","Mr. kirit","","Mr. kirit","9819062559",
"167","Chembur Toys","7498189930","boy.sahil7@gmail.com","2/b, Patel chamber n. G. Acharaya Mary, chembur, mumbai","0","0","Ghatkopar / Chembur / Mulund","1973-01-05","50","","Manoj Chugh","9769471534","sahil chugh","8652782912",
"168","hari om collection","","","B/4 district shopping center sector-21 gandhinagar","0","0","Gandhinagar - City","0000-00-00","1200","","kirit sinh","9924455882","mahesh/ramesh","7698617818",
"169","Ronak Toys Emporium","25286438","","6, shivalaya Shopping centre,opp. Natraj cinema, station road, chembur, mumbai","0","0","Ghatkopar / Chembur / Mulund","2014-10-04","150","","Mehulbhai","9892196489","surendra","9975728643",
"170","JARAHAR ENTERPRISE","26169454","","FA-12 dDA MKT ph-2 munirka new Delhi","28.5550734","77.1762932","Basant Kunj/ Moti Baug / R K Puram/ Muneerka","0000-00-00","150","","Mr.Navneet gupta","8750128289","..............","................",
"171","Little Juniors","25215012","","Shop no 2/b, sunil Satan central avenue road,opp. Grand central hotel,behind Monginis, near chembur fly. Station, chembur (E),Mumbai","0","0","Ghatkopar / Chembur / Mulund","1977-12-18","150","","Dipin Gala","9167405414","Nitin","9757017913",
"172","JINGLE BELL","26123233","","C-7 masood pur MKT, vasant kunj new Delhi","28.5270986","77.1519948","Basant Kunj/ Moti Baug / R K Puram/ Muneerka","0000-00-00","200","","Mrs. Savita malik","9811523004","Mr. vijay kumar","8130466065",
"173","JUST TOY LAMD","8800320805","","86 masoodpur r.d MKT vasant kunj new delhi","28.52687","77.15207","Basant Kunj/ Moti Baug / R K Puram/ Muneerka","0000-00-00","200","","Mr. kaji pilar","9818800518","..............","..............",
"174","AARKAY STETIONERY SHOPPE","26896629","aarkaystattshoppe@gmail.com","2-2A&3-3A central MKT masood pur vasant kunj new delhi","28.525148","77.1552807","Basant Kunj/ Moti Baug / R K Puram/ Muneerka","0000-00-00","200","","Mr.Neeraj gupta","9873272478",".............",".............",
"175","NIYATI TOYS","41761319","rajeevjuneja6@gmail.com","1, d-12 harijan Basti Opp. vasant kunj new delhi","28.5289417","77.1576849","Basant Kunj/ Moti Baug / R K Puram/ Muneerka","0000-00-00","150","","Mr.Rajeev juneja","8860102324","..............","...............",
"176","Satyam Collection","42138888","info@satyamcollection.com","115, chheda Sadan, j. Tata road,churchyard,mumbai","0","0","SOUTH MUMBAI","2014-10-04","1000","","Paresh Ruparelia","9819860267","Paresh","9819860267",
"182","Malbar Stores","25626263","girish.parmarso@yahoo.com","6, jeevram bhuvan, R. R. T. Road, mulund (w)), Mumbai.","0","0","Ghatkopar / Chembur / Mulund","1975-06-12","350","","Girish","9324256262","Sanjay","8879436610",
"183","Little Shop","65365970","","B5 City Centre 2 New town, Kolkata 7000157","0","0","South Lake/ Sector 5/ Technolpolis/ Karunamoi/ Rajahut","0000-00-00","0","","","","Prakash Karamchandani","9831323250",
"184","Malbar The Toy Mall","25626264","malbartoys@gmail.com","7, marathon chambers, p. K. Road, paanch rasta mulund (W), Mumbai.","0","0","Ghatkopar / Chembur / Mulund","1973-11-13","900","","Sanjay Parmar","8108131414","Sanjay Parmar","8108131414",
"185","Naidu Hall","43159301","tambaram@naidhuhall.co.in","No.2/44,Shanmugam Road, West tambaram, Chennai","0","0","ADAMBAKKAM / MADIPAKKAM/ GOWRIVAKKAM/ PORUR/ PALLAVARAM/ TAMBARAM/ PERAMBAKKAM/ MADAVAKKAM","0000-00-00","100","","Balaji","9600021531","Siva","9600021531",
"186","Wordseach","23671032","wordseachbookstore@gmail.com","Technopolis building BP.4, Saltlake,sector 5 1at floor,Kolkata.700091","0","0","South Lake/ Sector 5/ Technolpolis/ Karunamoi/ Rajahut","0000-00-00","0","","","","basant bhartia","9432231549",
"187","GALLERY 82","24617065","archiesgallery@gmail.com","82- khanna MKT new delhi","28.5844177","77.2205726","Lajpat Nagar/ Vasant Vihar/ New Friends Colony/ Khan Market/ Defense colony/ Mulchand","0000-00-00","100","","Mrs. Ronika Grover","9811348483","..............","...............",
"188","Infiniti the gift & Toy Shop","24053778","","5-23,Duraganagar,beside.Shivani Lodge Lane Dilsukhnagar, Hyd","0","0","Dilsukhnagar / Chetainyapuri / Champapet / Shivam Road/ Immayatnagar","1974-07-13","1000","","K.Balaraj Goud,Amarjeet Barua","9959998000","Ravi","9618431972",
"189","Carz  N Dollz","22391555","nadeem.adil@gmail.com","#232/376, kpm complex, near Icici bank, Tambaram east, selaiur Chennai","0","0","ADAMBAKKAM / MADIPAKKAM/ GOWRIVAKKAM/ PORUR/ PALLAVARAM/ TAMBARAM/ PERAMBAKKAM/ MADAVAKKAM","0000-00-00","1800","","Adhil","9840602555","Boobalan","7401570014",
"190","Little shop","64567100","","G1,forum courtyard 18 Lee road Kolkata 700020","0","0","Desopiyo Park/ Elgin Road/ Bhavanipur/ Exit/ Maidan","0000-00-00","0","","","","tapu","9836682253",
"191","Shree Mahavir Sports","25614709","mahavirsports@yahoo.in","Patel building, m. G. Road, opp. Tashkent jewellers, mulund(w), mumbai","0","0","Ghatkopar / Chembur / Mulund","2014-10-06","250","","Ashok Bhai","","Amit","9892925521",
"192","Aishwarya","22271886","","#194/767,velachery main road, camp road, selayur,Chennai","0","0","ADAMBAKKAM / MADIPAKKAM/ GOWRIVAKKAM/ PORUR/ PALLAVARAM/ TAMBARAM/ PERAMBAKKAM/ MADAVAKKAM","0000-00-00","750","","Kailash","9087107691","Kailash","9087107691",
"193","Laxel","22294860","amudhu.2009@yahoo.in","Amuthu super market no.69&80,Padmavathi Never, Madambakkam main road","0","0","ADAMBAKKAM / MADIPAKKAM/ GOWRIVAKKAM/ PORUR/ PALLAVARAM/ TAMBARAM/ PERAMBAKKAM/ MADAVAKKAM","0000-00-00","1500","","Soundriya","9551898629","Soundriya","9551898629",
"194","Baybee store","65122345","bsng.nagole@gmail.com","cSR Complex,below Hotal  swagth Grand ,Nagole","17.36399","78.5581816","Dilsukhnagar / Chetainyapuri / Champapet / Shivam Road/ Immayatnagar","2014-10-06","1500","","Venu","9248034455","Hariesh","9248772345",
"195","Glory Collection.","0228923942","","Shop no. 6, chancellor Court bldg, nr. Karnataka bank, Ic LIC junction, Borivali(w), Mumbai .","0","0","Borivali - East & West","0000-00-00","325","","Mr. R.G.Patel.","","Mr. R.G.Patel .","9819313126",
"196","Shivraj (Fortune Enterprise)","25142828","shivraj_entp@yahoo.com","Shop no. 2, traffic lite Building, near bank of Baroda, m. G. Road,ghatkopar(w), Mumbai.","0","0","Ghatkopar / Chembur / Mulund","0000-00-00","3000","","kamlesh","9819068984","bhairav","9619106968",
"197","Choice Collection.","02228943385","sanjay.sp62@gmail.com","Shop No. 7, church View apt, junction of ic LIC colony, borivali (w), Mumbai.","0","0","Borivali - East & West","0000-00-00","1000","","Mr. Mavji Patel.","9819502685","Mr. Sanjay Patel.","9867931349",
"198","Twinkle","25101900","","Sanghvi Square, shop no. 1, gr. Floor, opp. Bank of Baroda, m. G. Road, ghatkopar(w), mumbai","0","0","Ghatkopar / Chembur / Mulund","1977-07-07","100","","Jagdish","9867454124","Jagdish","9867454124",
"199","Sri Venkateshwara supermarket","22781775","","No.42,43 Velachery main road, gowrivakkam, Chennai","0","0","ADAMBAKKAM / MADIPAKKAM/ GOWRIVAKKAM/ PORUR/ PALLAVARAM/ TAMBARAM/ PERAMBAKKAM/ MADAVAKKAM","0000-00-00","1000","","","","Raja","9789996460",
"200","Narayani Enterprises","24568125","","C/o.Subarna Rekha Were house. 1/1 Transport depot road Kolkata.88","0","0","Desopiyo Park/ Elgin Road/ Bhavanipur/ Exit/ Maidan","0000-00-00","0","","","","Hari Sir","9830079249",
"201","Narayani Enterprises","24568125","","c/o Subarana rekha were house 1/1 transport depot road Kolkata 700088","0","0","Desopiyo Park/ Elgin Road/ Bhavanipur/ Exit/ Maidan","0000-00-00","0","","","","hari","9830079249",
"202","Kidzon","22580804","kidzon8madipakkam@gmail.com","#A-8, Medavakkam main road, snthuram colony","0","0","ADAMBAKKAM / MADIPAKKAM/ GOWRIVAKKAM/ PORUR/ PALLAVARAM/ TAMBARAM/ PERAMBAKKAM/ MADAVAKKAM","0000-00-00","1250","","Samsudin","","Suresh","9551963833",
"203","JUNEJA GIFT GALLERY","41761319","rajeevjuneja6@gmail.com","13, sec-b pkt-3 dDA MKT vasant Kunj new delhi","28.5308511","77.3146134","Basant Kunj/ Moti Baug / R K Puram/ Muneerka","0000-00-00","200","","Mr. Rajeev Juneja","9560789187",".............","..............",
"204","MASURI SERVICE STATION( IN&OUT )","26873864","","West motion bath Bharat petrol pump  new delhi","28.5307254","77.3146118","Basant Kunj/ Moti Baug / R K Puram/ Muneerka","0000-00-00","100","","Mr. Gopal Choudhary","..................","..............","..............",
"205","Saumya Inc","25922221","saumyastationery@gmail.com","1,Chandra darshan,m. G. Road, panch Rasta, opp. Kirti mahal, mulund (w), Mumbai.","0","0","Ghatkopar / Chembur / Mulund","1979-07-20","310","","Vikram Gori","9819194959","Dhrmendra","9321887696",
"206","Duckling Corner","42032228","","Anjnadri complex, Marathalli, Bangalore.","0","0","Kaggadaspura/ Marathalli/ Whitefield/ Varthur","0000-00-00","1000","","tamali  ray","7204475309","bhanu","080  4203  2228",
"207","New Balaji (Toy &kids plant","66170958","dpamall02@gmail.com","Rasulpura x Road","17.4442283","78.47815","Begumpet / Pujagutta /Banjara Hills /Jubilee Hills","1976-05-23","1000","","Deepk","9885000070","Khan,indresh","9959691407",
"208","Little shop","64507534","","S23 South city Mall,375 prince Anwar shah road, Kolkata700068","0","0","South City/ Godiya/ Jadhavpur/ Goriyahat/ Dhakuriya","0000-00-00","0","","","","Arjun","9830517006",
"209","Children Toy Foundation","22820687","play@childrentoyfoundation.org","C/o. R. Desai & CO. Modern house,11, Dr. V. B. Gandhi Marg, fort, Mumbai.","0","0","SOUTH MUMBAI","1946-05-08","0","","Devendra Desai","9987754555","Vandana","9987754576",
"210","New Balajee""s (Toys & kids planet","66318137","newbalajees@gmail.com","1-10-6313 opp.Shopper s Stop ,Begumpet, Hyd","0","0","Begumpet / Pujagutta /Banjara Hills /Jubilee Hills","1985-03-27","1500","","Vikas","9848088859","R.Manoj","9000574714",
"211","little johnie","24225429","","375 Prince Anwar shah road, Kolkata 700068","0","0","South City/ Godiya/ Jadhavpur/ Goriyahat/ Dhakuriya","0000-00-00","0","","","","manish","9830290290",
"212","Baby Mart","","","94/4, marathahalli, Bangalore.","0","0","Kaggadaspura/ Marathalli/ Whitefield/ Varthur","0000-00-00","4000","","md.ali","9916886691","rasheed","9916886691",
"213","Odyssey Thiruvanmyur","420317799","","Shivani 40, East cost road, thiruvanmyur","0","0","ADYAR/ THIRUVANMYUR/ BESANT NAGER/ KOTTIVAKKAM/ OMR/ VELACHERY","0000-00-00","800","","Aswin","9176311919","Prabhu","9176311919",
"214","Kwality Book Co","23966854","Maheshgolani@yahoo.co.in","37b , block B, new alipore, Kolkata 700053","0","0","Alipur / New Alipur/ Bihala/ Splanet/ Bada Bazaar","0000-00-00","0","","","","mahesh","9831334434",
"215","Peek A Boo","40929094","peekaboo19@ymail.com","748, green glen layout, bellandur, Bangalore.","0","0","HSR Layout /  Sarjapur","1978-10-25","1000","","preet chawla","9880456824","seenu","9880456824",
"216","THAE GIFT GALLERY","","rampukarray602@gmail.com","Pilot no-11/21 h block MKT sarita Vihar new delhi","28.5350037","77.2920324","Amar Colony/ G K - 1/ G K - 2/ Kalkaji/ Govindpuri/ Alaknanda","0000-00-00","200","","Ram pukar ray","9213142602","Mr. sudhir","9891612792",
"217","My choice","42277357","","170, 2nd main road, kasturi Hagar, Bangalore.","0","0","Kammanahalli/ Banaswadi/ Hennur/ Ram Murthy Hagar","0000-00-00","1000","","Chena ram patel","9886967390","bharath","9886967390",
"218","SPARCKAL GIFT GALLERY","","oberoi.kanwal@gmail.com","Plot No-10/4 h block sarita Vihar new delhi","28.5354712","77.291955","Amar Colony/ G K - 1/ G K - 2/ Kalkaji/ Govindpuri/ Alaknanda","0000-00-00","150","","Mr. Kamal Obroi","9871245281","Mr.Rajesh","9871133196",
"219","Kmart Retail india pvt ltd","40684086","jhunjhun@satyam.net.in","17/1f alipore road ,2nd floor,Kolkata 700027","0","0","Alipur / New Alipur/ Bihala/ Splanet/ Bada Bazaar","0000-00-00","0","","","","Sanjay","9748492221",
"220","Naval Book Centre","22166225","","Shop no 11&12, nofra market, navy Hagar, colaba, Mumbai.","0","0","SOUTH MUMBAI","0000-00-00","400","","Amarbhai","9819882504","Sudarshan","9969307565",
"221","Anupam","24795488","","17/1D , Alipore Road, Kolkata-700027","0","0","Alipur / New Alipur/ Bihala/ Splanet/ Bada Bazaar","0000-00-00","0","","","","Ashok Doshi","9836793260",
"222","Shanti Plastic","23811552","navin.shantiplastic@gmail.com","Shop No 2, Earth pride, opp. Sikka Hagar, v. P. Road, Mumbai.","0","0","SOUTH MUMBAI","0000-00-00","230","","Navinbhai Shah","9619613360","Navin","9920329088",
"223","walden Books Toys","23413434","","6-3-871,Greenland road, Begumpet,Hyd","0","0","Begumpet / Pujagutta /Banjara Hills /Jubilee Hills","0000-00-00","1500","","Ram prasad","","prasad","9963380705",
"224","laxmi cycle co","-----------","","3parth avenue naranpura ahmeadbad","0","0","Naranpura","0000-00-00","500","","rakesh","9904474461","rakesh","9904474461",
"225","gytyj","","","","0","0","BANER / PASHAN","0000-00-00","0","","","","","",
"226","gytyj","","","","0","0","BANER / PASHAN","0000-00-00","0","","","","","",
"227","deepak butic","","","","0","0","AUNDH","0000-00-00","0","","","","","",
"228","deepak butic","","","","0","0","AUNDH","0000-00-00","0","","","","","",
"229","Shraddha Extension cards ,Gift& Books","27716988,66320502","","9-1-187, St Johns Road,Beside Sangeeth Theatre ,Sec bad","0","0","Maradpalli / M G Road / S D Road/ Narangwada / Musheerabad","1959-01-13","1500","","L C Umakanth","9652978899","Kiran","9292303826",
"230","Shraddha Books & Stationery","66335996","","Ground floor ,H No.9-1-87, St.Johns Road Beside Sangeeth Theatre Sec-bad","0","0","Maradpalli / M G Road / S D Road/ Narangwada / Musheerabad","2014-10-08","1500","","L C Ramesh","9849451558","kishour","9849957309",
"231","a kampanwala toy world","26732567","demo@demo.com","G 24 maruti tower shiv ranjni cross road satellite ahmedabad","10","10","Satellite/ Jodpur","1956-05-09","1400","","arun kaka","9825576303","arun","9825576303",
"232","Toyz N Toyz Baby shop","41269416","jldtoysntoys@gmail.com","238, 7th cross, cmh road, indiranagar, bangalore","0","0","Indranagar / Thippsandra / Commercial St.","0000-00-00","10000","","Dsouza","9980535013","uttam","9980535013",
"233","toys mart","26925553","toysmartahmedabad@gmail.com","Shop no 16 vraj vihar-3 prernatirth derasar road jodhpur satellite ahmedabaf","0","0","Satellite/ Jodpur","0000-00-00","600","","sameer/ronil","9428910039","sameer","9898498203",
"234","Ramdev toys n toys baby shop","25212662","","439, New thippsandra, Bangalore.","0","0","Indranagar / Thippsandra / Commercial St.","0000-00-00","3500","","Manoj Patel","9449565907","chandaram","8904859362",
"235","Modern toys co.","22528476","moderntoysco@in.com","D67/68, New market, Kolkata_700087","0","0","Alipur / New Alipur/ Bihala/ Splanet/ Bada Bazaar","0000-00-00","0","","","","G,L,shaha","93956224",
"236","krishna toys","-------","","G-17 ratandeep complex prerna fifth dersar jodhpur satellite ahmedabad","0","0","Satellite/ Jodpur","0000-00-00","200","","dinesh","9723375540","kelash","7359179436",
"237","Santosh super stores","42955000","santoshsuperstores@gmail.com","New No.199, old no.c-33,2nd avenue, annanager,Chennai","0","0","ANNANAGAR / SALIGRAMAM/ MUGAPPAIR/ VANAGARAM/ VADAPALANI/ K K NAGER/ T NAGAR / WEST MAMBALAM","0000-00-00","500","","Naveen","9500020001","Sanker","9500050036",
"238","Sethi SportÃŸ and games","22522605","prashant.sethi88@gmail.com","Wb_151 new market Kolkata 700087","0","0","Alipur / New Alipur/ Bihala/ Splanet/ Bada Bazaar","0000-00-00","0","","","","prashant sethi","9836884875",
"239","world of toys children Corner","22521960","","B.110, North Basement, New Market, New complex, Kolkata 700087.","0","0","Alipur / New Alipur/ Bihala/ Splanet/ Bada Bazaar","0000-00-00","0","","","","Mithun","8100565041",
"240","new twinkle toys","07965214571","newtwinkletoys@gmail.com","B-14 nilkanth palace-b, opp seems hall satellite ahmedabad","0","0","Satellite/ Jodpur","0000-00-00","500","","mayur shah","8000053199","khushal","8000053199",
"241","Sethi Bros.","22497481","sethibros1953@gmail.com","Shop no9,15/A,j,l, Nehru Road,Kolkata 700013","0","0","Alipur / New Alipur/ Bihala/ Splanet/ Bada Bazaar","0000-00-00","0","","","","Ravi sethi","9903176876",
"242","bohraa stationery store","28115380","bohraastationerystore@gmail.com","42/2 cathedral road 6th street gopalapuram opp Stella maris college chennai","0","0","NUNGAMBAKKAM / EGMORE/ MOUNT ROAD/ GOPALAPURAM/ MYLAPOOR","2014-10-08","480","","reshmaa","28115380","Vikram","9840300073",
"243","Shree meher","28112389","","No.5, I .o.a complex, justice pratap sing building, royapettah high road Chennai","0","0","NUNGAMBAKKAM / EGMORE/ MOUNT ROAD/ GOPALAPURAM/ MYLAPOOR","0000-00-00","400","","V.k.annapurna","9884399924","V.k.annapurna","9884399924",
"244","Toyland","25590130","toy_land@rediffmail.com","24  end of commercial street, Bangalore","0","0","Indranagar / Thippsandra / Commercial St.","0000-00-00","250","","md. jaffer sait","9632265013","lokesh","9632265013",
"245","Sonigra Novelties .","02266935779","rameshmali2804@gmail.com","Shop no. 8, new municipal market, vile parks (e), Mumbai.","0","0","VILE PARLE EAST","0000-00-00","200","","Mr. Ramesh Mali.","9920554989","Mr. Lau Dabholkar","8452926542",
"246","Reliable Mark ""N"" Trade Pvt. Ltd.","02226179285","rmtl@rediffmail.com","6, Harileela apt, ram mandir road, off. Nehru road, opp. HDFC Bank, vile Parle, (e), Mumbai.","0","0","VILE PARLE EAST","0000-00-00","700","","Mr. Shyam Solanki.","","Mrs. Tejal Solanki.","7738973181",
"247","New Modern Warehouse","38993883","upenbudhdev@gmail.com","111, August Kranti Marg, Quality House, Kemps Coerner, Kambala Hill, Mumbai","19","23","BREACH CANDY","2014-08-10","200","","Upen Budhev","9323032803","Upen","9323032803",
"248","raj stationers","26302641","","Raj house nr snehkunj bus stop ambawadi ahmedabad","0","0","Satellite/ Jodpur","0000-00-00","1200","","sanjay","9426357993","hema","9426357993",
"249","Walden Books Toys  (Banjara Hills)","23551613,6675700","","Trendst Tower,Road No.2, Banjara Hills","0","0","Begumpet / Pujagutta /Banjara Hills /Jubilee Hills","0000-00-00","1000","","Ramprasad","","Srinivas","9912290571",
"250","Gaylord  (Toyland)","42023733","","104,pondy bazaar, t.Hager,Chennai","0","0","ANNANAGAR / SALIGRAMAM/ MUGAPPAIR/ VANAGARAM/ VADAPALANI/ K K NAGER/ T NAGAR / WEST MAMBALAM","0000-00-00","1100","","kishore","9940498348","Ramesh","9940498348",
"251","Topkapi","04428150706","somimurali@yahoo.com","No 110 pondybazaar,t.Hagar chennai","0","0","ANNANAGAR / SALIGRAMAM/ MUGAPPAIR/ VANAGARAM/ VADAPALANI/ K K NAGER/ T NAGAR / WEST MAMBALAM","0000-00-00","600","","s.murali","9500004765","murali","9500004765",
"252","dhwanil enterprise","9426508632","dhwanilcez@gmail.com","G-5, tulsi business center, college service road sahkari jin himatnagar Gujarat.","0","0","Himantnagar - City","0000-00-00","800","","kunal","9426508632","kunal","9426508632",
"253","SPROUTS THE SPROUTS","4222567","neelima@thesproutsstore.com","216-218,2nd floor golf course r.d sec-53 south point mall gurgaon","0","0","Gurgaon - 1","2014-10-09","1000","","Mrs.Nileema Kapoor","8860656238",".............","..............",
"254","parth traders","26931407","","12,sahjanand palace opp rahul tower 100 foot satellite ahmedabad","0","0","Satellite/ Jodpur","0000-00-00","900","","harikisan","9824275008","kiran","9824275008",
"255","JINGLE BELL","4203278","jinglebellssinghal@gmail.com","102, sun city MKT sec-54 gurgaon","0","0","Gurgaon - 1","0000-00-00","550","","Mr.Ashok Singhal","9560846482",".............","..............",
"256","pandian bangles Threads","24342930","","#51,52,Ranganathan street, t nager, Chennai","0","0","ANNANAGAR / SALIGRAMAM/ MUGAPPAIR/ VANAGARAM/ VADAPALANI/ K K NAGER/ T NAGAR / WEST MAMBALAM","0000-00-00","500","","","","Mohan aj","9003100509",
"257","Roopam","22061794","info@roopam.com","218-222, near Crawford market, Mumbai.","0","0","SOUTH MUMBAI","0000-00-00","1000","","Niken","9869126789","Mahesh Bhai","9920685854",
"258","Goodluck Plastic stores Wholesaler","22351276","","71,Canning Street,Shop No-21 Ground Floor Kolkata 700001","0","0","Alipur / New Alipur/ Bihala/ Splanet/ Bada Bazaar","0000-00-00","0","","","","Mohit","9830623451",
"259","Annapurna gift store","","","B 1 /180 main road new kindly east delhi","0","0","East Delhi","0000-00-00","800","","","","","",
"260","rama fashion","9726937652","","Janadarn shopping center raana park bus stop ghatlodia ahmedabad","0","0","Naranpura","0000-00-00","1300","","raju","9726937652","mohan","9726937652",
"261","Star learnmart","24895590","","No.2, 1st floor,  kuppaiah street, station road, west Mambalam, Chennai","0","0","ANNANAGAR / SALIGRAMAM/ MUGAPPAIR/ VANAGARAM/ VADAPALANI/ K K NAGER/ T NAGAR / WEST MAMBALAM","0000-00-00","350","","","","Bhoari","9840289400",
"262","Glorious gift and bag house","","","D1/184 main road new kundly","0","0","East Delhi","0000-00-00","900","","","","Mr Amit","09891159160",
"263","Favourite","66342260","hasnain2477@gmail.coma","18, pinjari street, opp. Crawford market, Mumbai.","0","0","SOUTH MUMBAI","1977-08-24","200","","Hasnain","9867640052","Shabbir","9870062051",
"264","queen park","24728888","","84/48, brindhavan street, west mambalam ,Chennai","0","0","ANNANAGAR / SALIGRAMAM/ MUGAPPAIR/ VANAGARAM/ VADAPALANI/ K K NAGER/ T NAGAR / WEST MAMBALAM","0000-00-00","400","","Radha murely","","Radha murely","24728888",
"265","Orange super mgarket","","","6-511, Peerzadguda, Near Uppal Bus Depo","17.4073116","78.597335","Maradpalli / M G Road / S D Road/ Narangwada / Musheerabad","0000-00-00","1000","","Sam Sunder","","Amar","9959998000",
"266","GALLEXY G-9",".................","","Gf-21 9x city mart next to hotel fortune sons r.d gurgaon","0","0","Gurgaon - 1","0000-00-00","1500","","Mr.Abisek aggarwal","9717480099","Mr. Anshul","..................",
"267","shree kampanwala","26850338","","56 aditya complex  opp total intercity nr doordarshan tower Sam hospital road  ahmedabad","0","0","Vastrapur/ S G Highway","1983-01-18","1500","","shamitra","7778955551","rajesh","7778955551",
"268","Sri stationery","24661350","sristationers@yahoo.com","No.60,royapetta high road, jemmey building mylapoor Chennai","0","0","NUNGAMBAKKAM / EGMORE/ MOUNT ROAD/ GOPALAPURAM/ MYLAPOOR","0000-00-00","500","","Sri Ram","9962561350","Sri Ram","9962561350",
"269","mk gallery","","","DDA Market vasundhara enclave","0","0","East Delhi","0000-00-00","950","","","","Mr bablu","09911205642",
"270","Hindustan Trading company","28111605","hindustan_trading@yahoo.com","No,.171-172, 1st floor, justice pratap Singh building,(I.o.a. complex)69/35,Royapettah high road, Chennai","0","0","NUNGAMBAKKAM / EGMORE/ MOUNT ROAD/ GOPALAPURAM/ MYLAPOOR","0000-00-00","0","","","","Amritha","8939177621",
"271","The Big  Market","23645510","bigmarket@gmail.com","2, kodigehalli, thindlu, bangalore","0","0","Sahakarnaga/ Thindlu/ Vidyaranyapura/ Amruthahalli/ R.T.Nagar","1982-11-04","2000","","sohail","7760272879","naushad","8971960499",
"272","Alifiyah Enterprise","23424487","alifiyahent@yahoo.co.in","238, janjikar street,near jumma masjid, Mumbai.","0","0","SOUTH MUMBAI","1971-03-25","300","","Hussein","9870735653","Givardhan","9920016944",
"273","K R G GAMES & STATIOnAry","26746057","","24 Akshardham complex premchandnagar bodakdev vastrapur satellite ahmedabad","0","0","Vastrapur/ S G Highway","1985-02-13","1500","","nandish","9429400007","nandish","9429400007",
"274","Mother Collection","41172940","bajaj@ymail.com","36, sahakaranagar, bangalore","0","0","Sahakarnaga/ Thindlu/ Vidyaranyapura/ Amruthahalli/ R.T.Nagar","0000-00-00","1000","","Smitha Sahu","9591977787","sandeep","9591977787",
"275","fun and joy","","","Shop no 4 Atlantic plaza mayur Bihar 1","0","0","East Delhi","0000-00-00","100","","","","Mr manooj","09810966064",
"276","tabu toys","9925032360","hamir_raval@yahoo.co.in","Tabu Toys 
G/1 Shakti Square, Opp Management Enclave, Nr Hanuman Temple, Vastrapur, Ahmedabad","0","0","Vastrapur/ S G Highway","0000-00-00","400","","hamir","9925032360","hamir","9925032360",
"277","Little Shop","64507535","","G4 Manisquare ,164/1 manicktala Main Road, Kolkata 700054","0","0","South Lake/ Sector 5/ Technolpolis/ Karunamoi/ Rajahut","0000-00-00","0","","","","Arjun","9830517006",
"278","s n gift","30020587","gift@sngift.co.in","F-5 shailly complex nr Sam hospital ahmedabad","0","0","Satellite/ Jodpur","0000-00-00","3000","","kamal","9712998486","kamal","9712998486",
"279","play world","9537817095","care.foramenterprises@gmail.com","Gl-9 vaibhav deluxe tower nr mansion cross road vastrapur ahmedabad","0","0","Vastrapur/ S G Highway","0000-00-00","300","","pranav","9537817095","pranav","9537817095",
"280","K. R STATIONERY","26961924","k_r_stationers@yahoo.com","E-40 hauz khas main MKT new delhi","0","0","Sarojini Nagar/ Safdarjung / Green Park/ Saket/ Haus Khaus/ Malvi Nagar","0000-00-00","300","","Mr.Rajan kalra","9899052147","Mr. Ramesh","9899124205",
"281","Toy planet","40007231","","164/, Maniktola Main Road, 2nd floor Shop no,207.E,m Bye Pass,Kolkata 700054","0","0","South Lake/ Sector 5/ Technolpolis/ Karunamoi/ Rajahut","0000-00-00","0","","","","Harash","9830079249",
"282","Student Mall.","02228776611, 28774242","","Shop no. 15&16, Krishna height, upper govind nagar , (raheja township), malad(e), Mumbai.","0","0","Malad -East & WEST","0000-00-00","1200","","Mr. Babulal Patel.","9819272015","Mr. Suresh .","9920706777",
"283","Affection","40980297","affection0to14@yahoo.com","F3/7/8, 1st floor, esteem mall, bellary rd, Bangalore.","0","0","Sahakarnaga/ Thindlu/ Vidyaranyapura/ Amruthahalli/ R.T.Nagar","1981-01-22","1000","","Mrunal","9845141544","Venkatesh","9886167262",
"284","TOY&SPORTS INDIA","46040257","yodhijaiman@gmail.com","38, arvindo palace MKT new delhi","0","0","Sarojini Nagar/ Safdarjung / Green Park/ Saket/ Haus Khaus/ Malvi Nagar","0000-00-00","300","","Mr. Deepak","9990198879","Mr. Jitendar","9555037872",
"285","anand book corner","","","d 376achirya niketan mayur Bihar 1","0","0","East Delhi","0000-00-00","900","","","","Mr.vijay jha","09891504383",
"286","MAYA TOYS","26526979","mayatoys64@redifmail.com","11, arvindo palace MKT new delhi","0","0","Sarojini Nagar/ Safdarjung / Green Park/ Saket/ Haus Khaus/ Malvi Nagar","0000-00-00","500","","Mr.Bharat  kharbanda","9810223877","..........â€¦",".............",
"287","chawla toys","","","B2 acharya nikatan mayur Bihar 1","0","0","East Delhi","0000-00-00","100","","","","Mr lalit chawla","09350218472",
"288","kids house","","","A 2/5 acharya niketan mayur Bihar 1","0","0","East Delhi","0000-00-00","300","","","","vishu kohli","09891050203",
"289","Kidzz","23582392","Kidzz2004@hotmail.com","Shop no-C-.011,City Centre-1, DC block, Sector-1, Saltlake, Kolkata.","0","0","South Lake/ Sector 5/ Technolpolis/ Karunamoi/ Rajahut","0000-00-00","0","","","","Dipak ji","9830347658",
"290","Sri Toy Globe  ( Suchitra)","9247229160","sritoyglobe@yahoo.com","2-7611NR,opp,Zee Dhaba,Beside ICICi Bank ,Petabasheerabad,Qutbullapur Hyd","17.51422","78.4813016","General Bazaar/ Station","2014-10-09","1000","","Abilesh","","wasi","9247229160,9154416068",
"291","VB STORE LLP","41096625","sanjaymahipal@gmail.com","228, 1st floor dlf place mall saket new delhi","0","0","Sarojini Nagar/ Safdarjung / Green Park/ Saket/ Haus Khaus/ Malvi Nagar","0000-00-00","600","","Mr.Sanjay mahipal","9810038610","Mr.Das g","8130249915",
"292","ANAND GIFT EMPORIUM","41765623","","10, j block MKT , saket new delhi","0","0","Sarojini Nagar/ Safdarjung / Green Park/ Saket/ Haus Khaus/ Malvi Nagar","0000-00-00","300","","Mr.Rajeev Khurana","9582194661","...........","............",
"293","Pratham Enterprises","41211625","prathamsahakarnagar@gmail.com","56 G  Block, sahakar Hagar, Bangalore.","0","0","Sahakarnaga/ Thindlu/ Vidyaranyapura/ Amruthahalli/ R.T.Nagar","0000-00-00","800","","Rangaswamy","9986072062","Teju","9538115079",
"294","SOAMI SERVICE CENTRE (In&Out)","26012437","soamiservicecentre@gmail.com","Outer no-7 soami ngr new delhi","0","0","Sarojini Nagar/ Safdarjung / Green Park/ Saket/ Haus Khaus/ Malvi Nagar","0000-00-00","200","","Mr.Rajat Badhwar",".................","mr. govind","...............",
"295","TOY HUT","46094177","","12, central MKT safdarjang enqleve new delhi","0","0","Sarojini Nagar/ Safdarjung / Green Park/ Saket/ Haus Khaus/ Malvi Nagar","0000-00-00","100","","","9811456488","","",
"296","TOYS & SPORTS CORNER","41651180","","32, central MKT safdarjang enqlave new delhi","0","0","Sarojini Nagar/ Safdarjung / Green Park/ Saket/ Haus Khaus/ Malvi Nagar","0000-00-00","200","","Mr. Raju Gupta","9810328685","............",".............",
"297","Wonderland","23581092","","City Centre A/202 Block DC saltlake Kolkata 700064.","0","0","South Lake/ Sector 5/ Technolpolis/ Karunamoi/ Rajahut","0000-00-00","0","","","","Ranjit","9830309693",
"298","Funtoys","23581631","","A_210, 2nd floor, City Centre_Salt lake sec,1 DC Block a Kolkata","0","0","South City/ Godiya/ Jadhavpur/ Goriyahat/ Dhakuriya","0000-00-00","0","","","","Debjit Roy","8013802917",
"299","Passionate A Dream World","27746302,66206302","","Opp,juloori Vjramma Kalyana Mandapam,Karkhana Sec-bad,","17.4604366","78.5048833","General Bazaar/ Station","1976-04-05","500","","Varma","9948375000","Ramu","85230520230",
"300","blessing the gift house","","","Shop no 1213 CSC 2 market near balco  apartment IP extn patpargang.","0","0","East Delhi","0000-00-00","125","","","","Mr sanjay nangia","01122248061",
"301","latest gift gallery","01122234182","","C 34 basement madhu Bihar IP extn","0","0","East Delhi","0000-00-00","500","","","","Rohit gupta","0971274071",
"302","Gift palace","01122235741","","C 34 d madhu Bihar market","0","0","East Delhi","0000-00-00","250","","","","Mr ashoke jain","09810759510",
"303","little grownups","01122239391","thelittlegrownups@yahoo.in","C 1 alg1 main market madhu Bihar","0","0","East Delhi","0000-00-00","450","","","","Mr. lucky","09811299391",
"304","fantasy honey","01122239008","","Shop no 2 c 14 madhu Bihar","0","0","East Delhi","0000-00-00","150","","","","beerji","09810955027",
"305","shrees sai collection","01122239033","shreesaitoys@gmail.com","C1/3 main market madhu vihar","0","0","East Delhi","0000-00-00","1000","","","","Mr Nitin","9810488812",
"306","toy planet","","nitinjain6875@gmail.com","D 1a. Dayanand block shakerpur nirman Bihar","0","0","East Delhi","0000-00-00","1200","","","","Mr. Nitin jain","09212550661",
"307","kalyan enterprises","01142445059","","A 152 preet Bihar behind DDA market","0","0","East Delhi","0000-00-00","100","","","","Mr. Nitin","01142445059",
"308","Neha Collection","","","Shop no 6 1st Floor cosmos centre Ashiana Gardens Sonari","22.8263262","86.1717553","Jhamshedpur - City","0000-00-00","0","","","","Rajesh kumar","9835159596",
"309","Orange kids","","","Shop no 204 2nd floor GIP Mall Noida","0","0","Noida - 38A, 18, 27","0000-00-00","1800","","","","Mr Rahul","09818633733",
"310","BABY STORE  (A.V.Agenciesa)","","av.agencies.hyd@gmail.com","1-7-155,StreetNo.3,Below NCC Office Bakaram Musheerabad,Hyd,","0","0","Dilsukhnagar / Chetainyapuri / Champapet / Shivam Road/ Immayatnagar","0000-00-00","1000","","Quyam","9849020759","MD Hamees","9966474790,9393335339",
"311","Santi Store","","","Cosmos centre shop no 10 Ashina Garden Sonari","22.8263262","86.1717553","Jhamshedpur - City","0000-00-00","0","","","","Anita Agrawal","9386227439",
"312","zoddy house","01204333649","","208 second floor GIp mall noida","0","0","Noida - 38A, 18, 27","0000-00-00","1250","","","","Mr subodh","09560689300",
"313","New  Gift Centre","","","Sonari kakgarinagar market Jamshedpur","22.8177974","86.167093","Jhamshedpur - City","0000-00-00","0","","","","Prosenjit","9934181369",
"314","Globals Galleria","23313330","globalsgalleria@gmail.com","107, 8th cross,malleshwaram, bangaloe","0","0","Malleshwaram/ Mathikeri/ Bel Road/ Sanjaynagar","1964-10-27","1500","","arun","9900997722","ravi kumar","8147526124",
"315","Globals Galleria","23313330","globalsgalleria@gmail.com","107, 8th cross,malleshwaram, bangaloe","0","0","Malleshwaram/ Mathikeri/ Bel Road/ Sanjaynagar","1964-10-27","1500","","arun","9900997722","ravi kumar","8147526124",
"316","Globals Galleria","23313330","globalsgalleria@gmail.com","107, 8th cross,malleshwaram, bangaloe","0","0","Malleshwaram/ Mathikeri/ Bel Road/ Sanjaynagar","1964-10-27","1500","","arun","9900997722","ravi kumar","8147526124",
"317","Pothys","","info@pothys.com","T.nager","0","0","ANNANAGAR / SALIGRAMAM/ MUGAPPAIR/ VANAGARAM/ VADAPALANI/ K K NAGER/ T NAGAR / WEST MAMBALAM","0000-00-00","500","","","","","",
"318","Park & Co","27664334","parknco.hyd@gmail.com","1-8-37 Near Chilkkadpally Bridge 1426 Surya Hagar,Hyd","0","0","Dilsukhnagar / Chetainyapuri / Champapet / Shivam Road/ Immayatnagar","0000-00-00","1000","","Shobana Sanghvi","9848474397","Dimpul","9963657755",
"319","Android","Tel","chintan@wod.com","jhkj","19.0724463","72.89994879999999","","1990-09-08","19999","","7","987","789","798",
"320","TRENDY TOYS","4035355","trendy.toys@yahoo.im","S-64 GF,palam vyapar Kendra, palam Vihar gurgaon","0","0","Gurgaon - 2","1994-01-24","500","","Nishant Tyagi","9582404617","Mr.lucky","9582404617",
"321","Passionate  Collections","23220376,66758376","passionatecollections@gmail.com","3-6-270,Pentoji Enclave.opp,Telugu Academy,Himayathnagar, Hyd","17.398925","78.48519","Dilsukhnagar / Chetainyapuri / Champapet / Shivam Road/ Immayatnagar","1978-11-02","600","","Varma","","Sailesh","66758376",
"322","Heaven Collection.","02228870604","","Saraswati, vasant Sagar, shop no. 62/63/64, thakur village, opp. Thakur cinema, kandivali (e), Mumbai.","0","0","Kandivali- EAST","0000-00-00","200","","Mr. Kanji Patel.","9820715379","Mr. Mahesh .","8879148850",
"323","SARASWATI STATIONERY","4086001","saraswatistationery2010@gmail.com","C-149,vyapar kendra palam Vihar gurgaon","0","0","Gurgaon - 2","1987-06-28","300","","Mr.Mahesh yadav","9899996001","..........","............",
"324","Baby Store  ( A  V Agencies)","42030734","av.agencies.hyd@gmail.com","Himayath Nagae","17.3996283","78.4874166","Dilsukhnagar / Chetainyapuri / Champapet / Shivam Road/ Immayatnagar","0000-00-00","600","","Quyam","9849020759","Hamed","9393335339",
"325","MEMORY POINT","4070001","","58-61,vyapar kendra palam Vihar,gurgaon","0","0","Gurgaon - 2","0000-00-00","600","","Mr.Ashwani sarma","9811441144","............",".............",
"326","Toy Corner","66462506","","Himayath Naga ,Opp Minerva Coffeessop","0","0","Dilsukhnagar / Chetainyapuri / Champapet / Shivam Road/ Immayatnagar","1975-08-17","1000","","Rizwan","9246177915","Rizwan","9246177915",
"327","the art and kraft store","","tacstore@yahoo.com","Shop no B1/ 41 first floor centre market sec 50 noida","0","0","NOIDA - 62, 50, 41, 81, 90","0000-00-00","400","","","","preeti chaturvedi","09810608225",
"328","Swastik Collection.","02228462664","ratilalgami04@gmail.com","Shop No. 6, Ganga vasant sagar, 120 ft road, thakur village, kandivali (e), Mumbai.","0","0","Kandivali- EAST","0000-00-00","300","","Mr. Ratilal Gami.","9819343995","Mr. Vijay .","8691857472",
"329","just kiddies","01204238844","","B 1 /40 centre market sec 50","0","0","NOIDA - 62, 50, 41, 81, 90","0000-00-00","300","","","","Mr mahesh","09818624834",
"330","Devi kidz planet","23607020","devikidzplanet@gmail.com","28, 6th main, hmt main road, mathikere, Bangalore.","0","0","Malleshwaram/ Mathikeri/ Bel Road/ Sanjaynagar","0000-00-00","600","","surekha","9740200223","geetha","9740200223",
"331","smart store","","","B 1/18 centre market","0","0","NOIDA - 62, 50, 41, 81, 90","0000-00-00","400","","","","Ms Anjali","09212313828",
"332","Fashion Fair .","02228850899","fshnfr@gmail.com","Shop no. 13, B-wing, yamuna bldg, vacant sagar, opp. Thakur public school, thakur village, kandivali (e), Mumbai.","0","0","Kandivali- EAST","0000-00-00","360","","Mr. Prabhulal Patel","","Mr. Prabhulal .","9322199149",
"333","The Little Star","","","1243, 6th cross, bel layout, vidyaranyapura, bangalore","0","0","Sahakarnaga/ Thindlu/ Vidyaranyapura/ Amruthahalli/ R.T.Nagar","0000-00-00","600","","Amrit Solanki","9019190210","kailesh","9008158495",
"334","VISHAL STATIONERY &GIFT","","vishalyadav601@fedifmail.com","136, huda MKT sec-23 gurgaon","0","0","Gurgaon - 2","0000-00-00","200","","Mr.Vishal Yadav","9999266615","...........","............",
"335","Sri venketeswara (Adambhakkam)","43580222","srivenkateshwarasupermarket@gmail.com","Adambakkam Chennai","0","0","ADAMBAKKAM / MADIPAKKAM/ GOWRIVAKKAM/ PORUR/ PALLAVARAM/ TAMBARAM/ PERAMBAKKAM/ MADAVAKKAM","0000-00-00","300","","","9710444963","Balan","9710444963",
"336","Namaskar .","02228851372","","Shop no. 41, Evershine milinium paradise, thakur village, kandivali (e), Mumbai.","0","0","Kandivali- EAST","0000-00-00","100","","Mr. Rajesh bhai","","Mr. Rajesh bhai.","9969481659",
"337","SHRI RANI SATI TREDERS","2460192","","107,sec-23 huda MKT gurgaon","0","0","Gurgaon - 2","0000-00-00","400","","Mr.P.C Aggarwal","9313066009","...........",".............",
"338","KIDS CORNER","................","kidocorner@gmail.com","10, 1st floor,sec-23 huda MKT, gurgaon","0","0","Gurgaon - 2","0000-00-00","600","","Mr.shibo","9910197348","...........","............",
"339","Green Collection .","0228463019","","Shop no.85, bldg no.43, evershine milinium paradise, thakur village, kandivali (e), Mumbai.","0","0","Kandivali- EAST","0000-00-00","1500","","Mr. Dinesh Patel .","9892575496","Mr. Suresh","9930571327",
"340","Rani gift palace","22450672","","No.148,karuneegar street, Adambakkam Chennai","0","0","ADAMBAKKAM / MADIPAKKAM/ GOWRIVAKKAM/ PORUR/ PALLAVARAM/ TAMBARAM/ PERAMBAKKAM/ MADAVAKKAM","0000-00-00","400","","Hariprasad","9940170808","Hariprasad","9940170808",
"341","Toy Mart","","","Saloon lane bistupur market near kwality","22.7960784","86.1831773","Jhamshedpur - City","0000-00-00","0","","","","Zahib","9709218995",
"342","PLANET TOYS","4018773","jsgplanettoys@gmail.com","Ug-2 anshal plaza mall palam Vihar,gurgaon","0","0","Gurgaon - 2","0000-00-00","500","","Mr.Akash kapoor","9810658522","Mr.praveen","8750959538",
"343","The Little Ones","23515138","thelittleones2006@yahoo.com","G2&3 Bavaria complex, 12, new bel road, bangalore","0","0","Malleshwaram/ Mathikeri/ Bel Road/ Sanjaynagar","1981-12-25","2500","","Sudheesh","8792999329","parameshwari","8792999326",
"344","Toy World","","","Shop44/45, Jawahar Market bistupur","22.7960784","86.1831773","Jhamshedpur - City","0000-00-00","0","","","","Anwar Ali(Govinda)","9835314151",
"345","KIDS & MORE","","kamal2725.kk@gmail.com","3, near Park view regency opp.hotel palm tree palam vihar","0","0","Gurgaon - 2","1975-01-01","1000","","Mr.Kamal Rawat","8860992725","Mr.Subhash","8860282495",
"346","Wasava singhs","2321907","","28,kamani centre bistupur,","22.7960784","86.1831773","Jhamshedpur - City","0000-00-00","0","","","","mukhtya singh","9431111680",
"347","Nice Collection .","02228540657","","Anant apt, shop no.11/12, thakur complex, western highway, kandivali (e), Mumbai.","0","0","Kandivali- EAST","0000-00-00","550","","Mr. Lalji Patel.","9819922756","Mr. Hanuman .","9699229346",
"348","Fancy Art Jewellery","","","Kamani centre bistupur","22.7960784","86.1831773","Jhamshedpur - City","0000-00-00","0","","","","dilip kumar","9431330632",
"349","D.m megani","","","Bistupur main road","22.7960784","86.1831773","Jhamshedpur - City","0000-00-00","0","","","","P,c magani","9431303192",
"350","Prince Collection.","02228549289","","Bldg no. 8, shop no. 70, saraf chaudhari Nagar, police society, thakur complex, kandivali (e), Mumbai.","0","0","Kandivali- EAST","0000-00-00","350","","G.P.Patel.","","Mr. Ramesh Patel.","9820043036",
"351","Feelings","","","20-21, Pratap tower, j road, bistupur","22.7983306","86.1843784","Jhamshedpur - City","0000-00-00","0","","","","Avind shah","9431300279",
"352","FirstCry.com","6556650","firstcry.jsr@gmail.com","1st floor,Narbheram chambers bistupur main road jamshedpur","22.7961332","86.1839651","Jhamshedpur - City","0000-00-00","0","","","","Amar","7870595608",
"354","Demo","demo","demo@democ.om","kjkdemo@dmoe.com","19.0725513","72.89971109999999","","9999-09-09","9","","kj","k","jk","j",
"355","Android","navajk","","jh","19.0723812","72.89999809999999","","1111-01-11","0","","jh","kj","kj","hk",
"356","Android99","99","","99jh","19.0723812","72.89999809999999","","0099-09-09","111","","9","9","9","99",
"357","hjkhkjhjkh","kj","hk2kjklj@dkjk.com","jhjh","19.0723937","72.8999891","BANDRA EAST","1999-09-09","9","","kjhkj","hk","hk","jh",
"358","test","25252","pravin@toy-kraft.com","Hysyshs hsyshsh","19.0639219","72.9138746","BANDRA EAST","0000-00-00","0","","","","pravin","9967836158",
"359","shri satguru","-------------","","G1/2 kapil towers opp aviskar complex old padra road vadodara","0","0","Baroda - City","0000-00-00","900","","chagun","9427075771","chagun","9427075771",
"360","yaksh","3082800","","G/9 silver oak complex Dakota stadium road vadodara","0","0","Baroda - City","0000-00-00","600","","milant","9825717273","mickey","9825717273",
"361","yaksh the kids corner","3054759","","11,meghdhanoosh, uti building near bird circle baroda","0","0","Baroda - City","0000-00-00","800","","kaka","9375945708","kaka","9375945708",
"362","for u","2794181","umeshudwani@yahoo.co.in","Opp SBI bank fatehgunj main road baroda","0","0","Baroda - City","0000-00-00","1200","","umesh","9824039121","sanjay","9824167911",
"363","sachira collection","2331255","tenilshah@gmail.com","3-4 kailash appt nr iscon temple gotri road baroda","0","0","Baroda - City","0000-00-00","1000","","tenil","8866325416","tenil","8866325416",
"364","toy world","-----------","","Gf 26, kalpvrux complex opp geb sub station gotri main road baroda","0","0","Baroda - City","0000-00-00","500","","purvi","9137488506","purvi","9137488506",
"365","pinky gifts","2414997","","Adhyaruni pole near bhole class sultanpura baroda","0","0","Baroda - City","0000-00-00","600","","naresh","9825452074","naresh","9825452074",
"366","maitri super store","2356504","","18 ashwamegh 2 samrajya Dakota munjmahda road baroda","0","0","Baroda - City","0000-00-00","500","","sandip","---------","sandip","--------",
"367","the shope","9924840909","","Opp Knox theatre","0","0","Baroda - City","0000-00-00","5000","","nishit","9924840909","dipen","9924840909",
"368","toy town","---------","","Windsor plaza alkapuri baroda","0","0","Baroda - City","0000-00-00","700","","sandip","9924264003","sandip","9924264003",
"369","asmi enterprise","----------","","Baroda","0","0","Baroda - City","0000-00-00","800","","neha","9909026843","neha","9909026843",
"370","Adam & Eve","01202501681","","B 19 first floor centre market","0","0","NOIDA - 62, 50, 41, 81, 90","0000-00-00","50","","","","Mr sunil","08130753212",
"371","vikram sports gallery","","vikramsports2013@gmail.com","Kumar complex gejha road bhangel noida","0","0","NOIDA - 62, 50, 41, 81, 90","0000-00-00","1000","","","","Mr. ravi chauhan","09811955212",
"372","Bindal gallery","01204131162","","A 26 sec 110 noida face 2","0","0","NOIDA - 62, 50, 41, 81, 90","0000-00-00","150","","","","Mr Asish","09213788002",
"373","children gallery","","","Shop no 1 community centre kendriya Bihar sec 82 noida","0","0","NOIDA - 62, 50, 41, 81, 90","0000-00-00","100","","","","Mr sameer","09899467722",
"374","Shakti Stores.","02226672541","shaktistores@hotmail.com","Kheru Misha manzil , vakola pipe line, Nehru road, santacruz (e), Mumbai.","0","0","Santacruz- East West","0000-00-00","250","","Mr. Shamjibhai chhadva.","","Mr. vijay bhai.","9820496295",
"375","Honesty stores.","02226662906","honestystores2906@gmail.com","Shop no 5, 179,Kalina kurla Road, santacruz east ,Mumbai","0","0","Santacruz- East West","2014-10-11","520","","Mr.sachin shah","09821370707","Mr. mukesh n gopal","09920626055,09930908347",
"376","Baby Lou","42148812","chabriamanu@gmail.com","114,lu church road, mylapore, chennai","0","0","NUNGAMBAKKAM / EGMORE/ MOUNT ROAD/ GOPALAPURAM/ MYLAPOOR","0000-00-00","500","","Manu chabria","9840057151","Sathish","7708756387",
"377","Reliable Stores .","02226664796","dhiren.gala@ymail.com","179/A, Bandekar arcade, shop no. 2, kalina , santacruz (e), Mumbai.","0","0","Santacruz- East West","0000-00-00","525","","Mr. Amarshi gala.","","Mr. Dhiren gala.","9819063342",
"378","Mikkis","65001587","","10/B,shibdas Bhaduri street pariapukar, shyambazar,Kolkata","22.5988489","88.3738266","Shyam Bazaar/ Podiya Pukur/ Kakurgachi/ Lake Town/ Baguwadi","0000-00-00","0","","","","Shubir Ghosh","09804811042",
"380","Hari Agencies","24642368","hariagencies@gmail.com","239,kutchery road mylapore, Chennai","0","0","NUNGAMBAKKAM / EGMORE/ MOUNT ROAD/ GOPALAPURAM/ MYLAPOOR","0000-00-00","300","","P.Hari","9840041499","P.Hari","9840041499",
"381","Winco","25554670","","181/8 A.P.C. road kolkata","22.5988489","88.3738266","Shyam Bazaar/ Podiya Pukur/ Kakurgachi/ Lake Town/ Baguwadi","0000-00-00","0","","","","biswajit","9830158007",
"382","The Big Shop","25301253","","158A/1, bidhan Sarani kolkata","22.593808","88.3713396","Shyam Bazaar/ Podiya Pukur/ Kakurgachi/ Lake Town/ Baguwadi","0000-00-00","0","","","","mani","9038268384",
"383","pebbles","42112737","","No 19 conran smith road Gopalapuram Chennai","0","0","NUNGAMBAKKAM / EGMORE/ MOUNT ROAD/ GOPALAPURAM/ MYLAPOOR","0000-00-00","400","","mahesh","9381044798","mahesh","9381044798",
"384","Stupti","","","Cf/120 Saltlake near swimming pool","22.5933229","88.4152455","South Lake/ Sector 5/ Technolpolis/ Karunamoi/ Rajahut","0000-00-00","0","","","","Ajay","8820860767",
"385","sensations","23286306","sunilpunjabi36@yahoo.in","322, 8th Main, 3rd stage, has age shear an agar, Bangalore.","0","0","Vijayanagar/ Chandra Layout/ Basaveshwarnagar/ Nagarbhavi/","1972-04-12","1000","","Sunil Punjabi","9845896669","mala","9845896669",
"386","Gift House","","","CF 205 Saltlake sector 1 Kolkata","22.5940272","88.4188485","South Lake/ Sector 5/ Technolpolis/ Karunamoi/ Rajahut","0000-00-00","0","","","","Minto","7278369395",
"387","Saturn Decoration","24334213","amey.mohire@gmail.com","376/c, shop no. 9,  ranade road, radar (w),  Mumbai.","19.0203307","72.8425019","DADAR WEST","1985-10-11","300","","Amey","9833887123","Amey","7738224446",
"388","Rajesh Fancy stores","28193514","","Shop no 128,203, fountain plaza pantheon road Egmore Chennai","0","0","NUNGAMBAKKAM / EGMORE/ MOUNT ROAD/ GOPALAPURAM/ MYLAPOOR","0000-00-00","300","","Ashok","9840043672","Ashok","9840043672",
"389","Hunky dory","42857602","","241-C,kilpauk garden Road, kilpauk, Chennai","0","0","PURASIWALKAAM/ KILPAUK/ KELLYS/ DOVETON/ PERAMBUR/ PARYS CORNER/ VILLIVAKKAM /KULUTHUR","0000-00-00","400","","Ajit","9444464337","Abdul","9566073797",
"390","Dadar Novelty","24221113","vijaydedhia1234@gmail.com","Popatlal nivas, ranade road, radar(w), Mumbai.","19.0209196","72.8395807","DADAR WEST","1982-09-30","300","","Sachin Gala","9819333586","vijay","9967913989",
"391","Book and CDs Softy","32931651","","AE.350,Saltlake city sector_1, Kwality kolkata","22.5975695","88.4138529","South Lake/ Sector 5/ Technolpolis/ Karunamoi/ Rajahut","0000-00-00","0","","","","vanit","9230256398",
"392","Toy Globe","66773555","","Anand Thwarted,S P Road,sec-bad,","17.4426883","78.4823566","General Bazaar/ Station","0000-00-00","1500","","Deepesh Doshi,Hitesh Sanghvi","8121819849,9246584668","Giri","9951409781",
"393","Laxmi Stores","24229503","gaurav.gdgd59@gmail.com","5, Popatlal nivas, ranade road, radar(w), Mumbai.","19.0217077","72.8381031","DADAR WEST","1970-05-07","300","","Vikas","9167028419","gaurav","9167028419",
"394","Pragya Enterprise","23378556","","AE 323 Saltlake city sector 1 kolkata","22.5967806","88.4119767","South Lake/ Sector 5/ Technolpolis/ Karunamoi/ Rajahut","0000-00-00","0","","","","Pradip","9163958247",
"395","Mirror","25747809","","271 /283 bangau Avenue B block kolkata","22.6080561","88.4105395","Shyam Bazaar/ Podiya Pukur/ Kakurgachi/ Lake Town/ Baguwadi","0000-00-00","0","","","","A.k.shah","9831273009",
"396","Chintan","chintan","chintan@wohlig.com","jh","19.072311199999998","72.90002989999999","","0000-00-00","0","","j","h","h","jh",
"397","maya sports","01123320639","","Shop no 1 new janpath market janpath bhawan new delhi","0","0","Central Delhi / Cannaught Place","0000-00-00","250","","","","Mr sorabh","01123320639",
"398","Raam chandra & sons","01123412065","","D 1 odeon cinema building Connaught place","0","0","Central Delhi / Cannaught Place","0000-00-00","250","","","","Ram chander ji","01123416276",
"399","Giggles pvt ltd","01132036522","giggles.del@gmail.com","E 24 Connaught place new Delhi","0","0","Central Delhi / Cannaught Place","0000-00-00","350","","","","Mr Gorav","01123412259",
"400","Nath & company","01123320273","nathandco1927@gmail.com","A 15 Connaught place","0","0","Central Delhi / Cannaught Place","0000-00-00","1000","","","","Mr gulati","09810298098",
"401","vanitha toy zone","23351101","toyzone.bng@gmail.com","117, 8th main, mc layout, vijayanagar, Bangalore.","0","0","Vijayanagar/ Chandra Layout/ Basaveshwarnagar/ Nagarbhavi/","1973-11-11","600","","vanitha","9449024414","vanitha","9449024414",
"402","manpasand","3001460","","Shantiniketan, opp takhteshwar fly station.","0","0","Bhavnagar City","0000-00-00","800","","ketan","9377365201","ketan","9377365201",
"403","pink panther","43595544","pinkpanther_pawa@yahoo.in","Old no:202, new no.4/2, north usman road, t Hager Chennai","0","0","ANNANAGAR / SALIGRAMAM/ MUGAPPAIR/ VANAGARAM/ VADAPALANI/ K K NAGER/ T NAGAR / WEST MAMBALAM","0000-00-00","800","","Sheik mohamed","9566216961","Hanifa","9566216961",
"404","Shri Mahalaxmi","9404774999","gauri.k04@gmail.com","24,25,26, Parasmani, k..C. Jain Hagar, maruti mandir, ratnagiri, (Maharashtra).","0","0","Ratnagiri","1979-09-04","2000","","Gauri","9404764999","Nitin","9403504999",
"405","Broad way","64616186,87","traditions@rediffmail.com","8-2-5779,Road No.9,Banjara Hills Hyd","17.4185983","78.44353","Begumpet / Pujagutta /Banjara Hills /Jubilee Hills","0000-00-00","800","","Arun Kumar","9849666080","zaffer","9030016578",
"406","part Needs","23543555","","8-2-270.,Road No.3,Banjara Hills,Hyd","17.426895","78.4375616","Begumpet / Pujagutta /Banjara Hills /Jubilee Hills","1968-09-16","500","","Rajesh Mankani","23543555","Rajesh Manikani","9849025545",
"407","shopping Garden","25237280","shoppinggarden8@gmail.com","1&2, impana complex, basavanagar main road, Bangalore.","0","0","Kaggadaspura/ Marathalli/ Whitefield/ Varthur","0000-00-00","700","","ashraf","9916764400","shoukath","850425096",
"408","Angels","4210875","reachangels@hotmail.com","No.A.c-15 Block,2nd avenue, blue star, annanager, Chennai","0","0","ANNANAGAR / SALIGRAMAM/ MUGAPPAIR/ VANAGARAM/ VADAPALANI/ K K NAGER/ T NAGAR / WEST MAMBALAM","0000-00-00","400","","Abishake","9884410351","Jainmudhin","9884410351",
"409","Child junction","012043311335","","F 15 sec  18 noida","0","0","Noida - 38A, 18, 27","0000-00-00","600","","","","Mr shanker","09911368807",
"410","sunrise Super Market","25346999","","54/1, kaggadaspur main road, vignan nagar","0","0","Kaggadaspura/ Marathalli/ Whitefield/ Varthur","1970-10-13","1250","","usman","9480866299","salim","9739946213",
"411","Little Star Toys","42155076","littlestartoys@gmail.com","3, kaggadaspura main road, C.V.Raman Hagar, Bangalore.","0","0","Kaggadaspura/ Marathalli/ Whitefield/ Varthur","0000-00-00","400","","Sushil k verma","9986491167","malathi","9986491167",
"412","Toy N More","64620010","manish@totnmore.co.in","1-263A,Rajeev Nagar,opp,Allahabad Bank ,Gachibowli.Hyd","0","0","HiTech City / Gacchgolli / Kondapur","1974-03-28","1500","","Manish","9885000010","Ashiem","988500010",
"413","Little Boss","41529768","","34, kagadaspura main road, c v Raman nagar , bangalore","0","0","Kaggadaspura/ Marathalli/ Whitefield/ Varthur","0000-00-00","800","","Naushad","9008312678","Abdul Rahman","9740330986",
"414","toybox","26463042","","Karishma complex gf-2 stadium panch rasta c g road ahmedabad","0","0","CG Road/ Ashram Rd.","0000-00-00","800","","juned","9925549656","juned","9925549656",
"415","kavita toys","26461048","tapan_25@yahoo.com","46/47 navrangpurs municipal market c g Road ahmedabad","0","0","CG Road/ Ashram Rd.","0000-00-00","1000","","arvind","9825065270","tapan","9825065270",
"416","Alanker","26633133","alankermx@yahoo.co.in","108D,petit palace annanager east, chinthamani, Chennai","0","0","ANNANAGAR / SALIGRAMAM/ MUGAPPAIR/ VANAGARAM/ VADAPALANI/ K K NAGER/ T NAGAR / WEST MAMBALAM","0000-00-00","300","","Goutham jain","805128753","Surndar","8015128753",
"417","shrinathtoys","26403157","","43, municipal marhet c g road ahmedabad","0","0","CG Road/ Ashram Rd.","0000-00-00","500","","kirit","9429440851","kirit","9429440851",
"418","a r book teasure","26563020","","Navneet plaza near municipal market c g road ahmedabad","0","0","CG Road/ Ashram Rd.","0000-00-00","800","","rajnibhai","9712875777","rajnibhai","9712875777",
"419","new candle","9824045327","newcandle5756@yahoo.com","7 chunilal chambers opp t g b cafe ishwar bhuvan road navrangpura ahmedabad","0","0","CG Road/ Ashram Rd.","0000-00-00","1200","","bhurabhai","9879555756","bhura  hai","9879555756",
"420","Ratnadeep Super Markrt","","","Kondapur","17.4561683","78.36614","HiTech City / Gacchgolli / Kondapur","0000-00-00","500","","Manish","9246372463","Mamtha","9248445504",
"421","Singappore Perambur","42779033","shoppingsingappore@gmail.com","#149/65,M.h.road,(0pp.rbccc school) Perambur, Chennai","0","0","PURASIWALKAAM/ KILPAUK/ KELLYS/ DOVETON/ PERAMBUR/ PARYS CORNER/ VILLIVAKKAM /KULUTHUR","0000-00-00","400","","Rajiv","9443955466","Ajath ali","7200016584",
"422","sujana Super market","64519911","","1-621,Kothaguda x Road Hyd","0","0","HiTech City / Gacchgolli / Kondapur","0000-00-00","1000","","Kutubarao","9390181790","Kutuba Rao","939018787",
"423","Laxmi Sports & Toys.","02265273259","info@laxmitoys.com","Shop no. 5, sheetal apt, ajanta talkies lane, l.T. road, borivali (w), Mumbai.","0","0","Borivali - East & West","0000-00-00","750","","Mr Raju bhai.","","Mr. Raju","9221709038",
"424","Baazar Style Retail pvt ltd","68888251","","103/23 foreshore road shibpur Howrah -","22.5755716","88.353467","Howrah/ Chandannagar/ Chirchura/ Kacharapada","0000-00-00","0","","","","Sandip","9874562909",
"425","Shopping Singapore (Medavakkam)","","singappore1998@gmail.com","10/77,velachery main road, Medavakkam Chennai","0","0","ADAMBAKKAM / MADIPAKKAM/ GOWRIVAKKAM/ PORUR/ PALLAVARAM/ TAMBARAM/ PERAMBAKKAM/ MADAVAKKAM","0000-00-00","500","","Rajiv","9443955466","Rajiv","9443955466",
"426","kids junction","012004358081","anana.khubani@yahoo.co.in","Shop no 2 Indra market sec 27 noda","0","0","Noida - 38A, 18, 27","0000-00-00","250","","","","Mr karan","09811173030",
"427","toy planet","01204329906","musicplanet.noida@gmail.com","Indra market sec 27noida","0","0","Noida - 38A, 18, 27","0000-00-00","250","","","","Mr sanju","01204219962",
"428","gopal the party shop","","","Indra market sec 27 noida","0","0","Noida - 38A, 18, 27","0000-00-00","350","","","","Agrawal sahab","09811618742",
"429","gopal all in one","01204225863","shubham9540008343@gmail.com","Indra market sec 27 noida","0","0","Noida - 38A, 18, 27","0000-00-00","100","","","","Mr paras","09990117723",
"430","shree krishna arjun","01202550634","","Shop no 2 sungari market attack noida","0","0","Noida - 38A, 18, 27","0000-00-00","100","","","","Mr gopal","09873762362",
"431","preeti sports & gift","01202543602","","Shop no 2,3 sunhari market 27sec atta","0","0","Noida - 38A, 18, 27","0000-00-00","150","","","","chanderbhan","09891219195",
"432","Makro sports","01202550629","","4 sungari market sec 27 atta","0","0","Noida - 38A, 18, 27","0000-00-00","800","","","","Mrs k s bindra","01202550629",
"433","gifts land","9422604403","arkgiftsland@rediffmail.com","10, Dr.Sabane Road, mahableshwar-","17.924125","73.65929","Mahabaleshwar / Panchgani","0000-00-00","300","","Abhijeet R Khurasne","9422604403","na","9422604403",
"434","Palods  Super  Shoppe","9822081484","","Main Road, Mahabaleshwar","0","0","Mahabaleshwar / Panchgani","0000-00-00","200","","Ragendra  Palod","9822081484","Ragendra  Palod","9822081484",
"435","Prince  Novelty","260438","","6,Dr. Sabne. Road, Mahabaleshwar.","17.9247283","73.6576566","Mahabaleshwar / Panchgani","0000-00-00","300","","Narendra Shete","9422090338","Narendra Shete","9422090338",
"436","Mother and child","25769571","","CA /6,Deshbandhu Hagar Road, Baguiati.Kolkata","22.6102547","88.4275377","Shyam Bazaar/ Podiya Pukur/ Kakurgachi/ Lake Town/ Baguwadi","0000-00-00","0","","","","dharasnang","9339994473",
"437","Broadway Book Centre","2233338","info@booksingoa.com","Caculo enclave,st.Inez, panaji, goa","0","0","Panjim","2014-10-14","4000","","Khalid Ahmed","9822488564","Mohit","9960272676",
"438","Happy Kids","2233382","happykidstoy36@yahoo.in","Caculo mall, shop no. T-2,3rd floor, nr. Fire brigade, st. Inez, panjim, goa.","0","0","Panjim","2014-10-14","500","","Pradeep","9373399452","Pradeep","9921012244",
"439","Neel  Collections","240564","davenilesh564@gmail.com","Main. Road. Panchgani.","17.9239616","73.7989916","Mahabaleshwar / Panchgani","0000-00-00","150","","paresh dave","9937100707","Paresh Dave","9637100707",
"440","Raasei Designs","24892783","rasidesigns@yahoo.co.in","1,subba street, west mambalam Chennai","0","0","ANNANAGAR / SALIGRAMAM/ MUGAPPAIR/ VANAGARAM/ VADAPALANI/ K K NAGER/ T NAGAR / WEST MAMBALAM","0000-00-00","300","","Ravi","9444022783","Ravi","9444022783",
"441","Luckys The   Friendly Stores","240221","mecotex@hotmail.com","Main. Road,  Panchgani","0","0","Mahabaleshwar / Panchgani","0000-00-00","150","","Ashok","9890517869","Ashok","9890517869",
"442","Lifestyle","","","CF/120swimming pool sector 1 Saltlake kolkata","22.5933241","88.41524","South Lake/ Sector 5/ Technolpolis/ Karunamoi/ Rajahut","0000-00-00","0","","","","G,Roy","9830049565",
"443","precious moments","9822335248","ragsishere@rediffmail.com","Main. Road panchgani","0","0","Mahabaleshwar / Panchgani","0000-00-00","300","","Rajiv","9822335248","Rajiv  kapadiya","9822335248",
"444","KIDS    ZONE","9822263504","","23, Niranjan Complex. Sus. Road","0","0","BANER / PASHAN","0000-00-00","0","","","","Mr.  BHONGLE","9822263504",
"445","Stricker","","","2/1A Shibdas Bidhur Street kolkata","22.59885","88.3738432","Shyam Bazaar/ Podiya Pukur/ Kakurgachi/ Lake Town/ Baguwadi","0000-00-00","0","","","","L.m.Mallick","9874605084",
"446","Dollars & Pounds","43514080","vsn7@hotmail.com","#44,sardar Patel road (near lit)Adyar Chennai","0","0","ADYAR/ THIRUVANMYUR/ BESANT NAGER/ KOTTIVAKKAM/ OMR/ VELACHERY","0000-00-00","400","","Navab","9566230079","Riyaz","9566230079",
"447","Walk Over","2220304","walkover_tav@yahoo.com","M/s. Tavora agencies, trionara apartments, municipal market area, panjim, goa.","0","0","Panjim","2014-10-14","1000","","Vrida Tavora","9764242942","Vrida","9764242942",
"448","Naidu Hall (T.nagar)","4442151","info@naiduhall.co.in","#56pondy bazaar T.nagar .,Chennai","13.0403383","80.2388633","ANNANAGAR / SALIGRAMAM/ MUGAPPAIR/ VANAGARAM/ VADAPALANI/ K K NAGER/ T NAGAR / WEST MAMBALAM","0000-00-00","400","","Balaji","9600021511","Sathish","9600021511",
"449","Toy Land","9545565815","","Shop 15, near municipal market, panjim","0","0","Panjim","2014-10-14","200","","Abzal","9545565815","Abzal bhai","9545565815",
"450","Karmally","28939393","karmally@gmail.com","Karmally Glass Tower, Near Geeta Bakery, Opp. Traffic Cell, S V Road, Panjim, Goa","17","18","Panjim","1969-12-31","2000","","Muner","9322239876","Muner","9322239876",
"451","kiddis junction","222362","","Kanchan 2 plot 281 sector 1 a opp mamlatdar office gandhidham kutch","0","0","Gandhidham City","0000-00-00","1200","","dhagwan ji","9904955540","bhagwan ji","9904955540",
"452","manglam","---------","kalapi.print@gmail.com","Shop no 1 plot no 36 sector 1 A b/h Gandhi market gandhidham kutch","0","0","Gandhidham City","0000-00-00","700","","navin","9727880744","navin","9727880744",
"453","adhunik","235321","adhunik11@rocketmail.com","Sdx s 90 near bhai pratap circle opp navjivan hospital, gandhidham","0","0","Gandhidham City","0000-00-00","800","","rakesh","9426731510","rakesh","9426731510",
"454","kandla tradelink pvt ltd/ cross word","238004","ktpl@kandlagroup.com","Basement floor plot no 342 opp v mart near banking circle gandhidham","0","0","Gandhidham City","0000-00-00","2000","","nilesh","9909669966","farida","9909669966",
"455","vimal sports & stationers","221019","vimalsport@gmail.com","Plot no 257 ward 12/b opp hotel president gandhidham","0","0","Gandhidham City","0000-00-00","1400","","vineet","9979064488","vineet","9979064488",
"456","a one","---------","","Near Arjan store gandhidham","0","0","Gandhidham City","0000-00-00","300","","patil","9426357993","patil","9426357993",
"457","mahavir super market","9879767622","paringala007@gmail.com","Mundra Baron road mundra","0","0","Mundra City","0000-00-00","2500","","parin","9879767622","parin","9879767622",
"458","Singapore gallery","","","Said mandir kaatyani market b block Indra nagar","0","0","Gomti Nagar / Bhutnath / Mahanagar","0000-00-00","300","","","","Mr Rajan","09792244122",
"459","universal book centre","05222352387","","Near bhooth bath temple Indra nagar","0","0","Gomti Nagar / Bhutnath / Mahanagar","0000-00-00","800","","","","Mr vina gopal","05222352387",
"460","suri store","","","Shop no 27 bhooth bath market Indra nagar","0","0","Gomti Nagar / Bhutnath / Mahanagar","0000-00-00","200","","","","Mr virender suri","09455700000",
"461","paris corner","05222353567","","Shop no 34 bhooth Nath market Indra nagar","0","0","Gomti Nagar / Bhutnath / Mahanagar","0000-00-00","150","","","","Mr Giresh","09839081970",
"462","Maakali sports","0522-2392330","","3/289 given Khand gomti nagar","0","0","Gomti Nagar / Bhutnath / Mahanagar","0000-00-00","100","","","","Mr mohan","09336444473",
"463","universal bookseller","05222391994","","1/10 vevek khand gomti nagar","0","0","Gomti Nagar / Bhutnath / Mahanagar","0000-00-00","600","","","","Mr garav","09839011437",
"464","handicraft gallery","","","7&8 laxmi vardan patrkarpuram gomti nagar","0","0","Gomti Nagar / Bhutnath / Mahanagar","0000-00-00","150","","","","Mr sanjeev","09984533338",
"465","tinny tots 1","05223040258","","Patarkarpuram Gomti nagar","0","0","Gomti Nagar / Bhutnath / Mahanagar","0000-00-00","300","","","","Mr pankaj","09415159528",
"466","ramaz","","","5&6 laxmi vardan complex patarkarpuram gomti nagar","0","0","Gomti Nagar / Bhutnath / Mahanagar","0000-00-00","140","","","","Mr rajesh arora","008090134008",
"467","Baby  store ( AV agencies)","","","Nizampet","0","0","K P H B Colony/ V V Nagar / Nizampet/ Madinaguda/ Miyapur","0000-00-00","1000","","Quyam","9849020759","Hamed","9966474790",
"468","Singapore shoppee (Adambakkam)","22453555","","46,karuneegar street, adambakkam, Chennai","0","0","ADAMBAKKAM / MADIPAKKAM/ GOWRIVAKKAM/ PORUR/ PALLAVARAM/ TAMBARAM/ PERAMBAKKAM/ MADAVAKKAM","0000-00-00","300","","nausadsli","9952238048","irshadali","9952238048",
"469","My Toyz","32212132","Azam@aol.in","325/1, cmh road, indiranagar, Bangalore.","0","0","Indranagar / Thippsandra / Commercial St.","0000-00-00","1300","","Azam","9845015667","vinod","7760642111",
"470","Toy zone","9891749511","","Shop no 2,Ground floor,sarbati niwas near matkewali Bali,jwala hero MKT,
Pachim Bihar new delhi","0","0","Dwarka / Janakpuri/ Vikaspuri/ Jwalahedi/ Punjabi Baug/ Paschim Vihar / Tilak Nagar","0000-00-00","0","","Manish verma","","Manish verma","9891749511",
"471","Mangal Murthi Collections","2759009","","Shop no. G-5, Phoenix, Gogol, p. O. Fatorda, Margao, goa.","0","0","Madgaon","2014-10-15","350","","Mahesh","9404756442","Mahesh Kamat","94208206231",
"472","C. B. Verencar Traders","2733433","rvcbvt@gmail.com","60, new Market, martires dias Road, nr. Pick-up Stand, margao, goa.","0","0","Madgaon","1966-12-30","1000","","Rajesh","9822102091","Rajesh","9822102091",
"473","Sayali  Toys","9767574242","nileshgaikwad268@gmail.com","Lunavat Complex, Shop No,6. Kothrood. Bus. Stand,Kothrood Pune.","0","0","KOTHRUD","0000-00-00","150","","Nelesh Gaikwad","9767574242","Nelesh Gaikwad","9767574242",
"474","Ambika Stores","2737029","","Ashok building, new market,margaon, goa","0","0","Madgaon","1973-12-01","400","","Mayur","9822165631","Mayur","9767736631",
"475","Little champs","2500260","littllechamp@yahoo.in","C/19a,m,s,market, new station road rourkela","22.225973","84.8652759","Rourkela - City","0000-00-00","0","","","","jarandeep singh","9937114004",
"476","Leo Bags ( Madambakkam)","22280086","leobags@yahoo.in","#28,Madambakkam main road, Gandhi nagar, rajakilpakkam, Chenna","0","0","ADAMBAKKAM / MADIPAKKAM/ GOWRIVAKKAM/ PORUR/ PALLAVARAM/ TAMBARAM/ PERAMBAKKAM/ MADAVAKKAM","0000-00-00","500","","Prabhakaran & Sekar","9790884836","R.sakthive","9790884836",
"477","Mathura  Variety","25383020","babulalchoudhary10040@gmail.com","Kumar Parisar,  Gandhi. Bhavan,  Shop. No.11,  Kothrood,  Pune.","0","0","KOTHRUD","0000-00-00","300","","Ramlal  Chaudhary","8623860089","R.  B.  Choudhary","8623860089",
"478","Pallavi,s Mom & kids","6053772","balodia@rediffmail.com","Near Mangal Bhawan, main road rourkela,","22.227919","84.8497838","Rourkela - City","0000-00-00","0","","","","Pradeep","9437045545",
"479","Saim Toyz","","","72, next to police station, commercial street, Bangalore.","0","0","Indranagar / Thippsandra / Commercial St.","0000-00-00","250","","Sarfaraaz","9341163785","shabbir","9916288577",
"480","Top in Town","","topintownretail@gmail.com","369 NAL Wind Tunnel Road, Murugeshpalya, Bangalore.","0","0","Kaggadaspura/ Marathalli/ Whitefield/ Varthur","0000-00-00","1500","","Ismail","8951598123","mohammed","8951598123",
"481","Kids & me ( medavakkam)","7200080775","mhdthameem1556@gmail.com","1/883, perumbakkam main road, medavakkam, Chennai","0","0","ADAMBAKKAM / MADIPAKKAM/ GOWRIVAKKAM/ PORUR/ PALLAVARAM/ TAMBARAM/ PERAMBAKKAM/ MADAVAKKAM","0000-00-00","400","","Mohamed thameem","7200080775","Mohamed thameem","7200080775",
"482","Dineyworld","3200280","","On bhawan,power house road rourkela","22.2263923","84.8521662","Rourkela - City","0000-00-00","0","","","","jitendra","9437082454",
"483","Cuddles Ngiggles (jalladampet)","64522279","cuddlesngiggles0@gmail.com","No.4/374, Pillaiyar koil street, pallavan nagar, perumbakkam main road, jalladampet, Chennai","0","0","ADAMBAKKAM / MADIPAKKAM/ GOWRIVAKKAM/ PORUR/ PALLAVARAM/ TAMBARAM/ PERAMBAKKAM/ MADAVAKKAM","0000-00-00","400","","Sunil","9566004555","Sunil","9566004555",
"484","jindal cosmetics(needs)","","","Budhram market, kachery road,rourkela","22.2266701","84.8484982","Rourkela - City","0000-00-00","0","","","","mrutunjaya","9937071891",
"485","Choice Centre","","achaldesai.desai@gmail.com","Dada vaidya chowk,ponds , goa.","0","0","Ponda","1970-07-30","300","","Achal Desai","9673499566","Aarti","9822685109",
"486","Kimkan Island","9823866873","kimkanisland@gmail.com","1st floor,Luis gonzaga regency, opp. Kalpana ice-cream parlour, shantinagar ponds, goa.","0","0","Ponda","1982-02-28","1800","","shimona vales","9922001549","Shimona Vales","9823866873",
"487","Roop sringar plaza","","","Kachery road, rourkela","22.2246465","84.8475232","Rourkela - City","0000-00-00","0","","","","Rahul","7854949877",
"488","Satyam Gift & Greeting Gallery","9892689412","sgrajpurohit40@gmail.com","Shop No. 2, bullet apartment, nr. College camp, opp.municipal garden, ponda- goa.","0","0","Ponda","1977-07-21","400","","Chetan","9637379292","Chetan","9892689412",
"489","Toyland","","brijbalajgd@gmail.com","1, mulla building, ponds, goa.","0","0","Ponda","1955-01-02","400","","Brij Bala Gupta","7507388855","Brij Bala Gupta","7507388855",
"490","swaminaryan consumer store","250344","","Meharchowk Waniya waad bhuj","0","0","Bhuj City","0000-00-00","600","","husmukh bhai","9879080961","jagdish","9825563839",
"491","appu novelties","9033166425","","Behind ambaji temple hospital road bhuj","0","0","Bhuj City","0000-00-00","400","","dharmesh","9824246238","dharmesh","9824246238",
"492","maha siddhi","-------","vipulmehta1989@yahoo.in","Divyamani 1st floor opp kuk kum saree waniyawad bhuj","0","0","Bhuj City","0000-00-00","900","","vipul","9033407709","vipul","9033407709",
"493","maha kali shopping mall","-------","","Jubliee circle bhuj","0","0","Bhuj City","0000-00-00","900","","------","----------","--------","--------",
"494","swad cash n carry","-------","","Jubilee circle opp akashwani kendra bhuj","0","0","Bhuj City","0000-00-00","1400","","sunnny","-------","sunny","-------",
"495","prem gift","--------","","Waniyawad  main road bhuj","0","0","Bhuj City","0000-00-00","600","","-------","--------","------","------",
"496","shreyans","-------","","Waniyawad main road","0","0","Bhuj City","0000-00-00","400","","shreyans","-------","shreyans","-------",
"497","shivam","----","","Chati bari ring road bhuj","0","0","Bhuj City","0000-00-00","400","","shivam","-------","shivam","-------",
"498","modren store","","","E 34 pergati bazaar basement kapoorthala lucknow","0","0","Hazarthganj / Chowk / Naka / Lalbaug","0000-00-00","600","","","","Mr gourav","09935219600",
"499","dolls in london","0522 3010088","","223_224 2nd floor sarara ganj mall hazratganj","0","0","Hazarthganj / Chowk / Naka / Lalbaug","0000-00-00","450","","","","Mr hervinder","0522 4010088",
"500","button house","","","46 halwasia market hazratganj","0","0","Hazarthganj / Chowk / Naka / Lalbaug","0000-00-00","50","","","","faheem khan","09384593944",
"501","little house","05224066600","","40 hazrat ganj lucknow","0","0","Hazarthganj / Chowk / Naka / Lalbaug","0000-00-00","1000","","","","Mr umair","09559628648",
"502","Hallmark","","","Shop no 39 shred plaza lohiya Hagar Tirana vikas nagar","0","0","Hazarthganj / Chowk / Naka / Lalbaug","0000-00-00","600","","","","Mr mahinder","0945555065",
"503","Mamma & Me","","","U-8, krshna plaza, Near Old chowgule college, Gogol, margao - goa","0","0","Madgaon","2014-10-15","400","","Lavi Garg","9604785284","Lavi Garg","9604785284",
"504","Agarwal gift","","","Purania aliganj","0","0","Hazarthganj / Chowk / Naka / Lalbaug","0000-00-00","150","","","","Mr vk agarwal","07275265550",
"505","tinny toys 2","","","Patarkarpuram gomtinagar lucknow","0","0","Hazarthganj / Chowk / Naka / Lalbaug","0000-00-00","500","","","","Mr montu","09415159537",
"506","Baybee shoppee (Miyapur)","66048554","","Plot.4&5,Beside Athidhi Restaurant,Miyapur main Road, Miyapur,Hyd","0","0","K P H B Colony/ V V Nagar / Nizampet/ Madinaguda/ Miyapur","0000-00-00","1500","","Venu","9393432266","Ramesh,Ashiu","66048554",
"507","New kalaEmporium","011-23843317","","161-d,kamla ngr Delhi","0","0","Kamala Nagar/ Mddel Town/ Ashok Vihar/ Aadarsh Nagar/ Civil-lines/ Mukherjee Nagar","0000-00-00","0","","subhash gupta","9899550539","subhash gupta","09716143596",
"508","Deepak store","011-45604889","sandeep8562915@gmail.com","E-23,kamla ngr,near vaishno chaat bhandar,Delhi","0","0","Kamala Nagar/ Mddel Town/ Ashok Vihar/ Aadarsh Nagar/ Civil-lines/ Mukherjee Nagar","0000-00-00","0","","sandeep gupta","9810234075","sandeep gupta","9810234075",
"509","Toy Fort","011-23842389","piyush@toyfort.in","99-e,kamla ngr Delhi","0","0","Kamala Nagar/ Mddel Town/ Ashok Vihar/ Aadarsh Nagar/ Civil-lines/ Mukherjee Nagar","0000-00-00","0","","S k gupta","986845515","s k gupta","98455175",
"510","Md gallery","8010896747","","Shop no13,al mkt shalimar bath, delhi","0","0","Kamala Nagar/ Mddel Town/ Ashok Vihar/ Aadarsh Nagar/ Civil-lines/ Mukherjee Nagar","0000-00-00","0","","murli dhar","9911312603","Murli dhar","9911312603",
"511","Tayal stationers","9810331277","","Al-141,shalimar Bagh delhj","0","0","Kamala Nagar/ Mddel Town/ Ashok Vihar/ Aadarsh Nagar/ Civil-lines/ Mukherjee Nagar","0000-00-00","0","","Manoj kr gupta","9810331277","Manoj kr gupta","9810331277",
"512","new Novelty  Toys","9175216768","vishalcoolbafna1234@gmail.com","Dahanukar  Colony Hemant  Shrew. Soc. Kothrood","0","0","KOTHRUD","0000-00-00","200","","Vishal  Bafna","9175216768","Vishal  Bafna","9175216768",
"513","Little Treasures","2222512","ranjeev.batra@yahoo.in","28&29,  kamat Arcade, block a, tambdi mati, st. Inez, panaji, goa.","0","0","Panjim","1962-02-28","850","","Elvina Batra","9860062794","Elvina Batra","9860062794",
"514","baccha party","8866466668","bacchapartytoys@yahoo.com","Shop no 1 ground floor holiday corporate square amin Mary rajkot 360005","0","0","Rajkot - City","0000-00-00","500","","kashyap","8866466664","kashyap","8866466668",
"515","maya  Toys & Gift","7709088881","kishankeer8888.kk@gmail.com","Shop No. 13, Shivrudra Soc. D.P. Road, Near Ashish. Garden, Kothrood Pune.","0","0","KOTHRUD","0000-00-00","0","","Kishan","7709088881","kishan","8888584707",
"516","laxmi bros","011-27444370","sterlingsanjaygupta@gmail.com","F-1441 model town2","0","0","Kamala Nagar/ Mddel Town/ Ashok Vihar/ Aadarsh Nagar/ Civil-lines/ Mukherjee Nagar","0000-00-00","0","","samrat ashok","9810481776","samrat ashok","9810481776",
"517","Dhanlaxmi  Varities","9921855579","","Rachna. Shilp Near Guru Ganesh Hagar. New D. P. Road, kothrood, Pune","0","0","KOTHRUD","0000-00-00","0","","Dhanraj","","Dhanraj  Chaudhary","9921855579",
"518","Shravan Toys C/O Bombay Bazar","2421389","shranvantoys@yahoo.com","18th June road, panjim, goa","0","0","Panjim","1969-05-15","150","","Ramesh","9373581008","Ramesh","9422638903",
"519","My Choice stationary","02025305099","ghevar.choudhary1994@gmai.com","Kumar parisar E1shop 9 mahatma soc.Gandhi bhaven kothrud Pune","0","0","KOTHRUD","0000-00-00","310","","c p chouhary","09822373919","g c choudhary","09960007928",
"520","Sankhalkar & Sons","2228684","","GS -2, rani pramila arcade 18th June road panjim, goa.","0","0","Panjim","1966-03-16","150","","Subhash","9765199333","Subhash","9765199333",
"521","Denesh  Sports","9823392674","","Mahaveer Chamber. S. No. 37/2 Erandawane Paud  Phata Pune","0","0","KOTHRUD","0000-00-00","250","","Denesh","9823392674","Denesh","9823392674",
"522","Mataji","9766070020","","Shop No. 2Soba Sahawas Bld. Karve Hagar Pune","0","0","KOTHRUD","0000-00-00","200","","Jeetu","9766070020","Jeetu","9766070020",
"523","Toyzberry","","","2256, sahakara Hagar, kodigehalli main road, Bangalore.","0","0","Sahakarnaga/ Thindlu/ Vidyaranyapura/ Amruthahalli/ R.T.Nagar","0000-00-00","450","","ahmed","8867640802","syed zamir ahmed","8867640802",
"524","Kids Zone","25209151","","Shop No. 22Kakde Plaza,Opp. Kakde City Karve nagar","0","0","KOTHRUD","0000-00-00","300","","Umesh Meher","9225572291","Umesh Meher","9225572291",
"525","shobha Hyper Mart","","","Nimeshamba square, talakaveri layout, amruthahalli main road, bangalore","0","0","Sahakarnaga/ Thindlu/ Vidyaranyapura/ Amruthahalli/ R.T.Nagar","0000-00-00","1500","","Ashraf","9945829759","Ramshad","9945829759",
"526","Asian toys","011-47036080","","K-16285,kolha pur road,kamla ngr delhi","0","0","Kamala Nagar/ Mddel Town/ Ashok Vihar/ Aadarsh Nagar/ Civil-lines/ Mukherjee Nagar","0000-00-00","0","","Harmeet singh","011-47036080","sanmeet singh","9871609607",
"527","Affection branch /snagar","","affection0to14@yahoo.com","F-550, nitya pushpa, f block, 80 feet road, sahakarnagar, bangalore","0","0","Sahakarnaga/ Thindlu/ Vidyaranyapura/ Amruthahalli/ R.T.Nagar","0000-00-00","1200","","mrunal","9845141544","prajwal","9945423344",
"528","baby toys","2225054","","Municipal chwok dhebar road rajkot","0","0","Rajkot - City","0000-00-00","900","","sanjay","9428204113","sanjay","9428204113",
"529","simandhar store","3043157","","4- kuber classic complex Dr yagnik road opp hotel rajdoot rajkot","0","0","Rajkot - City","0000-00-00","700","","manish","9427732040","bhura/sandip","8866065949",
"530","wonder world","2229286","","21/22 m g market jubilee road rajkot","0","0","Rajkot - City","0000-00-00","500","","kamlesh","9825479280","kamlesh","9825479280",
"531","shreenathji prakashan","9825155314","","Kalawad road opp saint Marys school a-6 panchnath complex rajkot.","0","0","Rajkot - City","0000-00-00","600","","sameer","9428004605","sameer","9428004605",
"532","seasons square","2478799","seasonssquare@hormail.com","West coast international amin marg  rajkot","0","0","Rajkot - City","0000-00-00","4000","","dhaval","9426998799","dhaval","9426998799",
"533","raj fun & learn","8401952226","","Shop no 2 destination plus before talwakar gym rajkot.","0","0","Rajkot - City","0000-00-00","600","","farzana","9924211552","farzana","9924211552",
"534","khooshis","2588499","","Dwarkesh shop no 3 upper level oppbsatnam child care uni road rajkot","0","0","Rajkot - City","0000-00-00","600","","tejas","9428251698","tejas","9428251698",
"535","Balaji kids fashion andgift","","","Plot no, D/62,Sector 7,C,D,A cuttack","20.4726937","85.8383357","Cuttack - City","0000-00-00","0","","","","Sunita Agrawal","9861370706",
"536","school zone","--------","","Amin Mary Rajkot","0","0","Rajkot - City","0000-00-00","500","","","","mayur","9825420625",
"537","sweet angles","3092718","","Sunny plaza opp nutan Hagar hall kotecha main road rajkot","0","0","Rajkot - City","0000-00-00","800","","nilesh","9825686709","nilesh","9825686709",
"538","Ajit S Gad","2253096","","Shop no.20, Municipal market, mapusa goa.","0","0","Mapsa","1964-02-09","400","","Rajshree","7798781883","Rajshree","7798781883",
"539","Loja Shamu","2264794","lojashamu@gmail.com","Shop 22, municipal market, mapusa, goa","0","0","Mapsa","1967-04-17","200","","Mahesh","9850451515","Mahesh","9850451515",
"540","Wonderland","2413713","","Mission road cuttack","20.4759515","85.8700097","Cuttack - City","0000-00-00","0","","","","nitin","9437120150",
"541","Poshak Enterprises","2262227","poshak_goa@rediffmail.com","Cosmos Darshan, motor, mapusa, bardez- goa","0","0","Mapsa","1980-03-29","0","","Pravin","9923480717","Pravin","9923480717",
"542","Damu Vishnu Naik & Sons","","dattabmw@gmail.com","Shop no.17, Cosmos centre, mapusa, Goayy","0","0","Mapsa","1977-10-06","450","","Dattaprasad","9822164152","Dattaprasad","9822164152",
"543","krezy kids","25438319","","4_5Avadpuri, Opp.Maruti Temple, Karve Road","0","0","KOTHRUD","0000-00-00","250","","S.S. Hariyani","25438319","Tirath Advani","25438319",
"544","Kridsy  kids","25438319","","45Avadpuri, opp.maruti Temple, KarveROAD","0","0","KOTHRUD","0000-00-00","250","","S. S.Haraniyani","25438319","Tirth Advani","25438319",
"545","Toy Land (Abids)","24755217,40047994","toyland@ymail.com","4-1-969,Abide Main Road, opp,Santosh spans Theatre Hyd,","0","0","K P H B Colony/ V V Nagar / Nizampet/ Madinaguda/ Miyapur","0000-00-00","1000","","Shanker lal","40047994","shanker lal","24755217",
"546","B. P. Enterprises","2417027","parshuphal@gmail.com","Opp. Goa urban bank, b. B. Borkar road, Alto-Porvorim, bardez- goa","0","0","Mapsa","1953-07-27","700","","Parshuram","9423061567","Parshuram","9423061567",
"547","Tayal stationers","9810331277","","Al-141,shalimar bath,delhi","0","0","Shalimar Baug/ Pitampura/ Rani Baug/ Saraswati Vihar/ Pushpanjali","0000-00-00","0","","Manoj kr gupta","9810331277","Manoj kr gupta","9810331277",
"548","Md gallery","9911312603","","Shop no.13,A l Mkt ,shalimar Bagh Delhi","0","0","Shalimar Baug/ Pitampura/ Rani Baug/ Saraswati Vihar/ Pushpanjali","0000-00-00","0","","Murli dhar","8010896747","Murli dhar","8010896747",
"549","Bhatia gift corner","011-27321705","","Shop no.1,m p MKT,pitam pura,delhi","0","0","Shalimar Baug/ Pitampura/ Rani Baug/ Saraswati Vihar/ Pushpanjali","0000-00-00","0","","Sudesh bhatia","9868810690","sudesh bhatia","9868810690",
"550","Laxmi toys and gift shop","011-27326629","","Shop no.15,m p MKT,pitam pura,delhi","0","0","Shalimar Baug/ Pitampura/ Rani Baug/ Saraswati Vihar/ Pushpanjali","0000-00-00","0","","Naresh kr","9818252067","Naresh kr","9818252067",
"551","Step Inn","8805880887","vinu_checkinn@yahoo.com","Opp. Saraswate bank, k. T. C. Road, alto porvorim, goa","0","0","Mapsa","1964-02-07","150","","Vinda Nagvekar","8805880887","Vinda Nagvekar","8805880887",
"552","Harsh store","9810933662","","Shop no.24,g d MKT,pitam pura,delhi","0","0","Shalimar Baug/ Pitampura/ Rani Baug/ Saraswati Vihar/ Pushpanjali","0000-00-00","0","","dont no","9810933662","bablu","9810933662",
"553","up 2 Date","9811985774","","66,harsh Bihar,(chowk),pitam pura,Delhi","0","0","Shalimar Baug/ Pitampura/ Rani Baug/ Saraswati Vihar/ Pushpanjali","0000-00-00","0","","vicky","8527154510","parth","9811985774",
"554","Student selection","7838080940","","Shop no.30,d-block mkt,pushpanjali Enclave Delhi","0","0","Shalimar Baug/ Pitampura/ Rani Baug/ Saraswati Vihar/ Pushpanjali","0000-00-00","0","","B k duggal","7838080940","Bk duggal","7838080940",
"555","student gift shop","9818014156","","Shop no.37,1st floor,d block mkt,pushpanjli Enclave delhi","0","0","Shalimar Baug/ Pitampura/ Rani Baug/ Saraswati Vihar/ Pushpanjali","0000-00-00","0","","dont no","9818014156","dont no","9818014156",
"556","Madan stores","011-27011440","","Shop no.11,d block mkt,pushpanjli enclave delhi","0","0","Shalimar Baug/ Pitampura/ Rani Baug/ Saraswati Vihar/ Pushpanjali","0000-00-00","0","","Madan","011-27011440","dont no","011-27011440",
"557","Arya uphar","011-27027160","","828,main bazaar rani bagh,Delhi","0","0","Shalimar Baug/ Pitampura/ Rani Baug/ Saraswati Vihar/ Pushpanjali","0000-00-00","0","","A b gupta","9213739096","A b gupta","9213739096",
"558","Toy city","9899018643","","1075 shop no.3,gurjyot mkt,main mkt Ranjbagh delhi","0","0","Shalimar Baug/ Pitampura/ Rani Baug/ Saraswati Vihar/ Pushpanjali","0000-00-00","0","","Jassa","9899018643","Jassa","9899018643",
"559","Readymade plaza","011-27019200","","1199,main bazar Ranibagh,delhi","0","0","Shalimar Baug/ Pitampura/ Rani Baug/ Saraswati Vihar/ Pushpanjali","0000-00-00","0","","Tilak chawla","011-27019200","dont no","011-2729200",
"560","Funtoys","06742360007","","Shop no,G05 Pal heights, jaydev Bihar Bhubaneswar","20.2986476","85.8239612","Bhubaneshwar - City","0000-00-00","0","","","","Sourabh","9674757437",
"561","vidharthi collection","011-27018177","","Wz-11898,main bazar,rani bath delhi","0","0","Shalimar Baug/ Pitampura/ Rani Baug/ Saraswati Vihar/ Pushpanjali","0000-00-00","0","","Jay gopal","011-27018177","Jay gopal","011-27018177",
"562","sanjay toys","9213401070","","668,Rishi ngr mainbazar ,ranibagh delhi","0","0","Shalimar Baug/ Pitampura/ Rani Baug/ Saraswati Vihar/ Pushpanjali","0000-00-00","0","","sanjay","9213401070","sanjay","9213401070",
"563","Orrisa Cicrle Supply Co,","06742534949","","Master canteen Plot no108d Bhubaneswar","20.2693895","85.8397885","Bhubaneshwar - City","0000-00-00","0","","","","S Hanas","904020018",
"564","DPJP","2570910","dpjpbbsr@yahoo.com","10,Janpath, Satyanagar,Bhubaneswar","20.2809867","85.84352","Bhubaneshwar - City","0000-00-00","0","","","","Rajesh","9778348151",
"565","childcare","2573729","","11/B Satyanagar bhubaneswar","20.2809867","85.84352","Bhubaneshwar - City","0000-00-00","0","","","","d,p,ray","8908519885",
"566","Pick n play","011-45540909","","D-12158 sec 7 ,rohini delhi","0","0","Shalimar Baug/ Pitampura/ Rani Baug/ Saraswati Vihar/ Pushpanjali","1975-08-22","0","","sunil","9899142165","Sunil","9899142165",
"567","Heritage foods ltd","44249590","hfl@heritagefoods.in","Poonamalli high road, porur, near L & T, chennai","0","0","ADAMBAKKAM / MADIPAKKAM/ GOWRIVAKKAM/ PORUR/ PALLAVARAM/ TAMBARAM/ PERAMBAKKAM/ MADAVAKKAM","0000-00-00","300","","","9344019223","Presana","9344019223",
"568","Toy town","","","202A Forum Mart Bhubaneswar","20.2784583","85.8432299","Bhubaneshwar - City","0000-00-00","0","","","","mayan","7205883200",
"569","Focus book shop","23445402","focusbook@gmail.com","140/2 lakshmi nivas, 8th cross, malleshwaram, bangalore","0","0","Malleshwaram/ Mathikeri/ Bel Road/ Sanjaynagar","0000-00-00","1500","","jyothi","7899023422","jyothi","7899023422",
"570","The Kangaroo","","","108/3 Janpath Bhubaneswar","20.2693895","85.8397885","Bhubaneshwar - City","0000-00-00","0","","","","Vikram","9937448888",
"571","Toys n toys","011-27949180","","Shop no.3,CSC no.5,sec-8,Rohini,delhi","0","0","Rohini/ Prashant vihar","0000-00-00","0","","jagjit chhabra","9810988345,9810944345","Dilip","8130530655",
"572","Beatles","011-65711664","","Shop no.44,c s c -2,sec-13,Rohini delhi","0","0","Rohini/ Prashant vihar","0000-00-00","0","","Rajesh","9811144134","Rajesh","9811144134",
"573","Test","9820840946","contactabhay2@gmail.com","RIIDL, ghatkopar (East)","19.0723675","72.9000822","Ghatkopar / Chembur / Mulund","1993-05-28","5000","","Abhay Amin","9820840946","Tushar Sachde","9820840946",
"574","TOY VILLA","","","Stall no-13,south motion bath MKT new delhi","0","0","Basant Kunj/ Moti Baug / R K Puram/ Muneerka","1992-09-24","200","","Mr.Manish Gupta","7803432111","................","................",
"575","Swadeshi Shopping Centre","23752506","","7-1-1893,Gurudwara,Satyam Road, Ameerpet,Hyd","0","0","Amirpet / S R Nagar / Ysugoda / Kukatpalli","0000-00-00","1000","","Narsing","66133374","Srinivas","66133374",
"576","Richi""s world","011-27053003","","10 pkt c-9,sec-7,main road,near sai baba Chowk,rohini,delhi","0","0","Rohini/ Prashant vihar","0000-00-00","0","","Tarun aggarwal","9810806730","A k aggarwal","9811095850",
"577","Toy Land  (Kukatpally)","23050168","toyland@ymail.com","Shop No.4,Vijay said Towers,opp,BJP Office,Main Road,Kukat pally,Hyd","0","0","K P H B Colony/ V V Nagar / Nizampet/ Madinaguda/ Miyapur","0000-00-00","-1000","","rafe","23050168","Rafe","23050198",
"578","amit toys","","","Gumti no 5 kanpur","0","0","Kanpur - City","0000-00-00","250","","","","Mr amit","09807025011",
"579","bhatia gift collection","","","Gumti no 5","0","0","Kanpur - City","0000-00-00","300","","","","Mr preem bhatia","09935860994",
"580","Fantasies Gifts","23731213","","No.27,Huda ,Complex,Maitrivanam,Ameerpet,Hyd","0","0","Amirpet / S R Nagar / Ysugoda / Kukatpalli","0000-00-00","1000","","Ramesh","9866700008","Sujatha","9396500008",
"581","Kushi Exclusive","69998580","","No.1B,opp,Bharath Petrol Pump ,Near Yousufguda Checklist,Hyd","0","0","Amirpet / S R Nagar / Ysugoda / Kukatpalli","0000-00-00","1000","","Shiva","9295756671","Shiva","951617122",
"582","concepts","","concepts31@gmail.com","180, laal bangla road kanpur","0","0","Kanpur - City","0000-00-00","300","","","","Mr himanshu","08181036919",
"583","confessions","","","113/167 prabha market swaroop nagar","0","0","Kanpur - City","0000-00-00","400","","","","Mr mouji","09838587647",
"584","elegance","05122530228","","113/167 swarop nagar","0","0","Kanpur - City","0000-00-00","300","","","","Mr manooj arora","09956334455",
"585","gift shop","05122312811","","24/51 birana road","0","0","Kanpur - City","0000-00-00","300","","","","sk pandey","0376855734",
"586","Raam chandani","05122312063","","Birana road","0","0","Kanpur - City","0000-00-00","300","","","","Mr kanahiya","05122312063",
"587","rakesh store","05122401937","","Harnder Hagar laal bangla","0","0","Kanpur - City","0000-00-00","400","","","","Mr rakesh","9198404306",
"588","grand paa","","","Harsh Hagar kanpur","0","0","Kanpur - City","0000-00-00","600","","","","Mr montu","09415131955",
"589","Hallmark","","","Mass road near centre point choraha","0","0","Agra / Aligarh","0000-00-00","200","","","","Mr vivek","09760072410",
"590","gift celebration","","","Shop no 5 Sochi complex ramghat road","0","0","Agra / Aligarh","0000-00-00","150","","","","Mr nelesh agarwal","09897523459",
"591","toy & gift shop","","","Shop no 1 near old atruali bus stand ramghat road","0","0","Agra / Aligarh","0000-00-00","300","","","","bhaiya ji","07351990000",
"592","Natraj Mini Market","25449685","","Shop No2,62/9,Lajwanti Soc. Karve Road,Pune","0","0","PAUD ROAD","0000-00-00","300","","Mahendra Solanki","25449685","Mahendra Solanki","9822438646",
"593","Anubandhan","2541482","anubandhan_stores@rediffmail.com","76B, mahadwar road, kolhapur","0","0","Kolhapur - 1","2014-10-18","2000","","Deepak","9422075800","Deepak","9422075800",
"594","Baby Mart","23185949","","28, 1st floor, nagarbhavi, bangalore","0","0","Vijayanagar/ Chandra Layout/ Basaveshwarnagar/ Nagarbhavi/","0000-00-00","3000","","nasir","8861830988","imran","8861830988",
"595","Khel Khajana","2645323","gupta19975@gmail.com","358, B near bin khambi ganesh mandir, kolhapur","0","0","Kolhapur - 1","1975-09-19","200","","Rajesh","9922272717","Rajesh","9881014242",
"596","Lucky Bazar","3290623","lucky_bazar2003@yahoo.com","Lucky towers, 8th lane, rajarampuri, kolhapur.","0","0","Kolhapur - 1","1992-05-26","10000","","sambhaji","9225839933","Sunil","9225530332",
"597","Dreamz by shah agencies","23102243","shahbikes.india@gmail.com","6, club road, r p c layout, vijayanagar, bangalore","0","0","Vijayanagar/ Chandra Layout/ Basaveshwarnagar/ Nagarbhavi/","0000-00-00","1000","","Bhavesh","9448678269","Shankar","9448678269",
"598","Wordpower","6617625","wordpowerbooksshop@gmail.com","Shop no. 1, ground floor,atharva empire, opp. Sasane ground,tarabai park, kolhapur.","0","0","Kolhapur - 1","1975-09-05","2200","","Sharan","8390043301","Sharan","8390043301",
"599","Greetwell","2662266","","Near Koran banglo, tarabai park, Kolhapur.","0","0","Kolhapur - 1","0000-00-00","2000","","sagar","9975613200","Sagar","9975613200",
"600","Beautiful Gift Gallery","","rakesh810810@gmail.com","Opp. Mahavir collage,nagala park, kolhapur","0","0","Kolhapur - 1","2014-10-18","300","","Rakesh","9867292935","Rakesh","9867292935",
"601","Jack Jill","2520149","jjsmartkids@rediffmail.com","1105,opp. K. D. C. C. Bank,shahupuri, kolhapur.","0","0","Kolhapur - 1","1979-10-01","1700","","Ajit Mehta","9158641555","shravan","8698798489",
"602","Toy Zone","8796356490","","Shop No.21,Survey No.46/1.Shivtara Garden,A-wing, Near Gananjay Soc. Kothrud,Pune .","0","0","PAUD ROAD","0000-00-00","400","","Rohan Aru","8796356490","Rohan Aru","9923710192",
"603","Pankaj Varieties","","","Shop No 16.Shiv Prasad B Left Bhusari Colony. Poud-Kothrud Pune.","0","0","PAUD ROAD","0000-00-00","150","","","9763404455","Pankaj","9763404455",
"604","Thakkar Plastics","9890210050","","Shop No.8,Sargam Park,Gujarat Colony,Near IDBI Bank,Kothrud,Pune.","0","0","PAUD ROAD","0000-00-00","80","","Amit Thakkar","","Amit Thakkar","9890210050",
"605","Thakkar Plastics","","thakkarplastics@gmail.com","Shop No.8,Sargam Park, Gujarat Colony,Near IDBI Bank, Kothrud, Pune.","0","0","PAUD ROAD","0000-00-00","80","","Amit Thakkar","","Amit Thakkar","9890210050",
"606","bharat store","","","Labhchand market raja mandi","0","0","Agra / Aligarh","0000-00-00","150","","","","Mr madhu","09319028288",
"607","madhu collection","05623295155","","2 paliwa market Delhi gate agra","0","0","Agra / Aligarh","0000-00-00","150","","","","Mr madhu","09319028288",
"608","chozy the gift shop","","","Opp anjana cinema mg road","0","0","Agra / Aligarh","0000-00-00","200","","","","Mr surender","09897273341",
"609","Anoop gift shopa","","","Opp anjana cinema mg road","0","0","Agra / Aligarh","0000-00-00","100","","","","Mr bhawan dass","09897265188",
"610","Bhopal sing","","","Zadar bazaar agra","0","0","Agra / Aligarh","0000-00-00","200","","","","Mr rinku","09897636688",
"611","yash gift artiicals","9730291321","","Shop No 19, Ram Soc Rule Hagar Pune","0","0","VISHRANTWADI / KHADKI","0000-00-00","400","","Mukesh","9730291321","Mukesh Choudry","9730291321",
"612","evergreen toys world","9624581013","","9--u l , oxford tower opp gurukul road memnagar","0","0","Vastrapur/ S G Highway","0000-00-00","350","","pravin","9624581013","pravin","9624581013",
"613","pegasus","24173698","anujmehta@toy-kraft.com","Hdhdhdnn","0","0","KALYANI NAGAR","2009-10-20","300","","anuj mehta","9820475236","dododo","9820475236",
"614","Feroz Ahmed","","","Bistupur","22.7960703","86.183157","Jhamshedpur - City","0000-00-00","0","","","","Feroz","8409401675",
"615","Test Company","9820840946","contactabhay2@gmail.com","ghatkopar","19.021518699999998","72.8682807","BANDRA WEST","1993-05-28","2000","","Abhay Amin","9820840946","","",
"616","Passion","","","Shop no 30, New sector market, telco","22.7755163","86.2521409","Jhamshedpur - City","0000-00-00","0","","","","Rakesh","9334800370",
"617","Shivam","","","Shop no 9, Plaza market telco","22.7732618","86.2551606","Jhamshedpur - City","0000-00-00","0","","","","lakshman","9334624727",
"618","prakesh party Shop","27812609","","1229&1230,General Bazar,Secunderabad","0","0","Maradpalli / M G Road / S D Road/ Narangwada / Musheerabad","0000-00-00","1000","","Sunil","66320146","sunil","9848043812",
"619","Saify Stores","27898296","","1439,General Bazar,Secunderabad,","0","0","Maradpalli / M G Road / S D Road/ Narangwada / Musheerabad","0000-00-00","500","","saify","09849226251","saify","09849226251",
"620","Bharat Enterprises","26347738","","82, M.G. Road Camp, Pune.","0","0","M.G. ROAD (CAMP)","0000-00-00","250","","Bharat Surana","9860185368","Bharat Surana","9860185368",
"621","paras Toys & Novelty Stoores","27845003","","2-4-15,M G Road, Secunderbad,","0","0","Maradpalli / M G Road / S D Road/ Narangwada / Musheerabad","0000-00-00","800","","parekh","27845003","Rashmlkant Prakh","27845003",
"622","Arihant Toy - gifts & Novelties","27894698","","Shop 117,M G Road, SECUNDERABAD,","0","0","Maradpalli / M G Road / S D Road/ Narangwada / Musheerabad","0000-00-00","700","","Kishore Jian","27894698","Suresh jain","27900160",
"623","Cloud 9 Gift","","","Shop no 24 ground floor Krishna apra plaza alpha one","0","0","Greater Noida","0000-00-00","150","","","","Mr manesh","9250006663",
"624","Swastik gift gallery","","","Shop no three street no five jagat farm","0","0","Greater Noida","0000-00-00","200","","","","Mr nitin","0999221987",
"625","New variety","","","31,Ashutosh mukerjee road bhowanipore kolkata","22.5325481","88.346261","Desopiyo Park/ Elgin Road/ Bhavanipur/ Exit/ Maidan","0000-00-00","0","","nilesh","","nilesh","9830230051",
"626","Carry4","","","104/ Rashi bari Avenue shop. No 202 lake mall kolkata","22.5189214","88.3480546","Desopiyo Park/ Elgin Road/ Bhavanipur/ Exit/ Maidan","0000-00-00","0","","","","Susanto","9038848218",
"627","City style","","","174 R,B.Avenue Gariahat kolkata","22.5185292","88.3573691","South City/ Godiya/ Jadhavpur/ Goriyahat/ Dhakuriya","0000-00-00","0","","","","mittun","9836898787",
"628","disneyland","24404232","","New complex A&B  Block stall not_42.Gariahat Market, Kolkata","22.5194489","88.3653995","South City/ Godiya/ Jadhavpur/ Goriyahat/ Dhakuriya","0000-00-00","0","","","","Nikhil","9830309643",
"629","wohlig","9856325478","jagruti@wohlig.com","Demo","0","0","BANDRA WEST","2014-10-22","123","","deemo","658745889","jagruti","6985478523",
"630","wohlig","3254125698","jagruti@wohlig.com","104,siddhivinayak soc opp maharashtra bank","19.072251899999998","72.9001839","Mapsa","0000-00-00","20","","jagruti","8745874587","lalit","9854785698",
"631","Himalaya Book World  (Panjagutta)","23355598,233355968,24617632","","6-3-3541,shop No.A&B,Stellar Sphinx,Punjagutta","17.4354385","78.5133189","Begumpet / Pujagutta /Banjara Hills /Jubilee Hills","0000-00-00","1000","","Shamee","24732098","Mujeeb","24732057",
"632","Himalaya Book World  ( S R Nagar)","23701290","","Door No.34&35,Swastic plaza,opp, DCB Bank, S R Hagar ,Hyd,","17.4354385","78.5133189","Begumpet / Pujagutta /Banjara Hills /Jubilee Hills","0000-00-00","1000","","Shamee","24732098","Mujeeb","24732057",
"633","Himalaya Book World   (Mehidipatnam)","23514072,23511198","","10-3-55,Beside,Police station,Mehdipatnam,Hyd","17.4354385","78.5133189","Begumpet / Pujagutta /Banjara Hills /Jubilee Hills","0000-00-00","1000","","Shamee","24732098","Mujeeb","24732057",
"634","Party kids","","amar_071180@yahoo.co.in","33,/10, Dharga road, Subway service road, zmain pallavaram, Chennai","0","0","ADAMBAKKAM / MADIPAKKAM/ GOWRIVAKKAM/ PORUR/ PALLAVARAM/ TAMBARAM/ PERAMBAKKAM/ MADAVAKKAM","0000-00-00","250","","P.Amarnath","8754501407","P.Amaranth","8754501407",
"635","Sujana Super Market","64583353","","1-5883103,San Siva Complex,Near pranam Hospital,Madinaguda","0","0","K P H B Colony/ V V Nagar / Nizampet/ Madinaguda/ Miyapur","0000-00-00","1000","","Kutaba Rao","9390181790","Amit","9247716573",
"636","Toys Kids world  (Nizampet)","64568462","","Plot No.32,M R Complex,S p Nagar,Nizampet,","0","0","K P H B Colony/ V V Nagar / Nizampet/ Madinaguda/ Miyapur","0000-00-00","1000","","Lokanath Reddy","8121848462","Sanjay","64568462",
"637","Toys N Kids World  ( Madina guda)","64518462","infa@toynkidsworld.com","1-562a,N H 9,Main Road, Miyapur,","0","0","K P H B Colony/ V V Nagar / Nizampet/ Madinaguda/ Miyapur","0000-00-00","2000","","Loknath Reddy","8121848462","Sanjay","64518462",
"638","Bhavani Toys Markrt","23031975","","5-140,Manjeera Road,ChandaNagar,Hyd,","0","0","K P H B Colony/ V V Nagar / Nizampet/ Madinaguda/ Miyapur","0000-00-00","1000","","Lingam Daram","9393091976","Ramu","9347310141",
"639","Padam book house","","jayeshpbh1992@gmail.com","712, WOC road, rajajinagar, bangalore","0","0","Vijayanagar/ Chandra Layout/ Basaveshwarnagar/ Nagarbhavi/","0000-00-00","250","","padamraj jain","9844110053","yajesh p jain","9008580710",
"640","Apple Gift & More","69944336","","32,  chaturbhuj, shill chowk, sector 21, kharghar, navi Mumbai.","0","0","Vashi","1987-11-15","350","","Megharam","9029392676","Bhawanising","9892582349",
"641","Hallmark","2504035","hallmarkshillong@yahoo.co.in","Police bazar, Shillong.1","25.5755792","91.8804517","Shilong City","0000-00-00","0","","Babul sharma","9612290042","","",
"642","Krishna Gift & More","27747710","","Shop no. 31, Tiara complex, near daily bazaar, plot no. 184, sector -13, Kharghar, navi Mumbai.","0","0","Vashi","0000-00-00","300","","Rajendra","9892564767","Bhimaram","8422081832",
"643","The shillong sports.","","","Police bazar","25.5755792","91.8804517","Shilong City","0000-00-00","0","","s,baneerjee","8416073264","","",
"644","Beautiful","27743680","beautifulmumbai@gmail.com","Shop no. 52-55, chaturbhuj, sector 21, shilp chowk, kharghar, navi Mumbai.","0","0","Vashi","2014-10-27","2000","","Pramod","9821175465","Tarun","9987491219",
"645","Choice Collection","65721687","","Shop no. 8, riddhi complex, Sector -13,  khanda colony, new panvel,","0","0","Vashi","1987-07-18","400","","Devraj","9820443894","Devraj","9820443894",
"646","Fashion &Fun","2340036","maruticrafts@hotmail.com","Police bazaar shillong","25.5765265","91.8806235","Shilong City","0000-00-00","0","","","9830062581","","",
"647","Grand Bazar","2224509","","Police bazar,shillong","25.5755792","91.8804517","Shilong City","0000-00-00","0","","chandani","8974465520","","",
"648","favara","28540877","vaseemfavara@yahoo.com","175/A, varthur main road, R.G.halli post, Thubrahalli, bangalore","0","0","Kaggadaspura/ Marathalli/ Whitefield/ Varthur","0000-00-00","1500","","mohseen","9535277077","omer","8147208210",
"649","Legasy","","","Cedar market police bazar shillong","25.5724105","91.8820351","Shilong City","0000-00-00","0","","sahab uddin","9436164828","","",
"650","Celebration","65369777","","Shop no. 9, krantiveer vasudev balvant phadke natyagruh, near saraswati vidya  mandir, opp. Bhaji market lake, panvel.","0","0","Vashi","0000-00-00","400","","Punit","9867323281","Sandeep","9870787500",
"651","Grand collection","2225971","amy89kahit@yahoo.co.in","Laitumkhrah, shillong","25.5709569","91.8966872","Shilong City","0000-00-00","0","","Amy Camelia Kahit","9158260542","","",
"652","sunny gift home","011-25457083","","Shop no.15,H-28,Rajouri garden,main MKT,new delhi","0","0","Kamala Nagar/ Mddel Town/ Ashok Vihar/ Aadarsh Nagar/ Civil-lines/ Mukherjee Nagar","0000-00-00","0","","Mandeep singh","9810474664","Mandeep singh","9810474664",
"653","sunny gift home","011-25457083","","Shop No.15,H-28,Rajouri garden,main MKT,new delhi","0","0","Rajouri Garden/ Ramesh Nagar/ Kirti Nagar/ Narayana/ Inderpuri","0000-00-00","0","","Mandeep singh","9810474664","Mandeep singh","9810474664",
"654","Toy Shoppee","","kirangilda@gmail.com","Aditya complex, shop no. 5, kapad bazaar, jai bharat NAIA, panvel.","0","0","Vashi","1978-11-17","300","","Kiran Shah","9892860286","kiran Shah","9892860286",
"655","Toy Stories .","02228936409","toystories.shailaja@gmail.com","Shop no. 4, Rosemar, holy cross road, I.c. colony, borivali (w), Mumbai.","0","0","Borivali - East & West","0000-00-00","150","","Mrs. Shailaja.","9769025302","Mrs. Shailaja","",
"656","S S 5","27467256","kamleshshah.ss5@gmail.com","Shiva complex, shop No. 3,4,12, sector 19, new panvel.","0","0","Vashi","2014-10-27","500","","kamlesh Shah","9821465875","Kamlesh Shah","9821465875",
"657","Pink Collection.","02228480044","","Shop no. 2, dharam palace, shantivan, nr. National park, borivali (e), Mumbai.","19.2341216","72.8644166","Borivali - East & West","0000-00-00","250","","Mr. Narayan patel.","9820929438","Mr. Narayan","",
"658","Mohan novelties","011-25998069","gifttoday1@gmail.com","114,central MKT,tilak Hagar,new delhi","0","0","Dwarka / Janakpuri/ Vikaspuri/ Jwalahedi/ Punjabi Baug/ Paschim Vihar / Tilak Nagar","0000-00-00","0","","Sushil verma","011-25997950","sushil verma","011-25997950",
"659","The Toy Shop","9811231717","thetoyshop2011@gmail.com","184,Punjabi Bagh(west),new delhi","0","0","Dwarka / Janakpuri/ Vikaspuri/ Jwalahedi/ Punjabi Baug/ Paschim Vihar / Tilak Nagar","0000-00-00","0","","Gurjeet singh","9811231717","Gurjeet singh","9811231717",
"660","Amanveer ji sports and toys","011-25991652","","G-3,Mukhram garden,Chowkhandi chowk,tilak Ngr,new delhi","0","0","Dwarka / Janakpuri/ Vikaspuri/ Jwalahedi/ Punjabi Baug/ Paschim Vihar / Tilak Nagar","0000-00-00","0","","Bobby","9854437329","Bobby","9854437329",
"661","Dass book depot","011-42137473","","22,mall road,tilak Ngr,new delhi","0","0","Dwarka / Janakpuri/ Vikaspuri/ Jwalahedi/ Punjabi Baug/ Paschim Vihar / Tilak Nagar","0000-00-00","0","","shiv arora","9211771808","shiv arora","9211771808",
"662","Good luck toys and sports","011-25534199","","Mg 119,shop No 3,main MKT,near p v r vikas puri,new delhi","0","0","Dwarka / Janakpuri/ Vikaspuri/ Jwalahedi/ Punjabi Baug/ Paschim Vihar / Tilak Nagar","0000-00-00","0","","dont no","011-25834199","dont no","011-25834199",
"663","anmol gift & stationery","26855301","","Green acres , shop No. 4. Salunke Bihar Road, pune","0","0","WANAWADI","0000-00-00","300","","sohanlal","9665066305","sohanlal  prajapati","9665066305",
"664","krishna novelty","64001800","","Hevan Arced, shop No. 2 wanwadi pune","18.4821416","73.8989183","WANAWADI","0000-00-00","300","","G.K. parihar","9673376534","G. K. parihar","9673376534",
"665","arpan stationers","26853631","","Picasso kedari, shop, no.3   salunke Bihar Rd pune","0","0","WANAWADI","0000-00-00","300","","bhimaram","9890998874","bhimaram prajapati","9860185013",
"666","The Beginning","26841399","","9-community centre new friends fly new delhi","0","0","Lajpat Nagar/ Vasant Vihar/ New Friends Colony/ Khan Market/ Defense colony/ Mulchand","0000-00-00","300","","Mr.Vikash","9811021940","..............","...............",
"667","shivam novelty","996022024","","Building no A shop no. 1 NIBM road, kondhwa Kh pune","0","0","WANAWADI","0000-00-00","250","","rajesh parihar","9960226024","rajesh parihar","9960226024",
"668","ALFA.","02226704344","","Ayub khan compound, behind riyaz house, irla society road, vile Parle (w), Mumbai.","0","0","Vileparle - East & West","0000-00-00","0","","","","Mr. Farooq.","",
"669","poona stationery &toys","9545017175","","Shop no. 3, ambavatika, NIBM road, kondhwa pune","0","0","WANAWADI","0000-00-00","300","","rupesh","9545017175","rupesh choudhary","9545017175",
"670","Kwality Emporium .","02226112328","","36, m.G. road, naik bldg, vile parle (e), Mumbai.","0","0","VILE PARLE EAST","0000-00-00","350","","Mr. Mahendra shah.","","Mr. Mahendra bhai.","",
"671","Lovely","","","Stadium market nagong Assam","26.3525603","92.6816549","Shillong - City","0000-00-00","0","","Ranjit Das","9435722948","","",
"672","ranakpur novelties","26934802","","Ashirwad bldg, shop no.6 kondhwa Pune","0","0","KONDHWA","0000-00-00","200","","K.M. choudhary","9890041315","K. M. choudhary","9890041315",
"673","sai stationery","9422509493","sai13amol@gmail.com","Saistationers c1/9 Bramha estate kondhwa","0","0","KONDHWA","2014-10-28","200","","amol joshi","9422509493","amol joshi","9422509493",
"674","M j Asia trading co (home buzz)","42129047","homebuzz@gmail.com","170/2, hormavu main road, kalyan nagar, bangalore","0","0","Kammanahalli/ Banaswadi/ Hennur/ Ram Murthy Hagar","0000-00-00","2000","","mukesh patel","9448495058","nagaraj","9535008041",
"675","FRIENDS STETIONERS","26919268","","11,Bharat nagar new friends fly new delhi","0","0","Lajpat Nagar/ Vasant Vihar/ New Friends Colony/ Khan Market/ Defense colony/ Mulchand","0000-00-00","600","","Mr.Sahab singh","9871453363","..........","...........",
"676","Prime Collections","66316999","","Shop No.4&5,79B, Sapthagiri Enclave,West Marredpally.Sec-bad,","0","0","ECIL / Tarnaka / A S Raonagar / Karkhana","0000-00-00","1000","","Siddharth Kankaria","9849014205","siddharth Kankaria","9849041205",
"677","readers paradise","4075789","readers.paradise@yahoo.com","Lg-45, Apollo square, 72 race courser Road indore","0","0","Indore - City","0000-00-00","600","","iqbal Hussain","9893022052","iqbal Hussain","9893022052",
"678","flora gifts & decor","4077562","","8, ikdc building, 22, old palasia Indore.","0","0","Indore - City","0000-00-00","600","","muslim malak","9893552786","muslim malak","9893552786",
"679","Quality stationary & gift house","4043013","","Shop no 5 amar angan basant Bihar indore","0","0","Indore - City","0000-00-00","700","","c.s.nayyar","9425901196","c.s.nayyar","9425901196",
"680","Modern retail","4202525","nikhil@modernretailonline.com","Ug-1 princess residency plaza plot no 5 pu-4 sch no 54 indore","0","0","Indore - City","0000-00-00","600","","rajesh chandani","9302533706","rajesh","9302533706",
"681","lucky","9826291944","","381-a, mahalaxmi Hagar main road indore","0","0","Indore - City","0000-00-00","500","","sandeep","9826291944","sandeep","9826291944",
"682","junior junction","4246182","tradetoday@live.com","Lg-2 darshan mall 152,race course road indore","0","0","Indore - City","0000-00-00","800","","amit","9303305959","amit","9303305959",
"683","mehak toys","9826759393","","Ug-11-12-13, Apollo square, 72 race course road indore","0","0","Indore - City","0000-00-00","700","","ravi","9826721344","ravi","9826721344",
"684","toy hut","3013500","toyhut@rediffmail.com","Lg 27-28-29 bansi trade center m g road indore","0","0","Indore - City","0000-00-00","2000","","manu bhai","9302556500","manu bhai","9302556500",
"685","Rhythm toys","9752411125","","Shop no 7 shehnai residency 2 Bengali chauraha","0","0","Indore - City","0000-00-00","600","","vishal","9752411125","vishal","9752411125",
"686","toy home","-------","","t I mall m g road indore","0","0","Indore - City","0000-00-00","600","","imran","9827003132","imran","9827003132",
"687","Riddhi stationary & gift shope","5074577","","G - 3 ,6 AF, scheme no 54, vijay Hagar indore","0","0","Indore - City","0000-00-00","400","","manish","8109421710","manish","8109421710",
"688","Sonal Sales Corporation.","65007273","","Shop No.8&9.St.No. 72. B-1.Meadows, Green Valley. Wanawadi. Pune.","0","0","WANAWADI","0000-00-00","550","","Waljibhai.","","Ratan Gadvi","9657676718",
"689","Choice Novelty","","","Parmar Park, Shop.No.16. Wanowrie, Line.","0","0","WANAWADI","0000-00-00","0","","","","Chaganlal Chowdhari.","9923382339",
"690","Palak Gift & Stationery .","020-26803019","","Shop No.11,Secret Heart Town, Wanwadi,Pune.","0","0","WANAWADI","0000-00-00","0","","","9022042753","Vinay & Madanlal","9595013554",
"691","mayur enterprises","26835434","","Shop no. 2 brahama estet , kondhwa road, pune","0","0","KONDHWA","0000-00-00","300","","shankar uttarwar","9850064267","shankar uttarwar","9850064267",
"692","QUality","4224338","quality.bhopal@gmail.com","24, new market t t Hagar bhopal","0","0","Bhopal - City","0000-00-00","800","","prabhakar","9826246542","prabhakar","9826246542",
"693","greet N gift","40054490","","Shop no 5 rahul residency salunke Bihar pune","0","0","WANAWADI","0000-00-00","350","","birju pardeshi","9881788504","birju pardeshi","9881788504",
"694","K.B,Store","","","Ganeshgori g s Road near B,k tower. Guwahati","26.1505915","91.7847034","Guwhati - City","0000-00-00","0","","bidhan","9435194498","","",
"695","kids to mom","01294008840","","Sec 15 main mrkt faridabad","28.3953835","77.3231407","Faridabad - City","0000-00-00","600","","","","Mr sanjay gupta","09911200158",
"696","Santu","","","Last gate guwahati","26.1390289","91.7910816","Guwhati - City","0000-00-00","0","","Anil","8752830483","","",
"697","fantasy the gift world","01292297699","","Sec 15 market  shop no 57","28.3950986","77.323224","Faridabad - City","0000-00-00","700","","","","Mr sunder","01292297699",
"698","prince super market","","","Subway baltali guwahati","26.1340471","91.7928531","Guwhati - City","0000-00-00","0","","panub g","9435116686","","",
"699","super toys world","2424278","","Opp chhappan bhog inside classic hotel 10 no stop Area colony bhopal","0","0","Bhopal - City","0000-00-00","800","","arjun","9301750059","shakil","9301750059",
"700","bharat varites","26832263","","7, kubera colony, NIBM road, kondhwa pune","18.4779233","73.894905","KONDHWA","0000-00-00","200","image80.jpg","N.D. choudhary","9890081472","N.D. choudhary","9890081472",
"701","3 D kids word","","","Arya samaj road NIT faridabad","28.3886224","77.3010613","Faridabad - City","0000-00-00","300","","","","Mr amit","8860533416",
"702","royal stationers & gifts","26834783","","Sarvodaya society shop no 2 NIBM road kondhwa pune","0","0","KONDHWA","0000-00-00","350","image81.jpg","B.H. choudhary","26805260","B. H. choudhary","26837483",
"703","Guruji toys","","","C 22/ b Nehru ground arya samaj road NIT","28.3886748","77.3010699","Faridabad - City","0000-00-00","400","","","","Mr rahul","09899888326",
"704","khatri enterprises","","","Arya samaj road NIT","28.388337","77.3020145","Faridabad - City","0000-00-00","1000","","","","Mr vinay","09899005500",
"705","narula retail","","","Arya samaj road NIT","28.3883499","77.3020258","Faridabad - City","0000-00-00","800","","","","Mr anish","08800565117",
"706","just kiddies","","","Second floor crown plaza sec 15 a","28.3978703","77.3127073","Faridabad - City","0000-00-00","350","","","","mr mahesh","01294014844",
"707","Alisha gift house","","","Main market old faridabad","28.5664955","77.2851129","Faridabad - City","0000-00-00","100","","","","Mr Rakesh","09891043500",
"708","maan","---------","","E-427, shop no 3 area colony bhopal","0","0","Bhopal - City","0000-00-00","400","","uncle ji","8889199901","ravi","8889199901",
"709","toys & toys","------","","Shop no 2 near Hakeem hotel new market t t Hagar bhopal","0","0","Bhopal - City","0000-00-00","400","","sanjay","9893416129","inder","9893242942",
"710","rim jhim","------","","550, opp s b I new market bhopal","0","0","Bhopal - City","0000-00-00","300","image83.jpg","sanjay","-----","sanjay","--------",
"711","abhinandan/archies","6644004","abhinandan@yahoo.co.in","Shop no 45 e-348 ,bus stop no 10 area colony Bhopal","0","0","Bhopal - City","0000-00-00","800","image84.jpg","ravi","------","ravi","-------",
"712","rhythm toys","4007227","","Shop no 3 , green city mall e-8 area colony","0","0","Bhopal - City","0000-00-00","800","","----_","-------","-------","-------",
"713","jeen sales corporation","26831312","","Shop, no. 12 / C1, bramha estate, kondhwa khurd pune","0","0","KONDHWA","0000-00-00","200","image85.jpg","nitin khandelwal","9422322310","nitin khandelwal","9422322310",
"714","Girdharilall","2518470","","A.1kuber. A.c market 161 hem baruar road fancy bazar guwahati","26.1817107","91.7423707","Guwhati - City","0000-00-00","0","","vijay kumar","9864058080","","",
"715","Banwarilal pradip kumar","2637379","","Bajrang mansion shop no,A,1 A,C,market h,b,road fancy bazar guwahati","26.1817107","91.7423707","Guwhati - City","0000-00-00","0","","vivek poddar","9864293950","","",
"716","heart beat","2663357826633578","","Shop no, 2 plot no,87, viman prestige viman Hagar, pune","18.5659333","73.9139866","VIMAN NAGAR / KHARADI","0000-00-00","300","image86.jpg","gita sapra","9890587844","gita sapra","9890587844",
"717","vaishnavi toys & gift","9923944167","","Shop no,3 prasun Corner, viman Hagar, ganpati chowk pune","0","0","VIMAN NAGAR / KHARADI","0000-00-00","200","image87.jpg","swapnil thakre","9923944167","bharat","9028735193",
"718","vaishali stationery & gift","9765274842","","Shop no,9 prasun corner, ganpati chowk, vimannagar, pune","0","0","VIMAN NAGAR / KHARADI","0000-00-00","200","image88.jpg","v, k, Gehlot","9765274842","vimal kumar   Gehlot","9819049670",
"719","Need book Depo","011204259799","","B1/5 central market noida","28.5709211","77.3618402","NOIDA - 62, 50, 41, 81, 90","0000-00-00","250","","","","Mr manesh gupta","8588852891",
"720","vaibhav statioery  & Gifr","9049571281","","Shop no, 3 konark arcade near data mandir , chowk, viman Hagar pune","0","0","VIMAN NAGAR / KHARADI","0000-00-00","250","image89.jpg","V.K. Gehlot","9765274842","P. K. Gehlot","9049571281",
"721","popular stationery","9022768410","","Konark arcade,shop no,6vimannagar, pune","0","0","VIMAN NAGAR / KHARADI","0000-00-00","200","image90.jpg","raju choudhary","9022768410","Raju choudhary","9022768410",
"722","mahadev stationery & varietis","65006171","","Neck Garden shop no, 1 vimannagar pune","18.5622716","73.9140583","VIMAN NAGAR / KHARADI","0000-00-00","250","image91.jpg","Ravaram Devasi","9561055114","Ravaram Devasi","9561055114",
"723","sliver spoon","41328563","","17, p&T colony, 10th main Road,  rt nagar, bangalore","0","0","Sahakarnaga/ Thindlu/ Vidyaranyapura/ Amruthahalli/ R.T.Nagar","0000-00-00","2000","","lalith jain","9341230326","ram","9341230326",
"724","emotion the gift shop","","","Shop no pg 1 c block market sec 62 noida","28.6143333","77.3714976","NOIDA - 62, 50, 41, 81, 90","0000-00-00","150","","","","Mr deepak arora","09818433171",
"725","vinayak stationery & Gift","9764789106","","Shop no,8 Rakshak Hagar, phase 1, shopping complex kharadi pune","0","0","VIMAN NAGAR / KHARADI","0000-00-00","300","image92.jpg","mahipal sinha Gahalot","8551012551","suresh parmar","9764789106",
"726","sparkels","","","Shop no 8 b block market sec 62","28.619997","77.3700458","NOIDA - 62, 50, 41, 81, 90","0000-00-00","150","","","","Mr sandeep","09818437059",
"727","kooltoyz.rtngr","41492315","anishkumarsingh@gmail.com","65, p&t colony, 2nd cross, near Florence public school, r t nagar, bangalore","0","0","Sahakarnaga/ Thindlu/ Vidyaranyapura/ Amruthahalli/ R.T.Nagar","0000-00-00","1800","","anish kumar singh","9343024634","raju","9902697552",
"728","mango stationery & Gift","9076202000","","Shop no,B-3 &   12, town squad shopping center viman Hagar pune","0","0","VIMAN NAGAR / KHARADI","0000-00-00","250","image94.jpg","Dinesh choudhary","9076202000","Dinesh choudhary","9076202000",
"729","Raaj book poit","","","10 day an and vihar main vikas Mary ext delhi","28.6473952","77.3026054","East Delhi","0000-00-00","400","","","","Mr vk gupta","09312249887",
"730","Axis books","40383838","vinay@axisbooks.in","330/9, inner ring road, domlur flyover,domlur, bangalore","0","0","Indranagar / Thippsandra / Commercial St.","0000-00-00","300","","vinay c kalro","9945084629","usha","9945084629",
"731","Priority Gift & Stationery.","02228362981","priority.stationery@yahoo.com","Shop no. 5, badebhai morya chawl, opp. Takshila Bldg 5, mahakali caves road, andheri (e), Mumbai.","0","0","Andheri East","0000-00-00","0","","Mr. Meghji Ravaria .","","Mr. Vishan .","9819524856",
"732","HONY TOY MALL","................","","2, 1820A/9, govind puri extension kalka ji new delhi","0","0","Amar Colony/ G K - 1/ G K - 2/ Kalkaji/ Govindpuri/ Alaknanda","1974-01-04","600","image96.jpg","Mr.Abdul Qasim","9310770449","Mr.sourav gupta","9818225706",
"733","mona gift","2469178","","Vikas rekha complex indore","0","0","Indore - City","0000-00-00","400","","azim","9425905850","azim","9425905850",
"734","hadiqat gift collection","--------","","Vikas rekha complex","0","0","Indore - City","0000-00-00","500","","-----","-------","-------","-------",
"735","shri nakoda","--------","","13, bank colony Annapurna road indore","0","0","Indore - City","0000-00-00","400","","anup","9826763370","anup","9826763370",
"736","kohinoor gift center","------","","31 sapna sangeeta road shaheed bhagar Singh colony near food bazaar indore","0","0","Indore - City","0000-00-00","400","","shahid","9893652236","shahid","9893652236",
"737","modern fancy store","2559780","","26, shanti Hagar shri Hagar indore","0","0","Indore - City","0000-00-00","500","","mohit","9826051031","mohit","9826051031",
"738","toys centre","2547931","toyscentre@rediffmail.com","132-133, shivaji market  indore","0","0","Indore - City","0000-00-00","0","","p  k jain","9301822227","p k jain","9301822227",
"739","utsav","4059940","","86, Mishra Hagar Annapurna road indore","0","0","Indore - City","0000-00-00","0","","nitin","9893405978","nitin","9893405978",
"740","unique store","-------","","Shop no 12, 22 old palasia I k building  opp greater kailash nursing Home indore","0","0","Indore - City","0000-00-00","0","","balu bhai","9893022432","balu bhai","9893022432",
"741","prince stationery","2633495","","Shop no, 2 tulip neck Garden , vimannagar pune","0","0","VIMAN NAGAR / KHARADI","0000-00-00","300","image97.jpg","suresh parmar","9764789106","vinod parmar","9765418946",
"742","Arpan Collection.","26682825","","Shop No.8/9, Gera Landmark, Kalyani Hagar.","0","0","KALYANI NAGAR","0000-00-00","1500","image98.jpg","Ketan Furia.","","Ketan Furia.","9890820242",
"743","Best baby","4370461","bestbabycbe@gmail.com","105,ramachandera road, rs puram coimbatore","0","0","Coimbatore City","2014-10-31","400","","Kanagavel","900376990","pink","900376990",
"744","Amars  Kids Colection","9922034877","","Shop no,26 khadki bushes center pune","0","0","VISHRANTWADI / KHADKI","0000-00-00","350","image99.jpg","Amar wadhawa","9922034877","Amar wadhawa","9922034877",
"745","Benchmark","4213637","chooseglobal@gmail.com","507, 1st floor, arvind tower d.b. road, rs puram coimbator","0","0","Coimbatore City","0000-00-00","400","","Bala murugan","9443733636","bala murugan","9443733636",
"747","Janata Store","24468868","","10,  hair niwas, l. J. Road, shivaji park, radar(west), Mumbai","0","0","DADAR WEST","1982-08-28","160","","Bhadresh Gala","9920488928","Bhadresh Gala","9920488928",
"748","Ronak  Variety.","020-26600465","","Shop No. 134, Victoria 1, Fortaleza, Kalyani  Hagar, Pune.","0","0","KALYANI NAGAR","0000-00-00","800","","Mr.  Sharma.","","Omprakash  B. Sharma.","9922221083",
"749","childs playy","4399111","childsplayy@yahoo.com","189, thiruvenkata swampy road (west) rs puram coimbatore","0","0","Coimbatore City","0000-00-00","500","","sriman narayanan","9944119977","sriman narayanan","9944119977",
"750","Cute Point","65219159","","Mad av ashram, 138, l. J. Road, near vijay sales, Mahim(west), Mumbai.","0","0","DADAR WEST","1982-12-07","300","","Bharat Savla","9821038983","Bharat Savla","9821038983",
"751","Choice Gift Paradise","9960026190","","Shop no,12/13, Celestino Gol Building Beside Canada bank, lohegaon road, dhanori, pune","0","0","VISHRANTWADI / KHADKI","0000-00-00","1000","","Ramnarayan choudhary","9960026190","Ramnarayan choudhary","9960026190",
"752","Alfa Square","24309381","alfasquare@gmail.com","Shop no. 11&12, Samrat a, opp. Victoria church, l. J. Road, mahim, Mumbai.","0","0","DADAR WEST","2014-10-31","500","","Nitin Gala","9892972070","Nitin Gala","9892972070",
"753","Toon kidz","42822200","","Thanish inc, sri saager plaza, 49d, t.v.swampy road (w) rs puram, coimbatore","0","0","Coimbatore City","0000-00-00","250","","vinod bhandari","9786555555","viod bhandari","9786555555",
"754","Millenium","020-40047342","","Shop No. 3, Building  B-2, Silver Oak, NearBank of Maharashtra, Kalyani Hagar.","0","0","KALYANI NAGAR","0000-00-00","350","","","9850123791","Rakesh  J. Parmar.","9850123791",
"755","Dhanlaxmi  varities","9860510555","","A_4Bulding shop no,1siddheshwar nagarTingre Nagar road, near Sai petrol pump pune","0","0","VISHRANTWADI / KHADKI","0000-00-00","300","","S. B. choudhary","7709606342","sampat sirvi","7709606342",
"756","kids corner","","kidscrnr13@gmail.com","25/1, rankacorner, yeashwanthpur main road, go kula 1st stage, 2nd phase, bangalore","0","0","Malleshwaram/ Mathikeri/ Bel Road/ Sanjaynagar","0000-00-00","1500","","prakash","9845084044","kalpana","9845084044",
"757","New vinod variety","9028222916","","Shop no, 12, navrang plaza vishrantwadi, pune","0","0","VISHRANTWADI / KHADKI","0000-00-00","250","","vinod kumawat","9028222916","vinod  kumawat","9028222916",
"758","born babies","4366455","bbindiacbe@gmail.com","69, TV samy road (east) rs puram, Coimbatore","0","0","Coimbatore City","0000-00-00","400","","kanagaraj","9626260444","kanagaraj","9626260444",
"759","Shivam variety","65708030","","Shop no,7, ram society bld. No.21 near Pune RTO yerwada pune","0","0","VISHRANTWADI / KHADKI","0000-00-00","200","","Ashok Devashi","9970708030","Mohan Devashi","8308692336",
"760","krysral gift galleria","23510707","krystalgift@gmail.com","12, Bavaria complex, new bell road, Bangalore.","0","0","Malleshwaram/ Mathikeri/ Bel Road/ Sanjaynagar","0000-00-00","500","","bharath","9916967509","bharat","9916967509",
"761","super selection","011-27050124","","A-1/51 sec 6 rohini delhi","0","0","Rohini/ Prashant vihar","2014-10-31","0","","varun gupta","9899928237","vijay mishra","9953878737",
"762","jus born & kids","2542949","jusbon2009@rediffmail.com","197, TV samy road ( w) , rs puram, Coimbatore","0","0","Coimbatore City","0000-00-00","300","","Gerish","9843367452","gerish","9843367452",
"763","seasons","23605527","vishal.kumar667@gmail.com","218, as my plaza, me so r nagar, off bel road, bangalore","0","0","Malleshwaram/ Mathikeri/ Bel Road/ Sanjaynagar","0000-00-00","1800","","vishal kumar","9845227580","vishal kumar","9845227580",
"764","Odyssey prism","2255199","selvaraj.david@gmail.com","67-71, krishnaswamy road, Coimbatore","0","0","Coimbatore City","0000-00-00","500","","Aswin","","prabhu","9176311919",
"765","C.  H.  SOLANKI .","020-26650142","","Shop No. 108, Fortaleza. Vitoria  Building,  Kalyani  Nagar. Pune.","0","0","KALYANI NAGAR","0000-00-00","0","","","","","",
"766","Mainline.","020-26650142","","Shop No. 108, Fortaleza. VItoria Building, Kalyani  Ã±agar, Pune.","0","0","KALYANI NAGAR","0000-00-00","0","","Mr. Solanki","","Solanki.","020-26608832",
"767","JHULELAL","2551004","","B-32,basant Babar colony Gopal pura mod,Toni r.d jaipur","0","0","Jaipur - 1","1970-03-09","2000","","Mr. Dilip kumar khuslana","8385056777","..........","...........",
"768","MAAHERA","4023374","sanjayjohri@maahera.com","Sf-23-24, 2nd floor mgf metropolition mall, 22, godam circle, jaipur","0","0","Jaipur - 1","0000-00-00","1000","","Mr. Sanjay Maahera","8750128289","..........",".........",
"769","SINGHAL TREDERS","...........","info@singhaltraders.com","S-3A kabir Mary, bani park jaipur","0","0","Jaipur - 1","2014-10-31","700","","Mr.Manoj Singhal","9982958238","............","...........",
"770","dream land","23191078","dreamlandinblr@yahoo.com","172/7, 12th cross, mahalakshmi layout, Bangalore.","0","0","Vijayanagar/ Chandra Layout/ Basaveshwarnagar/ Nagarbhavi/","0000-00-00","1500","","sameer","9945336386","junaid","9945336386",
"771","baby mart (basa ngr)","23409786","thebabyshop1@gmail.com","72/73, 80 feet road, havanoor circle, basaveshwaranagar, Bangalore.","0","0","Vijayanagar/ Chandra Layout/ Basaveshwarnagar/ Nagarbhavi/","0000-00-00","1500","","ashiq","8892038011","mohammed","8892038011",
"772","Ambika Toys & More","24452934","","471, narayan Perth, near lokhande talim","0","0","CITY","0000-00-00","2000","","Rahul  cheda","9325334338","Rahul","9325334338",
"773","Toy station","30224751","","Laxmi road, kunte chowk, Pune","0","0","CITY","0000-00-00","200","","sachin kulkarni","9371179101","sachin kulkarni","9371179101",
"774","Sanika Gaems & Toys","24468957","","492/A Narayan path near patrya maruti, nagarkar Wada,Pune","0","0","CITY","0000-00-00","300","","Varsha Balkawade","9420168957","Varsha Balkawade","9420168957",
"775","Planet G","27706092","","6&7, bhakti avenue, plot no. 3B, sec-46 A, Opp. HP petrol pump, sea wood(w), nerul, navi Mumbai.","19.0068483","73.0164333","Vashi","2014-11-01","500","","Pratik","9892624434","Pratik","9892624434",
"776","Nice Collection","27729998","","Plot no. 3C, shop no. 11-12, Balaji complex, sec-46A, nor HP petrol pump, nerul(w), navi mumbai","19.0068483","73.0164333","Vashi","1981-05-28","500","","Satish","9819952933","Satish","9324323209",
"777","platinum","23233003","retail@pktradingco.com","468, next to hotel shanthi sugar, 3rd block, 3rd stage, basaveshwarnagar, Bangalore.","0","0","Vijayanagar/ Chandra Layout/ Basaveshwarnagar/ Nagarbhavi/","0000-00-00","1500","","ram","8861978487","suresh","8861978487",
"778","Daulat Novelty","24481647","","82,budhwar peth , pune","0","0","CITY","0000-00-00","300","","Nilkanth jamdar","9422167923","Nilkanth","9422167923",
"779","Poona Toys","8087875600","","Raviwar path pune","0","0","CITY","0000-00-00","200","","Prakash Bhai","9371047989","Prakash Bhai","9371047989",
"780","Ramesh Book Depo","27718588","rameshpatel1090@gmail.com","Shop no. 1, shreeji milap, plot no. 52,  sec -40, sea wood Fly stn road, Nerul, navi mumbai","19.0118383","73.014725","Seawoods","1987-04-03","700","","Ramesh","9821959089","Ghansham","8655581242",
"781","Champion","","championstore2@gmail.com","8, sadguru palaza, plot no. 50, sec -40, sea woods (w), nerul, navi Mumbai.","19.0118383","73.014725","Seawoods","1985-07-10","500","","satish","8108590520","Mhipal","8108980508",
"782","Nice Point","27700282","","F-2, Shop no.8/9, opp. Nerul railway station, sector- 15, nerul, navi mumbai","19.0342762","73.0200907","Neerul","2014-11-01","600","","premji","9821356801","Premji","9821356801",
"783","Shree Krishna Toys","","","Shop no. 7 Doctor house, plot no.101,sector - 21, Nerul, navi Mumbai.","19.0342762","73.0200907","Neerul","0000-00-00","200","","Shivji patel","9833700712","Shivji","9833700712",
"784","JOYBOX PVT. LTD.","","","Shop No.10,Level =2,Seasons Mall, Magarpatta  City, Hadapsar, pune.","0","0","WANAWADI","0000-00-00","2000","","Mr. Sharad  Gadsingh.","020-67230123","Manoj  &  Prashant.","91-020-25280123",
"785","xcelient toys & gift","--------","","G-21 din dayal bhavan opp Anand nagarpalika office station road an and.","0","0","Baroda - City","0000-00-00","500","","jayesh","9998475495","jayesh","9998475495",
"786","chandan general stores","253592","","Station road an and.","0","0","Baroda - City","0000-00-00","700","","chandan","------","-------","-----",
"787","s n toyworld","-----","sureshpatel229@yahoo.com","G -1 harsh complex  near a p c opp motikaka challi v v Hagar road anand","0","0","Baroda - City","0000-00-00","600","","suresh","8128115675","suresh","8128115675",
"788","national mega mart","252740","nationalmegamart@gmail.com","Krishna road nrlaxmi cinema anand","0","0","Baroda - City","0000-00-00","800","","dipesh","9825323862","vimal","9825510855",
"789","teens temptation","------","","G 4 r k complex opp home science college mota bazar vallah vidyanagar anand","0","0","Baroda - City","0000-00-00","400","","ekta shah","7600033430","ekta","7600033430",
"790","Step In Collection","27704274","","Plot no. 1, sector -17, shop no. 8/9, twins corner, nerul, navi Mumbai.","19.0342762","73.0200907","Neerul","0000-00-00","1000","","Pradip","9820782739","Ramsing","9819539853",
"791","dhyanis collection/ first cry store","2523177","anand@firstcry.com","104, maruti sound nr Indian oil petrol pump anand","0","0","Baroda - City","0000-00-00","600","","ashutosh","9924933177","ashutosh","9924933177",
"792","G Darshan","245976","","G -18 prathna Bihar complex near panchal hall vidhyanagar road anand","0","0","Baroda - City","0000-00-00","700","","ram","9979978918","ram","9979978918",
"793","Maahi","27709364","","Shop no. 1&2, gahlot Plaza, plot no. 21/by, opp. Ayyappa temple, sector -11, nerul , navi Mumbai","0","0","Neerul","0000-00-00","300","","Suresh","9819664122","Suresh","9819664122",
"794","mehta gift & toys","27680037","","Party avenue nr naranpura Rly crossing naranpura ahmedabad","0","0","Naranpura","0000-00-00","500","","mehta","9714499122","mehta","9714499122",
"795","Vasantkumar co.","40651126","mehta.pintu@gmail.com","13/D, Palit Street, near Richie park kolkata","22.526552","88.3528913","Desopiyo Park/ Elgin Road/ Bhavanipur/ Exit/ Maidan","0000-00-00","0","","pintu","9831281924","","",
"796","my baby store","41214934","mybaby@aol.in","687, 15th cross, 100ft ring road, j.p nagar 2nd phase, bangalore","0","0","Jai Nagar/ J P Nagar/ Basangudi","0000-00-00","1500","","mazar","9900024206","sadiq pasha","9731163469",
"797","variety centre- mugappair","42639990","","C-2 block valayapathi Salai, j.j nagar mughapair chennai","0","0","ANNANAGAR / SALIGRAMAM/ MUGAPPAIR/ VANAGARAM/ VADAPALANI/ K K NAGER/ T NAGAR / WEST MAMBALAM","0000-00-00","400","","Reyas","7373625000","Chelladurai","",
"798","Brut Gift Shoppe","27810234","jitu.rajput1@gmail.com","Shop no. 6, real tech park, near in orbit mall,sector-30/a, vashi fly. Station, navi Mumbai.","19.0671507","72.9990274","Vashi","1987-09-17","400","","Jitu Bhai","9819309310","Jitu Bhai","9819309310",
"799","The Legend","02227652277","thelegend1508@gmail.com","Shop 3-8,Mansaroav Bldg.,Abhyudaya Bank Road, Plot No.14,Sector 17,Vashi, Navi Mumbai.","19.0701304","72.9992687","Vashi","2014-08-15","6000","","Manva","9892564955","Jigar","9930886622",
"800","Maru Collection","27891367","marucollectionvk@gmail.com","11&12, gagangiri, sector - 17, abhyudaya bank Mary, vashi, navi Mumbai.","19.0715355","73.0013476","Vashi","1992-10-23","400","","Ishwar","9167643541","Ishwar","9167643541",
"801","Gift Gallery","27657974","rameshrajput722@gmail.com","Chadda crescent, shop no. 7/57/58, sector 17, vashi, navi Mumbai.","19.0715355","73.0013476","Vashi","1993-06-01","5000","","prakash Bhai","9819674156","Ramesh Bhai","8898945578",
"802","Gift Collection","27653951","","19, big splash, sector 17, vashi, navi Mumbai.","19.0716966","73.0001099","Vashi","0000-00-00","300","","Patel","9820990465","Patel","9820990465",
"803","Capri zigma","01126137652","","A 6 central market vasant kunj","28.5664907","77.2850976","South Delhi (Badarpur)","0000-00-00","400","","","","Mr simran deep","9910565578",
"804","snowbell","01141400521","","Masood pur road vasant kunj","28.5665046","77.2850911","South Delhi (Badarpur)","0000-00-00","150","","","","Mr ramakant","09718889814",
"805","jingle bell","0112623232","","C 7masood pur market vasant kunj","28.5664691","77.2850756","South Delhi (Badarpur)","0000-00-00","300","","","","Mrs savita","0112613233",
"806","just toy land","09818800518","","A 86 masood pur vasnt kunj","28.5664633","77.2850934","South Delhi (Badarpur)","0000-00-00","250","","","","Mr tinku","9818800518",
"807","sports and gifts","","","Shop no1718 central market malviya nagar","28.5665167","77.2851016","South Delhi (Badarpur)","0000-00-00","100","","","","Mr monu","09810947777",
"808","Anand Gift","","","Shop no 10 J block market saket","28.5664716","77.2850624","South Delhi (Badarpur)","0000-00-00","150","","","","Mr rajeev","01141765623",
"809","RANAWAT  ENTERPRISES.","26347858","","416. R.  S.  Kedari  Road,  Camp,  Pune.","0","0","M.G. ROAD (CAMP)","0000-00-00","800","","Shripal  Ranawat.","9371148708","Shripalbhai.","",
"810","Global baby & lingerie store","252441993","globalbabystore@gmail.com","30/a, 1st floor, opp church, kammanahalli, Bangalore.","0","0","Kammanahalli/ Banaswadi/ Hennur/ Ram Murthy Hagar","0000-00-00","2000","","hameed","9060733127","ashok","",
"811","Venus Traders","41006414","","Venus point, Lane opp.OBC Tower, F C Road, pune","18.5171233","73.841495","DECCAN GYMKHANA","0000-00-00","1500","","Pramod Sir","41006414","Satish","7276768381",
"812","shiva toys","","","J 2A ground floor lajpat nagar","28.5678395","77.2430679","South Delhi (Badarpur)","0000-00-00","300","","","","Mr sanjay","01129831541",
"813","Small","25662291","","759/76_5,   Deccan Gymkhana, pune","18.5172183","73.8414616","DECCAN GYMKHANA","0000-00-00","500","","Chetan Sir","25662292","Prasad","25662291",
"814","Pragati Book Center","24453536","","635, Budhwar Perth,opp, Balagi Temple, pune","0","0","CITY","0000-00-00","500","","Denesh Furiya","9657703141","Dipen","24453536",
"815","Rama book depo","","","61 central market lajpat nagar","28.5695542","77.2416054","South Delhi (Badarpur)","0000-00-00","150","","","","Sudhir malik","09810065145",
"816","khanna toys","01129839852","","79 central market lajpat nagar","28.5676141","77.2433223","South Delhi (Badarpur)","0000-00-00","100","","","","khanna sahab","01129839852",
"817","kids collection","","tsr7dcm@rediffmail.com","Shop no 7 defence colony market","28.5730539","77.2304744","South Delhi (Badarpur)","0000-00-00","400","","","","Mr amit","9810277404",
"818","teksons book","01124333509","teksons@tekson.com","16 defence colony","28.5728968","77.230592","South Delhi (Badarpur)","0000-00-00","300","","","","Mr","01124333509",
"819","sakshi stationery shop","-------","","25, palAk 2 complex ramdev Hagar road satellite ahmedabad","0","0","Satellite/ Jodpur","0000-00-00","500","","prashant","9898726139","prashant","9898726139",
"820","sports and gift","01124697963","","61 A khan market","28.6005585","77.227116","South Delhi (Badarpur)","0000-00-00","150","","","","Mr salil","9811034787",
"821","Gift palace","01124632640","","52 B khan market","28.6005925","77.2268172","South Delhi (Badarpur)","0000-00-00","300","","","","Rakesh Gupta","01124632640",
"822","jayanagar super bazaar","26632209","jsb81117@yahoo.co.in","43-60, jayanagar shopping complex, jayanagar, Bangalore.","0","0","Jai Nagar/ J P Nagar/ Basangudi","0000-00-00","1000","","D.M.Darshan","","darshan","",
"823","D. J. DABHOLKAR.","65216010","","265, Mahatma  Gandhi  Road, Pune.","0","0","M.G. ROAD (CAMP)","0000-00-00","600","","Mr. Uday  Dabholkar.","26342306","","",
"824","celebration gift house","","","H 4 B kalkaji market","28.5407671","77.2567643","South Delhi (Badarpur)","0000-00-00","150","","","","celeb madam","09871097820",
"825","mahajan gift house","","","G 16 A kalkaji market","28.5409051","77.2565668","South Delhi (Badarpur)","0000-00-00","300","","","","Mr vijay mahajan","9910546565",
"826","Lajawab","64008256","","Shop No, 2&3, Rammoorti Complex, 6 Aundh Road Pune","0","0","AUNDH","0000-00-00","300","","Sanjay Gambhir","64008256","Sanjay Gambhir","64008256",
"827","Intop Collection .","02226311982","nitin.intop1440@gmail.com","Shop.no. b-10/11, twinkle apt, lokhandwala, opp.kamats club, andheri  (w), Mumbai.","0","0","Andheri West","1972-09-28","200","","Mr. Nitin","9892562081","Mr. Nitin bhai.","",
"828","kidz land","01126431999","","G 31 main road kalka ji","28.540556","77.2578107","South Delhi (Badarpur)","0000-00-00","400","","","","shushil kumar","9810763255",
"829","Deepak Boutique & Varities Gift House","25881206","","Shop no, 6, Miyoshi park opp, bank of Maharashtra, sanghvi Hagar, aundh pune","0","0","AUNDH","0000-00-00","1500","","Lalit Bhati","9850133082","Raju Rajpurohit","8856006159",
"830","surjeet sports","01126424718","","G 18 a kalkaji market","28.5406584","77.2569809","South Delhi (Badarpur)","0000-00-00","350","","","","surjeet sing","9811417550",
"831","Five stars life styles","43042244","","129, east coast road, thiruvanmyur, chennai","0","0","ADYAR/ THIRUVANMYUR/ BESANT NAGER/ KOTTIVAKKAM/ OMR/ VELACHERY","0000-00-00","400","","A.A.Musthaq Ali","9841148855","Hyder","8056300722",
"832","Vividha Novelties & Stationery","25896966","","Ajay apartment, shop no, 1, sanghvi nagar , aundh, pune","0","0","AUNDH","0000-00-00","300","","L. P. sirvi","9822027531","J. m. sirvi","9822027531",
"833","marcles the toy store","01126222937","","E 15 main road kalkaji","28.5424825","77.2531815","South Delhi (Badarpur)","0000-00-00","200","","","","Mr ravi","09899774818",
"834","genius kids","23214221","","Be,34, sector 1, saltlake City kolkata","22.595948","88.4088769","South Lake/ Sector 5/ Technolpolis/ Karunamoi/ Rajahut","0000-00-00","0","","vikasish kumar singh","9831085642","debasish guha","9748554629",
"835","kundapura Enterprises","41724331","kundapura.e@gmail.com","1953, 9th cross, new thippasandra, bangalore","0","0","Indranagar / Thippsandra / Commercial St.","0000-00-00","1000","","chandrashekar","9900297179","sudheer","7760596444",
"836","LITTLE ANGELS","3224349","ltlangels@gmail.com","42, 43 gr. Floor,the sapphire MKT sec-49 gurgaon","0","0","Gurgaon - 1","0000-00-00","2000","","Mr.Rajiv Chawla","9899242548","Mr.Pratham","9717670198",
"837","Mayur  Novelties","25885020","","Shop no, 1 sneh Bihar, near telephone exchange d. P. Road, aundh, pune","0","0","AUNDH","0000-00-00","300","","B.k.choudhary","9011166078","B.k. choudhary","9011166078",
"838","Manish Novelty & stationery","9819275081","","Shop no, 4 Gaikwad villa, opp. Panjab national bank, aundh pune","0","0","AUNDH","0000-00-00","250","","Raju choudhary","9819275081","Raju","9819275081",
"839","Pushpak stationerys & Gift Articals","25888113","","Shop no, 2, Opp. Indian overseas bank, new D. P. Road, aundh","0","0","AUNDH","0000-00-00","300","","R. S. Choudhary","9890512115","R. S. Choudhary","9890512115",
"840","organe idea","40307140","info@theorangeidea.com","Gf/a1 Jupiter tower b/h the grand bhagwati bodakdev ahmedabad","0","0","Vastrapur/ S G Highway","0000-00-00","400","","darshit","8141877722","darshit","8141877722",
"841","ding dong","27491717","","24 zonal society opp raj plaza gurukul road ahmedabad","0","0","Vastrapur/ S G Highway","0000-00-00","900","","bhavik","9825527444","vinod","9825527444",
"842","shree vardyani gift","-------","","3, dev shrusti complex lad society road vastra pur","0","0","Vastrapur/ S G Highway","0000-00-00","300","","haresh","9898939593","haresh","9898939593",
"843","baby walker","01141004282","babywalker1975@gmail.com","23 M block marker GK","28.5665278","77.2852264","South Delhi (Badarpur)","0000-00-00","300","","","","Mr deepanshu","9999990347",
"844","Winner","","winner@yahoo.co.in","M 50 GK","28.5665886","77.2852252","South Delhi (Badarpur)","0000-00-00","250","","","","Mr manesh gupta","01141731585",
"845","toys land","26430715","","G/8 sanskar complex near petrol pump ambawadi","0","0","Satellite/ Jodpur","0000-00-00","400","","sufiyan","9825047867","sufiyan","9825047867",
"846","shree krishna selection","26565344","","2 sanskar complex ambawadi Road15","0","0","Satellite/ Jodpur","0000-00-00","300","","satamesh","-------","satamesh","-----+",
"847","Emerald","28520783","emeraldindia@gmail.com","Rayala towers"" shop #31, #781, Anna salai, ( near Tneb subway) Chennai","0","0","NUNGAMBAKKAM / EGMORE/ MOUNT ROAD/ GOPALAPURAM/ MYLAPOOR","0000-00-00","300","","jawher","9884596683","jawher","98845596683",
"848","royal gift mall","-------","","29/30 royal nawab avenue nr Moti bakery juhapura","0","0","Vastrapur/ S G Highway","0000-00-00","400","","abid","9067298672","hanif","9974346490",
"849","KINDERLAND","20-26123425","anup@kinderlandindia.com","656,Sachapir Street.Off .M. G .Road, Next  to  P.N. Gadgil  Jewelers. Pune.","18.50706","73.876775","M.G. ROAD (CAMP)","0000-00-00","5000","","Anup  Mutha.","9890348846","Rajesh  Nair.","7350011070",
"850","jaya emporium","2224226","jayaemporium@yahoo.com","#161, jawaharlal neru street, puduchery","0","0","Pondicherry City","0000-00-00","300","","S.Gobi","9786694268","S.Gobi","9786694268",
"851","jaya utopia","2226288","jayautopia@gmail.com","No:76, chetty street, pondichery","0","0","Pondicherry City","0000-00-00","300","","S.Gobi","9786694268","S.Gobi","9786694268",
"852","Spencers gift shoppee","2220051","","67, j.n.street, Pondicherry","0","0","Pondicherry City","0000-00-00","300","","C.sayad musthaffa","9443158778","C.sayad musthaffa","9443158778",
"853","sapna book house (p) ltd H O","40114455","purchasesb2@sapnaonline.com","3rd, main road, gandhinagar, Bangalore.","0","0","Malleshwaram/ Mathikeri/ Bel Road/ Sanjaynagar","0000-00-00","0","","pankaj shah","9341066656","","",
"854","sapna (gandhi)","40114455","customercare@sapnaonline.com","3rd main road, gandhinagar, Bangalore.","0","0","Malleshwaram/ Mathikeri/ Bel Road/ Sanjaynagar","0000-00-00","2000","","pankaj","","ramlinga gowda","9611232429",
"855","shah toys","--------","","5 paldi shopping center opp ankur school paldi ahmedabad","0","0","Paldi / Pankor Naka/ Maninagar","0000-00-00","400","","sanjay","9898548174","sanjay","9898548174",
"856","sky camy","------","","6 pa!di shopping center opp ankur school ahmedabad","0","0","Paldi / Pankor Naka/ Maninagar","0000-00-00","400","","manish","8905387563","hitesh","8905387563",
"857","parshwa toys","------+","","7 paldi shopping center opp ankur school paldi","0","0","Paldi / Pankor Naka/ Maninagar","0000-00-00","400","","jayesh","8866103988","jayesh","8866103988",
"858","Maskot","","","Shop


p no 35, Ground floor VIP market p,187, Cit Road ,Scheme VIM, kolkata","22.5767123","88.3905443","Shyam Bazaar/ Podiya Pukur/ Kakurgachi/ Lake Town/ Baguwadi","0000-00-00","0","","Goutam","9433138570","","",
"859","Kids Station","25620232","rkidsstation@gmail.com","Shop no. 59, Allan bldg., panch east a, opp. Man or an an sarees, p. K. Road, mulund(w), Mumbai.","0","0","Ghatkopar / Chembur / Mulund","0000-00-00","350","","Manish Dedhia","9833924324","Reena Dedhia","9820598797",
"860","TOY  WORLD.","26342022","","60 , M. G. Road. Camp. Pune.","0","0","M.G. ROAD (CAMP)","0000-00-00","0","","kureshbhai.","","Gaikwad.","",
"861","the toy lounge","-------","","Opp ankur school paldi","0","0","Paldi / Pankor Naka/ Maninagar","0000-00-00","400","","razin","9327020060","razin","9327020060",
"862","mallinath traders","26400062","","5 dev Aryan complex thakor cross road paldi","0","0","Paldi / Pankor Naka/ Maninagar","0000-00-00","300","","pragna","9427613470","pragna","9427613470",
"863","cherie","--------","","Shop 5 rahul tower near anandnagar satellite ahmedabad","0","0","Satellite/ Jodpur","0000-00-00","400","","parul","9825575782","parul","9825575782",
"864","Gurukrupa Toys","21631104","rudagami@gmail.com","Shop no.2, sahakar bldg., opp. Ruchi hotel, l. T. Road, mulund (e), mumbai.","0","0","Ghatkopar / Chembur / Mulund","1965-09-01","400","","Ramesh","9967783878","Bhikhu","9870901311",
"865","little champ","","","Shop no 1 ghanta ghar main GT road ghaziabad","28.5667081","77.2852244","Old Ghaziabad","0000-00-00","250","","Mr. sumit","09999977966","Mr sumit arora","9999977966",
"866","book word","","","gT Road sher sing palace 0ld ghaziabad","28.5667101","77.2852142","Old Ghaziabad","0000-00-00","500","","Mr sourabh","01204113783","","",
"867","Purab enterprises","","","Shop no 10 c block market kavi nagar","28.5666868","77.2852161","Old Ghaziabad","0000-00-00","100","","Mr pulkit jain","9990919202","","",
"868","DElhi gift shop","","","e 7 kavi nagar","28.5667052","77.2852147","Old Ghaziabad","0000-00-00","250","","Mr rahul","9810089407","","",
"869","Gift palace","","","E 384 Ram nagar ghaziabad","28.5667281","77.2852459","Old Ghaziabad","0000-00-00","150","","Mr ravi","9560636826","","",
"870","vardman gift and stationers","","","E 1 kavi nagar","28.5667281","77.2852403","Old Ghaziabad","0000-00-00","150","","suvidh jain","9999900473","","",
"871","Babies Wonderland","67112065","","6-3-2466,Road No.1,crossroad,RMK Plaza,Banjara hills,hyd","0","0","Begumpet / Pujagutta /Banjara Hills /Jubilee Hills","0000-00-00","600","","rajesh","67112065","rajesh","67112065",
"872","Home center","28444437","","50/4, gubbi cross bagalur main road, kothanur, Bangalore.","0","0","Kammanahalli/ Banaswadi/ Hennur/ Ram Murthy Hagar","0000-00-00","1800","","yosuf","8892959570","yosuf","8892959570",
"873","Little Square baby shop","41206699","littlesquare@live.com","33/3, hennur cross,  Bangalore.","0","0","Kammanahalli/ Banaswadi/ Hennur/ Ram Murthy Hagar","0000-00-00","700","","Suhaib","7411538385","jafin","7411538385",
"874","jasper","------++","","B-215 2nd floor orchid center opp safal parisar south bopal ahmedabad","0","0","Bopal / Sun City","0000-00-00","500","","narendra","9984508777","nagar","9898140215",
"875","A one toys","------","","G f 16 devdarshan complex opp I o c petrol pump bopal ahmedabaf","0","0","Bopal / Sun City","0000-00-00","500","","chhotu singh","9712771650","chhotu","9712771650",
"876","dream world toy shop","-------","","Ff/7 rajtilak plaza opp I o c petrol pump bopal road Ahmadabad","0","0","Bopal / Sun City","0000-00-00","500","","harshad","9727722526","harshad","9727722526",
"877","supreme educational gallery","26761168","","132, samaan complex opp satyam mall satellite","0","0","Satellite/ Jodpur","0000-00-00","0","","jayesh","------","jayesh","--------",
"878","gn the gift shop","------","","Samaan complex opp satyam mall","0","0","Satellite/ Jodpur","0000-00-00","0","","------","-------","-------","-------",
"879","ganesh agency","26750852","","2 millennium plazas opp swaminaryan temple vasrapur Ahmadabad","0","0","Vastrapur/ S G Highway","0000-00-00","500","","sunil","9426351254","sunil","9426351254",
"880","Land Mark Greeting Gallery","9000528408","landmarkgreetinggallery@yahoo.com","16-11-47761,Sahadeva Reddy sweet shop ,DSNR,Hyd","0","0","Dilsukhnagar / Chetainyapuri / Champapet / Shivam Road/ Immayatnagar","0000-00-00","600","","Krishna Reddy","7207170234","KrishnaReddy","9000528408",
"881","TOY  KING.","9673608097","","off. M.  G.  Road. Near. Garden, Camp, Pune.","18.507265","73.8766383","M.G. ROAD (CAMP)","0000-00-00","600","","Baba.","","Gautam.","9673608097",
"882","5  STAR  STATIONERS.","26133722","","Shop. No. 29, Wonderland  Bidg,  7, M. G. Road, Pune.","18.507265","73.8766383","M.G. ROAD (CAMP)","0000-00-00","400","","Mr.  Anupbhai.","","","",
"883","Nicky & Pals shoppe","27555926","","2-2-11308a,Padamanilayam,New Nallakunta,Shivam Road ,Hyd,","0","0","Dilsukhnagar / Chetainyapuri / Champapet / Shivam Road/ Immayatnagar","0000-00-00","500","","Narsing Yadav","27555926","Narsing Yadav","24560499",
